"POSTCODE","ADDRESS","CITY","STATE"
"75000","Bandar Hilir","Melaka","MLK"
"75000","Bangunan Tabung Haji","Melaka","MLK"
"75000","Bukit Gedong","Melaka","MLK"
"75000","Century Mahkota","Melaka","MLK"
"75000","Dataran Pahlawan Melaka Megamall","Melaka","MLK"
"75000","Dataran Pahlawan","Melaka","MLK"
"75000","Flat Bakti Mutiara","Melaka","MLK"
"75000","Flat Banda Kaba","Melaka","MLK"
"75000","Flat Bandar Hilir","Melaka","MLK"
"75000","Flat Garden City","Melaka","MLK"
"75000","Flat Laksamana A/B","Melaka","MLK"
"75000","Flat Polis Bandar Hilir","Melaka","MLK"
"75000","Flat Temenggung","Melaka","MLK"
"75000","Harbour Club","Melaka","MLK"
"75000","Hotel Holiday Inn Melaka","Melaka","MLK"
"75000","Jalan Banda Kaba","Melaka","MLK"
"75000","Jalan Bandar Hilir","Melaka","MLK"
"75000","Jalan Bukit Senjuang","Melaka","MLK"
"75000","Jalan Chan Koon Cheng","Melaka","MLK"
"75000","Jalan Gereja","Melaka","MLK"
"75000","Jalan Kota","Melaka","MLK"
"75000","Jalan Laksamana Cheng Ho","Melaka","MLK"
"75000","Jalan Laksamana","Melaka","MLK"
"75000","Jalan Leong Yew Koh","Melaka","MLK"
"75000","Jalan Melaka Raya","Melaka","MLK"
"75000","Jalan Merdeka","Melaka","MLK"
"75000","Jalan Panjang","Melaka","MLK"
"75000","Jalan Parameswara","Melaka","MLK"
"75000","Jalan Plaza Mahkota","Melaka","MLK"
"75000","Jalan Quayside","Melaka","MLK"
"75000","Jalan Temenggong","Melaka","MLK"
"75000","Jalan Thamby Abdullah","Melaka","MLK"
"75000","Jalan Tun Lew Koh","Melaka","MLK"
"75000","Kampung Banda Kaba","Melaka","MLK"
"75000","Kampung Bandar Hilir","Melaka","MLK"
"75000","Kampung Hilir","Melaka","MLK"
"75000","Kampung Jalan Panjang","Melaka","MLK"
"75000","Kampung Praya Lane","Melaka","MLK"
"75000","Kampung Praya","Melaka","MLK"
"75000","Lorong Banda Kaba","Melaka","MLK"
"75000","Lorong Bukit Cina (Banda Kaba)","Melaka","MLK"
"75000","Lorong Bukit Cina","Melaka","MLK"
"75000","Lorong Bukit Senjuang","Melaka","MLK"
"75000","Lorong Gereja","Melaka","MLK"
"75000","Lorong Pantai","Melaka","MLK"
"75000","Mahkota Medical Center","Melaka","MLK"
"75000","Mahkota Parade","Melaka","MLK"
"75000","Malacca Club","Melaka","MLK"
"75000","Medan Samudera","Melaka","MLK"
"75000","Melaka Raya","Melaka","MLK"
"75000","Pahlawan De Hatten Square","Melaka","MLK"
"75000","Pangsapuri Seri Bukit Senjuang","Melaka","MLK"
"75000","Plaza Bayu","Melaka","MLK"
"75000","Plaza Melaka Raya","Melaka","MLK"
"75000","Pulau Melaka","Melaka","MLK"
"75000","Pusat Seni","Melaka","MLK"
"75000","Rumah Awam Bandar Hilir","Melaka","MLK"
"75000","Rumah Pangsa Bandar Hilir","Melaka","MLK"
"75000","Rumah Pangsa Iskandar Shah","Melaka","MLK"
"75000","Taman Bakti","Melaka","MLK"
"75000","Taman Bandar Hilir Indah","Melaka","MLK"
"75000","Taman Hilir Kota 1","Melaka","MLK"
"75000","Taman Hilir Kota","Melaka","MLK"
"75000","Taman Melaka Raya","Melaka","MLK"
"75050","Ayer Leleh Kondominium","Melaka","MLK"
"75050","Ayer Leleh","Melaka","MLK"
"75050","Bukit Gedong","Melaka","MLK"
"75050","Bukit Godek (Semabok)","Melaka","MLK"
"75050","Flat Ayer Leleh","Melaka","MLK"
"75050","Flat Mawar","Melaka","MLK"
"75050","Flat Melati","Melaka","MLK"
"75050","Flat Orkid","Melaka","MLK"
"75050","Flat Teratai","Melaka","MLK"
"75050","IKS Padang Temu","Melaka","MLK"
"75050","Jalan Ayer Leleh","Melaka","MLK"
"75050","Jalan Banda","Melaka","MLK"
"75050","Jalan Bukit Gedong","Melaka","MLK"
"75050","Jalan Bukit Godek","Melaka","MLK"
"75050","Jalan Bukit Katil (Semabok)","Melaka","MLK"
"75050","Jalan Cryton","Melaka","MLK"
"75050","Jalan D' Albuquerque","Melaka","MLK"
"75050","Jalan D'Aranjo","Melaka","MLK"
"75050","Jalan Day","Melaka","MLK"
"75050","Jalan Eredia","Melaka","MLK"
"75050","Jalan Johor","Melaka","MLK"
"75050","Jalan Low Hee Kong","Melaka","MLK"
"75050","Jalan Masjid Ujong Pasir","Melaka","MLK"
"75050","Jalan Portugis Settlement","Melaka","MLK"
"75050","Jalan Portugis","Melaka","MLK"
"75050","Jalan Pulau","Melaka","MLK"
"75050","Jalan Pulau, Ujong Pasir","Melaka","MLK"
"75050","Jalan Semabok Dalam","Melaka","MLK"
"75050","Jalan Semabok","Melaka","MLK"
"75050","Jalan Seqveira","Melaka","MLK"
"75050","Jalan Texerra","Melaka","MLK"
"75050","Jalan UjongPasir","Melaka","MLK"
"75050","Jalan Yong Pak Khiam","Melaka","MLK"
"75050","Kampung Atap (Ujong Pasir)","Melaka","MLK"
"75050","Kampung Atap","Melaka","MLK"
"75050","Kampung Ayer Leleh","Melaka","MLK"
"75050","Kampung Bukit Godek","Melaka","MLK"
"75050","Kampung Ladang Semabok","Melaka","MLK"
"75050","Kampung Padang Temu","Melaka","MLK"
"75050","Kampung UjongPasir","Melaka","MLK"
"75050","Kondominium Pasir Murni","Melaka","MLK"
"75050","Lorong 1 - 4 (Ujong Pasir)","Melaka","MLK"
"75050","Lorong 1 - 7 (Bandar Hilir)","Melaka","MLK"
"75050","Lorong Bukit Senjuang","Melaka","MLK"
"75050","Lorong Empat","Melaka","MLK"
"75050","Medan Portugis","Melaka","MLK"
"75050","Padang Semabok","Melaka","MLK"
"75050","Pangsapuri Harmoni/Aman","Melaka","MLK"
"75050","Pangsapuri Kekwah","Melaka","MLK"
"75050","Pangsapuri Laksamana Cheng Ho","Melaka","MLK"
"75050","Pangsapuri Mutiara","Melaka","MLK"
"75050","Pangsapuri Pasir Emas","Melaka","MLK"
"75050","Pangsapuri Pasir Jaya","Melaka","MLK"
"75050","Pangsapuri Pasir Mutiara","Melaka","MLK"
"75050","Pangsapuri Pasir Permai","Melaka","MLK"
"75050","Pangsapuri Pasir Puteri","Melaka","MLK"
"75050","Pangsapuri Permai","Melaka","MLK"
"75050","Pangsapuri SUK A & B","Melaka","MLK"
"75050","Pangsapuri Seri Johor","Melaka","MLK"
"75050","Pangsapuri Straits Court","Melaka","MLK"
"75050","Pangsapuri Taman Kasturi","Melaka","MLK"
"75050","Pangsapuri Teratai","Melaka","MLK"
"75050","Penempatan Portugis","Melaka","MLK"
"75050","Semabok","Melaka","MLK"
"75050","Straits Court Kondominium","Melaka","MLK"
"75050","Strawberry","Melaka","MLK"
"75050","Taman Abu Bakar","Melaka","MLK"
"75050","Taman Aman","Melaka","MLK"
"75050","Taman Arkad","Melaka","MLK"
"75050","Taman Ayer Leleh Permai","Melaka","MLK"
"75050","Taman Cosa Villa","Melaka","MLK"
"75050","Taman Garden (1 & 2)","Melaka","MLK"
"75050","Taman Hilir","Melaka","MLK"
"75050","Taman Impian Padang Temu","Melaka","MLK"
"75050","Taman Jaya Baru","Melaka","MLK"
"75050","Taman Jaya","Melaka","MLK"
"75050","Taman Kampung Atap","Melaka","MLK"
"75050","Taman Kasturi","Melaka","MLK"
"75050","Taman Laksamana Cheng Ho","Melaka","MLK"
"75050","Taman Macvilla","Melaka","MLK"
"75050","Taman May Lian","Melaka","MLK"
"75050","Taman Melayu","Melaka","MLK"
"75050","Taman Nam Yang","Melaka","MLK"
"75050","Taman Padang Temu Bahagia","Melaka","MLK"
"75050","Taman Padang Temu Indah","Melaka","MLK"
"75050","Taman Padang Temu Jaya","Melaka","MLK"
"75050","Taman Padang Temu","Melaka","MLK"
"75050","Taman Pantai Hilir","Melaka","MLK"
"75050","Taman Pasir Jaya","Melaka","MLK"
"75050","Taman Pasir Mas (Semabok)","Melaka","MLK"
"75050","Taman Pertam Jaya","Melaka","MLK"
"75050","Taman Salient","Melaka","MLK"
"75050","Taman Sea View","Melaka","MLK"
"75050","Taman Semabok Jaya","Melaka","MLK"
"75050","Taman Semabok Perdana","Melaka","MLK"
"75050","Taman Semabok Permai","Melaka","MLK"
"75050","Taman Seri Bandar","Melaka","MLK"
"75050","Taman Serindit Harmoni","Melaka","MLK"
"75050","Taman Sinn","Melaka","MLK"
"75050","Taman Tang Khor Ham","Melaka","MLK"
"75050","Taman Tang Kwor Ham","Melaka","MLK"
"75050","Taman Temu Jaya","Melaka","MLK"
"75050","Taman Teratai","Melaka","MLK"
"75050","Ujong Pasir","Melaka","MLK"
"75100","Bukit Cina dalam","Melaka","MLK"
"75100","Bunga Raya Pantai","Melaka","MLK"
"75100","Center Point","Melaka","MLK"
"75100","Flat Bendahara","Melaka","MLK"
"75100","Flat Tun Sri Lanang","Melaka","MLK"
"75100","Jalan Bendahara","Melaka","MLK"
"75100","Jalan Bukit China","Melaka","MLK"
"75100","Jalan Bunga Raya Pantai","Melaka","MLK"
"75100","Jalan Bunga Raya","Melaka","MLK"
"75100","Jalan Depoh","Melaka","MLK"
"75100","Jalan Jawa","Melaka","MLK"
"75100","Jalan Kampung Jawa","Melaka","MLK"
"75100","Jalan Kee Ann","Melaka","MLK"
"75100","Jalan Munshi Abdullah","Melaka","MLK"
"75100","Jalan Pasar Baru","Melaka","MLK"
"75100","Jalan Putri Hang Li Poh","Melaka","MLK"
"75100","Jalan Tun Sri Lanang","Melaka","MLK"
"75100","Kampung Bukit China","Melaka","MLK"
"75100","Kampung Jawa","Melaka","MLK"
"75100","Kompleks Munshi Abdullah","Melaka","MLK"
"75100","Lorong Bukit Cina","Melaka","MLK"
"75100","Lorong Bunga Raya Pantai","Melaka","MLK"
"75100","Lorong Bunga Raya","Melaka","MLK"
"75100","Lorong Pengkalan Rama","Melaka","MLK"
"75100","Lorong Tun Sri Lanang","Melaka","MLK"
"75100","Pangsapuri Sungai Naga","Melaka","MLK"
"75100","Pasar Kampung Jawa","Melaka","MLK"
"75100","Pengkalan Rama Pantai","Melaka","MLK"
"75100","Pengkalan Rama Tengah","Melaka","MLK"
"75100","Plaza Inn","Melaka","MLK"
"75100","Rumah Pangsa Bendahara","Melaka","MLK"
"75100","Taman Bendahara","Melaka","MLK"
"75100","Taman Wan Show","Melaka","MLK"
"75100","Wisma Bendahara","Melaka","MLK"
"75100","Wisma Tan Cheng Tiong","Melaka","MLK"
"75150","Bukit Baru","Melaka","MLK"
"75150","Bukit Piatu","Melaka","MLK"
"75150","Bukit Sebukor","Melaka","MLK"
"75150","Flat Bukit Baru","Melaka","MLK"
"75150","Flat Bukit Piatu","Melaka","MLK"
"75150","Flat Malinja","Melaka","MLK"
"75150","Flat Polis PDRM Seri Temenggong","Melaka","MLK"
"75150","Flat Sri Temenggong","Melaka","MLK"
"75150","Jalan Bahagia","Melaka","MLK"
"75150","Jalan Bakti","Melaka","MLK"
"75150","Jalan Bukit Baru","Melaka","MLK"
"75150","Jalan Bukit Piatu","Melaka","MLK"
"75150","Jalan Bukit Sebukor","Melaka","MLK"
"75150","Jalan Dato Palembang","Melaka","MLK"
"75150","Jalan Hoe Choong","Melaka","MLK"
"75150","Jalan Hoe Tong","Melaka","MLK"
"75150","Jalan Indah 3/8","Melaka","MLK"
"75150","Jalan Indah","Melaka","MLK"
"75150","Jalan Jaya","Melaka","MLK"
"75150","Jalan Kekwa 1 hingga 6","Melaka","MLK"
"75150","Jalan Mawar","Melaka","MLK"
"75150","Jalan Melor","Melaka","MLK"
"75150","Jalan Padang Jambu","Melaka","MLK"
"75150","Jalan Paya Ikan","Melaka","MLK"
"75150","Jalan Penghulu Abbas","Melaka","MLK"
"75150","Jalan Rusa","Melaka","MLK"
"75150","Jalan Sentosa","Melaka","MLK"
"75150","Jalan Tanjong","Melaka","MLK"
"75150","Kampung Balik Bukit","Melaka","MLK"
"75150","Kampung Bukit Baru Dalam","Melaka","MLK"
"75150","Kampung Bukit Baru","Melaka","MLK"
"75150","Kampung Bukit Piatu","Melaka","MLK"
"75150","Kampung Ku Sayang","Melaka","MLK"
"75150","Kampung Musai","Melaka","MLK"
"75150","Kampung Padang Jambu, Hang Tuah Jaya","Melaka","MLK"
"75150","Kampung Paya Ikan","Melaka","MLK"
"75150","Kampung Pengkalan Batu, Hang Tuah Jaya","Melaka","MLK"
"75150","Kampung Pulau","Melaka","MLK"
"75150","Kampung Solok Bukit Piatu","Melaka","MLK"
"75150","Kampung Solok Bukit Pulau","Melaka","MLK"
"75150","Kampung Solok Musai","Melaka","MLK"
"75150","Kolej Yayasan Melaka","Melaka","MLK"
"75150","Kondominium Bukit Baru Ria, Hang Tuah Jaya","Melaka","MLK"
"75150","Kuarters Kastam","Melaka","MLK"
"75150","Lorong Mat Riau","Melaka","MLK"
"75150","Lorong Mawar","Melaka","MLK"
"75150","Lorong Penghulu Abbas","Melaka","MLK"
"75150","Lorong Sidang Omar","Melaka","MLK"
"75150","Pangsapuri Mahsuri","Melaka","MLK"
"75150","Pangsapuri Pertama","Melaka","MLK"
"75150","Pangsapuri Sri Siantan","Melaka","MLK"
"75150","Pekan Bukit Baru","Melaka","MLK"
"75150","Pengkalan Batu","Melaka","MLK"
"75150","Rumah Pangsa Bukit Piatu","Melaka","MLK"
"75150","Rumah Pangsa Permata","Melaka","MLK"
"75150","Simpang Bukit Baru","Melaka","MLK"
"75150","Simpang Bukit Sebukor","Melaka","MLK"
"75150","Sin Hoe Garden","Melaka","MLK"
"75150","Solok Balik Bukit Piatu","Melaka","MLK"
"75150","Solok Bukit Baru Dalam","Melaka","MLK"
"75150","Solok Bukit Piatu","Melaka","MLK"
"75150","Solok Bukit Pulau","Melaka","MLK"
"75150","Solok Bukit Sepam","Melaka","MLK"
"75150","Taman Bahagia, Hang Tuah Jaya","Melaka","MLK"
"75150","Taman Bukit Baru Jaya","Melaka","MLK"
"75150","Taman Bukit Baru, Hang Tuah Jaya","Melaka","MLK"
"75150","Taman Bukit Palembang, Hang Tuah Jaya","Melaka","MLK"
"75150","Taman Bukit Piatu Mutiara","Melaka","MLK"
"75150","Taman Bukit Piatu","Melaka","MLK"
"75150","Taman Dato Palembang, Hang Tuah Jaya","Melaka","MLK"
"75150","Taman Datuk Palembang","Melaka","MLK"
"75150","Taman Delima Raya, Hang Tuah Jaya","Melaka","MLK"
"75150","Taman Delima","Melaka","MLK"
"75150","Taman Desa Indah","Melaka","MLK"
"75150","Taman Desa Jaya","Melaka","MLK"
"75150","Taman Goodwood","Melaka","MLK"
"75150","Taman Harta Pertama","Melaka","MLK"
"75150","Taman Indah 2, Hang Tuah Jaya","Melaka","MLK"
"75150","Taman Indah Sek 3","Melaka","MLK"
"75150","Taman Indah Seksyen 1, Hang Tuah Jaya","Melaka","MLK"
"75150","Taman Indah Seksyen 2, Hang Tuah Jaya","Melaka","MLK"
"75150","Taman Indah Seksyen 3","Melaka","MLK"
"75150","Taman Indah, Hang Tuah Jaya","Melaka","MLK"
"75150","Taman Kedua","Melaka","MLK"
"75150","Taman Malinja","Melaka","MLK"
"75150","Taman Penghulu Abas, Hang Tuah Jaya","Melaka","MLK"
"75150","Taman Penglima","Melaka","MLK"
"75150","Taman Perumahan Polis Seri Temenggong, Hang Tuah Jaya","Melaka","MLK"
"75150","Taman Putra Height, Hang Tuah Jaya","Melaka","MLK"
"75150","Taman Putra","Melaka","MLK"
"75150","Taman Sentosa Besar","Melaka","MLK"
"75150","Taman Sentosa Kecil","Melaka","MLK"
"75150","Taman Sentosa, Hang Tuah Jaya","Melaka","MLK"
"75150","Taman Setia Jaya","Melaka","MLK"
"75150","Taman Setia Kawan","Melaka","MLK"
"75150","Taman Siantan Seksyen 1","Melaka","MLK"
"75150","Taman Sin Hoe","Melaka","MLK"
"75150","Taman Temenggong, Hang Tuah Jaya","Melaka","MLK"
"75150","Taman Tropicana","Melaka","MLK"
"75200","3rd Cross Street","Melaka","MLK"
"75200","Balik Buloh","Melaka","MLK"
"75200","First Cross Street","Melaka","MLK"
"75200","Flat Al Ehsan","Melaka","MLK"
"75200","Flat Kenanga Seksyen 3","Melaka","MLK"
"75200","Flat Siantan","Melaka","MLK"
"75200","Golden Coast Pangsapuri Langkawi","Melaka","MLK"
"75200","Golden Shower","Melaka","MLK"
"75200","Gorbina Kondominium","Melaka","MLK"
"75200","Jalan Abdul GHAFAR","Melaka","MLK"
"75200","Jalan Bayu","Melaka","MLK"
"75200","Jalan Gajah Berang","Melaka","MLK"
"75200","Jalan Hang Jebat","Melaka","MLK"
"75200","Jalan Hang Kasturi","Melaka","MLK"
"75200","Jalan Hang Lekir","Melaka","MLK"
"75200","Jalan Hang Lekiu","Melaka","MLK"
"75200","Jalan Kampung Kuli","Melaka","MLK"
"75200","Jalan Kampung Lapan","Melaka","MLK"
"75200","Jalan Kampung Pantai","Melaka","MLK"
"75200","Jalan Kapitan","Melaka","MLK"
"75200","Jalan Kesidang (Kampung Lapan)","Melaka","MLK"
"75200","Jalan Kesidang","Melaka","MLK"
"75200","Jalan Kota Laksamana","Melaka","MLK"
"75200","Jalan Limbongan","Melaka","MLK"
"75200","Jalan Masjid","Melaka","MLK"
"75200","Jalan Melati (Klebang Kecil)","Melaka","MLK"
"75200","Jalan Meranti (2 - 5)","Melaka","MLK"
"75200","Jalan Orkid","Melaka","MLK"
"75200","Jalan Pulau Gadong (1 - 8)","Melaka","MLK"
"75200","Jalan Pulau Gadong","Melaka","MLK"
"75200","Jalan Sekolah","Melaka","MLK"
"75200","Jalan Seri Kota Laksamana","Melaka","MLK"
"75200","Jalan Tai Boon Seng","Melaka","MLK"
"75200","Jalan Tengkera Pantai 1 & 2","Melaka","MLK"
"75200","Jalan Tengkera","Melaka","MLK"
"75200","Jalan Tokong","Melaka","MLK"
"75200","Jalan Tukang Besi","Melaka","MLK"
"75200","Jalan Tukang Emas","Melaka","MLK"
"75200","Jalan Tun Tan Cheng Lock","Melaka","MLK"
"75200","Jalan Woon Hoe Kam","Melaka","MLK"
"75200","Kampung 5 Gajah Berang","Melaka","MLK"
"75200","Kampung 8 Bachang","Melaka","MLK"
"75200","Kampung 8 Lorong Pandan","Melaka","MLK"
"75200","Kampung 8 Tengkera Pantai Dua","Melaka","MLK"
"75200","Kampung 9 off Jalan Tengkera","Melaka","MLK"
"75200","Kampung Bahagia","Melaka","MLK"
"75200","Kampung Balik Buloh","Melaka","MLK"
"75200","Kampung Batak","Melaka","MLK"
"75200","Kampung Dua (Kubu)","Melaka","MLK"
"75200","Kampung Dua","Melaka","MLK"
"75200","Kampung Hulu","Melaka","MLK"
"75200","Kampung Kesidang","Melaka","MLK"
"75200","Kampung Lapan (Tengkera)","Melaka","MLK"
"75200","Kampung Pantai","Melaka","MLK"
"75200","Kampung Pulau Gadong","Melaka","MLK"
"75200","Kampung Sembilan (Tengkera)","Melaka","MLK"
"75200","Kampung Tengah (Klebang Besar)","Melaka","MLK"
"75200","Kampung Tengkera","Melaka","MLK"
"75200","Kampung Tiga Kubu","Melaka","MLK"
"75200","Kampung Tujuh (Gajah Berang)","Melaka","MLK"
"75200","Klebang Besar","Melaka","MLK"
"75200","Klebang Kechil","Melaka","MLK"
"75200","Kondo Kesidang Emas","Melaka","MLK"
"75200","Kondo Siantan Puri","Melaka","MLK"
"75200","Kondominium Klebang Delima","Melaka","MLK"
"75200","Lagenda Kondominium","Melaka","MLK"
"75200","Limbongan","Melaka","MLK"
"75200","Lorong Batak 1 & 2","Melaka","MLK"
"75200","Lorong DTK Manila","Melaka","MLK"
"75200","Lorong Hang Jebat","Melaka","MLK"
"75200","Lorong Jembatan","Melaka","MLK"
"75200","Lorong Kapitan","Melaka","MLK"
"75200","Lorong Kesang","Melaka","MLK"
"75200","Lorong Mariappan","Melaka","MLK"
"75200","Lorong Masjid","Melaka","MLK"
"75200","Lorong Meringgu","Melaka","MLK"
"75200","Lorong Pak Itam","Melaka","MLK"
"75200","Lorong Pokok Mangga 1,2 & 3","Melaka","MLK"
"75200","Lorong Taman Kota Laksamana","Melaka","MLK"
"75200","Melaka Mall","Melaka","MLK"
"75200","Pangsapuri Kesidang","Melaka","MLK"
"75200","Pangsapuri Kota Laksamana Utama","Melaka","MLK"
"75200","Pangsapuri Kota Laksamana","Melaka","MLK"
"75200","Pangsapuri Pandan Wangi","Melaka","MLK"
"75200","Park View Court","Melaka","MLK"
"75200","Pekan Pokok Mangga","Melaka","MLK"
"75200","Plaza Kesidang","Melaka","MLK"
"75200","Pulau Gadong","Melaka","MLK"
"75200","Rumah Awam Pulau Gadong 2","Melaka","MLK"
"75200","Rumah Awam Pulau Gadong","Melaka","MLK"
"75200","Rumah Pangsa Jalan Kenanga","Melaka","MLK"
"75200","Rumah Pangsa Jasa","Melaka","MLK"
"75200","Rumah Pangsa Kampung 8","Melaka","MLK"
"75200","Rumah Pangsa Kesidang Indah","Melaka","MLK"
"75200","Solok Kampung Baru","Melaka","MLK"
"75200","Taman Abdul Ghafar","Melaka","MLK"
"75200","Taman Anggerik","Melaka","MLK"
"75200","Taman Aunler","Melaka","MLK"
"75200","Taman Bagus","Melaka","MLK"
"75200","Taman Cempaka","Melaka","MLK"
"75200","Taman Gadong Bahagia","Melaka","MLK"
"75200","Taman Gadong Perdana","Melaka","MLK"
"75200","Taman Gembira","Melaka","MLK"
"75200","Taman Hang Tuah","Melaka","MLK"
"75200","Taman Kagum","Melaka","MLK"
"75200","Taman Kenanga (Seksyen 1)","Melaka","MLK"
"75200","Taman Kenanga (Seksyen 2)","Melaka","MLK"
"75200","Taman Kenanga (Seksyen 3)","Melaka","MLK"
"75200","Taman Kenanga","Melaka","MLK"
"75200","Taman Kesidang (Seksyen 1 & 2)","Melaka","MLK"
"75200","Taman Kesidang Indah","Melaka","MLK"
"75200","Taman Kesidang Seksyen 1 & 2","Melaka","MLK"
"75200","Taman Kesidang","Melaka","MLK"
"75200","Taman Klebang Besar","Melaka","MLK"
"75200","Taman Klebang Jaya","Melaka","MLK"
"75200","Taman Klebang Kecil","Melaka","MLK"
"75200","Taman Klebang Permai","Melaka","MLK"
"75200","Taman Kota Laksamana Seksyen 1 & 2","Melaka","MLK"
"75200","Taman Kota Laksamana Seksyen 3","Melaka","MLK"
"75200","Taman Kota Laksamana","Melaka","MLK"
"75200","Taman Kota Syahbandar","Melaka","MLK"
"75200","Taman Limbongan Indah","Melaka","MLK"
"75200","Taman Limbongan Permai","Melaka","MLK"
"75200","Taman Mandarin Court","Melaka","MLK"
"75200","Taman Mawar","Melaka","MLK"
"75200","Taman Mayfair","Melaka","MLK"
"75200","Taman Melati","Melaka","MLK"
"75200","Taman Ming Hock","Melaka","MLK"
"75200","Taman Muhibah","Melaka","MLK"
"75200","Taman Orkid","Melaka","MLK"
"75200","Taman Pantai Emas","Melaka","MLK"
"75200","Taman Pasir Emas","Melaka","MLK"
"75200","Taman Pulau Gadong Jaya","Melaka","MLK"
"75200","Taman Pulau Gadong","Melaka","MLK"
"75200","Taman Purnama","Melaka","MLK"
"75200","Taman Puspa","Melaka","MLK"
"75200","Taman Sayang Selasih","Melaka","MLK"
"75200","Taman Seri Bacang","Melaka","MLK"
"75200","Taman Seri Bancang (Flat)","Melaka","MLK"
"75200","Taman Seri Bayu (Jalan Kesidang)","Melaka","MLK"
"75200","Taman Seri Indah","Melaka","MLK"
"75200","Taman Seri Pandan","Melaka","MLK"
"75200","Taman Seri Putra","Melaka","MLK"
"75200","Taman Seri Siantan","Melaka","MLK"
"75200","Taman Seroja","Melaka","MLK"
"75200","Taman Setia Jaya","Melaka","MLK"
"75200","Taman Setia","Melaka","MLK"
"75200","Taman Siantan","Melaka","MLK"
"75200","Taman Sri Bayu","Melaka","MLK"
"75200","Taman Tay Boon Seng","Melaka","MLK"
"75200","Taman Tengkera Indah","Melaka","MLK"
"75200","Taman Tengkera Jaya","Melaka","MLK"
"75200","Taman Tengkera","Melaka","MLK"
"75200","Taman Union","Melaka","MLK"
"75200","Taman Usrah Jaya","Melaka","MLK"
"75200","Tan Teek Chye Avenue","Melaka","MLK"
"75250","Balai Panjang","Melaka","MLK"
"75250","Blok Anggerik Malim Jaya","Melaka","MLK"
"75250","Blok Bunga Raya","Melaka","MLK"
"75250","Blok Orkid","Melaka","MLK"
"75250","Dewan Badminton Seri Pandan","Melaka","MLK"
"75250","Flat Taman Asean","Melaka","MLK"
"75250","IMJ Malim Jaya","Melaka","MLK"
"75250","Jalan Abadi (1 - 26)","Melaka","MLK"
"75250","Jalan Abadi","Melaka","MLK"
"75250","Jalan Balai Panjang (Hingga Batu 3)","Melaka","MLK"
"75250","Jalan Berkat","Melaka","MLK"
"75250","Jalan Dahlia","Melaka","MLK"
"75250","Jalan Kampung Padang","Melaka","MLK"
"75250","Jalan Malim Jaya","Melaka","MLK"
"75250","Jalan Malim","Melaka","MLK"
"75250","Jalan Murni (5 - 17)","Melaka","MLK"
"75250","Jalan Murni","Melaka","MLK"
"75250","Jalan Pokok Mangga","Melaka","MLK"
"75250","Jalan Rahmat","Melaka","MLK"
"75250","Jalan Suria","Melaka","MLK"
"75250","Jalan Zahir (1 - 24)","Melaka","MLK"
"75250","Kampung Balai Panjang","Melaka","MLK"
"75250","Kampung Baruh (Bachang)","Melaka","MLK"
"75250","Kampung Padang","Melaka","MLK"
"75250","Kawasan Perindustrian Malim Jaya","Melaka","MLK"
"75250","Lorong Pandan","Melaka","MLK"
"75250","Pandan Indah","Melaka","MLK"
"75250","Pandan Point","Melaka","MLK"
"75250","Pangsapuri Malim","Melaka","MLK"
"75250","Pangsapuri Puteri Kesidang","Melaka","MLK"
"75250","Plaza Pandan Malim","Melaka","MLK"
"75250","Plaza Pandan Perdana","Melaka","MLK"
"75250","Rumah Pangsa Pandan Indah","Melaka","MLK"
"75250","Rumah Pangsa Pandan Malim","Melaka","MLK"
"75250","Solok Baroh Balai Panjang","Melaka","MLK"
"75250","Taman Anika","Melaka","MLK"
"75250","Taman Asean","Melaka","MLK"
"75250","Taman Balai Panjang Murni","Melaka","MLK"
"75250","Taman Iks Malim Jaya","Melaka","MLK"
"75250","Taman Malim Jaya Seksyen 1","Melaka","MLK"
"75250","Taman Malim Jaya","Melaka","MLK"
"75250","Taman Malim Jaya, Hang Tuah Jaya","Melaka","MLK"
"75250","Taman Malim Permai, Hang Tuah Jaya","Melaka","MLK"
"75250","Taman Mutiara","Melaka","MLK"
"75250","Taman Pandan Indah","Melaka","MLK"
"75250","Taman Pandan Jaya","Melaka","MLK"
"75250","Taman Pandan Maju","Melaka","MLK"
"75250","Taman Pandan Malim","Melaka","MLK"
"75250","Taman Pandan Mawar","Melaka","MLK"
"75250","Taman Pandan Perdana","Melaka","MLK"
"75250","Taman Pokok Mangga","Melaka","MLK"
"75250","Taman Seri Mangga Seksyen 1 & 2","Melaka","MLK"
"75250","Taman Seri Mangga","Melaka","MLK"
"75250","Taman Seri Pandan","Melaka","MLK"
"75250","Taman Tisah","Melaka","MLK"
"75250","Taman Wangi","Melaka","MLK"
"75260","Ayer Salak","Melaka","MLK"
"75260","Bertam Estate","Melaka","MLK"
"75260","Bertam Malim","Melaka","MLK"
"75260","Bukit Dato Ucho","Melaka","MLK"
"75260","Bukit Datok","Melaka","MLK"
"75260","Bukit Rambai","Melaka","MLK"
"75260","Cheng (Batu 5)","Melaka","MLK"
"75260","Cheng Baru","Melaka","MLK"
"75260","Desa Cheng Perdana","Melaka","MLK"
"75260","Desa Permai Cheng","Melaka","MLK"
"75260","Emerald Court","Melaka","MLK"
"75260","Flat Klinik Cheng","Melaka","MLK"
"75260","Jalan BR (1 - 6), Taman Bertam Ria","Melaka","MLK"
"75260","Jalan Bukit Cheng","Melaka","MLK"
"75260","Jalan Cheng Perdana","Melaka","MLK"
"75260","Jalan Cheng","Melaka","MLK"
"75260","Jalan Demang Mohd","Melaka","MLK"
"75260","Jalan Gaung Piring Bertam Malim","Melaka","MLK"
"75260","Jalan Gaung Piring Cheng","Melaka","MLK"
"75260","Jalan Gedung Lalang","Melaka","MLK"
"75260","Jalan Gelanggang Cheng","Melaka","MLK"
"75260","Jalan Haji Ariffin","Melaka","MLK"
"75260","Jalan KI (1 - 3), Taman Krubong Indah","Melaka","MLK"
"75260","Jalan KU 1 hingga Jalan KU 24","Melaka","MLK"
"75260","Jalan Kampung Tampoi Indah","Melaka","MLK"
"75260","Jalan Kampung Tampoi","Melaka","MLK"
"75260","Jalan Kejora 1, 2 dan 3","Melaka","MLK"
"75260","Jalan Krubong Utama","Melaka","MLK"
"75260","Jalan Kubor China","Melaka","MLK"
"75260","Jalan Malim","Melaka","MLK"
"75260","Jalan Pantai Cheng","Melaka","MLK"
"75260","Jalan Paya Mengkuang","Melaka","MLK"
"75260","Jalan Sabidah","Melaka","MLK"
"75260","Jalan Seberang Gajah","Melaka","MLK"
"75260","Jalan Seri Krubong","Melaka","MLK"
"75260","Jalan Setulang Daing","Melaka","MLK"
"75260","Jalan Sidang Wahab","Melaka","MLK"
"75260","Jalan Soya Cheng","Melaka","MLK"
"75260","Jalan TMJ (1 - 16), Taman Tanjong Minyak Jaya","Melaka","MLK"
"75260","Jalan Tampoi","Melaka","MLK"
"75260","Jalan Tanjung Minyak","Melaka","MLK"
"75260","Jalan Wakaf Tampoi","Melaka","MLK"
"75260","Kampung Banjir","Melaka","MLK"
"75260","Kampung Baru (Tanjung Minyak)","Melaka","MLK"
"75260","Kampung Gedong Lalang","Melaka","MLK"
"75260","Kampung Kemboja (Bukit Datuk)","Melaka","MLK"
"75260","Kampung Ladang","Melaka","MLK"
"75260","Kampung Lanjut Manis","Melaka","MLK"
"75260","Kampung Pantai Cheng","Melaka","MLK"
"75260","Kampung Seberang Gajah","Melaka","MLK"
"75260","Kampung Solok Jeram","Melaka","MLK"
"75260","Kampung Sungai Badau","Melaka","MLK"
"75260","Kampung Tanah Merah","Melaka","MLK"
"75260","Kampung Tanjong Minyak","Melaka","MLK"
"75260","Kampung Tengah (Tanjong Minyak)","Melaka","MLK"
"75260","Kawasan Industri Bukit Rambai","Melaka","MLK"
"75260","Kawasan Kilang Cheng TTC","Melaka","MLK"
"75260","Kawasan Perindustrian Bukit Rambai","Melaka","MLK"
"75260","Kawasan Perindustrian Cheng","Melaka","MLK"
"75260","Kawasan Perindustrian Krubong","Melaka","MLK"
"75260","Kompleks Perumahan Ibu Pejabat Polis Daerah Krubong","Melaka","MLK"
"75260","Kompleks Sukan Hang Jebat","Melaka","MLK"
"75260","Kompleks Sukan Paya Rumput","Melaka","MLK"
"75260","Kondo Cheng Heights","Melaka","MLK"
"75260","Krubong (Batu 9 - 10)","Melaka","MLK"
"75260","Leong Wat Hin Estate","Melaka","MLK"
"75260","Lian Huat Estate","Melaka","MLK"
"75260","Lorong Masjid","Melaka","MLK"
"75260","Pekan Bukit Rambai","Melaka","MLK"
"75260","Rumah Awam Bertam Malim","Melaka","MLK"
"75260","Rumah Awam Bukit Rambai","Melaka","MLK"
"75260","Rumah Awam Cheng","Melaka","MLK"
"75260","Rumah Awam Datin Fatimah","Melaka","MLK"
"75260","Setulang Daing","Melaka","MLK"
"75260","Solok Ayer Hitam","Melaka","MLK"
"75260","Solok Bukit Palah","Melaka","MLK"
"75260","Solok Paya Lebar","Melaka","MLK"
"75260","Solok Paya Mengkuang (1 & 2)","Melaka","MLK"
"75260","Solok Soya","Melaka","MLK"
"75260","Sungai Air Hitam","Melaka","MLK"
"75260","Sungai Badau Luar","Melaka","MLK"
"75260","Sungai Badau","Melaka","MLK"
"75260","Taman Air Salak","Melaka","MLK"
"75260","Taman Balkis","Melaka","MLK"
"75260","Taman Bertam Bahagia","Melaka","MLK"
"75260","Taman Bertam Murni","Melaka","MLK"
"75260","Taman Bertam Mutiara","Melaka","MLK"
"75260","Taman Bertam Perdana","Melaka","MLK"
"75260","Taman Bertam Ria","Melaka","MLK"
"75260","Taman Bomba Bukit Cheng","Melaka","MLK"
"75260","Taman Bukit Cheng","Melaka","MLK"
"75260","Taman Bukit Rambai 1 & 2","Melaka","MLK"
"75260","Taman Bukit Rambai Seksyen 2","Melaka","MLK"
"75260","Taman Bukit Rambai","Melaka","MLK"
"75260","Taman Cenderawasih","Melaka","MLK"
"75260","Taman Cheng Baru Fasa 1","Melaka","MLK"
"75260","Taman Cheng Baru","Melaka","MLK"
"75260","Taman Cheng Bestari","Melaka","MLK"
"75260","Taman Cheng Bistari","Melaka","MLK"
"75260","Taman Cheng Indah","Melaka","MLK"
"75260","Taman Cheng Jaya 1","Melaka","MLK"
"75260","Taman Cheng Jaya","Melaka","MLK"
"75260","Taman Cheng Mutiara","Melaka","MLK"
"75260","Taman Cheng Perdana 1","Melaka","MLK"
"75260","Taman Cheng Perdana Eden Heights","Melaka","MLK"
"75260","Taman Cheng Perdana","Melaka","MLK"
"75260","Taman Cheng Permai","Melaka","MLK"
"75260","Taman Cheng Ria","Melaka","MLK"
"75260","Taman Cheng Utama","Melaka","MLK"
"75260","Taman Damai (Tanjung Minyak)","Melaka","MLK"
"75260","Taman Desa Cheng Perdana 1","Melaka","MLK"
"75260","Taman Desa Damai (Tanjung Minyak)","Melaka","MLK"
"75260","Taman Desa Damai","Melaka","MLK"
"75260","Taman Krubong Indah","Melaka","MLK"
"75260","Taman Krubong Jaya","Melaka","MLK"
"75260","Taman Krubong Perdana","Melaka","MLK"
"75260","Taman Krubong Permai","Melaka","MLK"
"75260","Taman Krubong","Melaka","MLK"
"75260","Taman Perindustrian Krubong","Melaka","MLK"
"75260","Taman Permai","Melaka","MLK"
"75260","Taman Perwira (Cheng)","Melaka","MLK"
"75260","Taman Puncak Bertam","Melaka","MLK"
"75260","Taman Puncak Rambai","Melaka","MLK"
"75260","Taman Rambai Emas","Melaka","MLK"
"75260","Taman Rambai Harmoni","Melaka","MLK"
"75260","Taman Rambai Idaman","Melaka","MLK"
"75260","Taman Rambai Indah","Melaka","MLK"
"75260","Taman Rambai Jaya","Melaka","MLK"
"75260","Taman Rambai Mesra","Melaka","MLK"
"75260","Taman Rambai Murni 2","Melaka","MLK"
"75260","Taman Rambai Murni","Melaka","MLK"
"75260","Taman Rambai Mutiara","Melaka","MLK"
"75260","Taman Rambai Permai","Melaka","MLK"
"75260","Taman Rambai Ria","Melaka","MLK"
"75260","Taman Rambai Setia","Melaka","MLK"
"75260","Taman Rambai Sutera","Melaka","MLK"
"75260","Taman Rambai Tengah","Melaka","MLK"
"75260","Taman Rambai Utama","Melaka","MLK"
"75260","Taman Rambai","Melaka","MLK"
"75260","Taman Saga","Melaka","MLK"
"75260","Taman Seri Krubong (1 & 2)","Melaka","MLK"
"75260","Taman Seri Krubong Jaya","Melaka","MLK"
"75260","Taman Seri Krubong","Melaka","MLK"
"75260","Taman Seri Putih","Melaka","MLK"
"75260","Taman Seri Rambai Fasa 1","Melaka","MLK"
"75260","Taman Seri Rambai","Melaka","MLK"
"75260","Taman Sri Nenas","Melaka","MLK"
"75260","Taman Sri Tanjung Minyak","Melaka","MLK"
"75260","Taman Tanjong Indah","Melaka","MLK"
"75260","Taman Tanjung Minyak Baru","Melaka","MLK"
"75260","Taman Tanjung Minyak Jaya","Melaka","MLK"
"75260","Taman Tanjung Minyak Setia","Melaka","MLK"
"75260","Taman Tanjung Minyak Utama","Melaka","MLK"
"75260","Taman Tanjung Minyak","Melaka","MLK"
"75260","Taman Teknologi Cheng","Melaka","MLK"
"75260","Taman Wangi (Norpiah)","Melaka","MLK"
"75260","Tanah Merah","Melaka","MLK"
"75300","Bangunan Bank Rakyat","Melaka","MLK"
"75300","Bangunan Dato Ghani Ali","Melaka","MLK"
"75300","Bangunan Dato Mohd","Melaka","MLK"
"75300","Bangunan Graha Maju","Melaka","MLK"
"75300","Bangunan Jaya Muda","Melaka","MLK"
"75300","Bangunan Mara","Melaka","MLK"
"75300","Bangunan Seri Negeri","Melaka","MLK"
"75300","Bangunan Wisma Persekutuan","Melaka","MLK"
"75300","Bangunan Yayasan Melaka","Melaka","MLK"
"75300","Dewan Hang Tuah","Melaka","MLK"
"75300","Flat Kenanga Mewah","Melaka","MLK"
"75300","Flat Kenanga Seksyen 3","Melaka","MLK"
"75300","Gajah Berang","Melaka","MLK"
"75300","Hang Tuah Mall","Melaka","MLK"
"75300","Jalan Bachang","Melaka","MLK"
"75300","Jalan Graha Maju","Melaka","MLK"
"75300","Jalan Hang Tuah","Melaka","MLK"
"75300","Jalan Kampung Empat","Melaka","MLK"
"75300","Jalan Kampung Morten","Melaka","MLK"
"75300","Jalan Kenanga","Melaka","MLK"
"75300","Jalan Kilang","Melaka","MLK"
"75300","Jalan Kubu","Melaka","MLK"
"75300","Jalan Ong Keng Hoon","Melaka","MLK"
"75300","Jalan Ong Kim Wee","Melaka","MLK"
"75300","Jalan Pelandok Putih","Melaka","MLK"
"75300","Jalan Tan Chay Yan","Melaka","MLK"
"75300","Jalan Tang Yee Biew","Melaka","MLK"
"75300","Jalan Tengkera (Atas & Bawah)","Melaka","MLK"
"75300","Jalan Tun Ali","Melaka","MLK"
"75300","Jalan Tun Mamat","Melaka","MLK"
"75300","Jalan Tun Mutahir","Melaka","MLK"
"75300","Jalan Tun Perak (Bachang)","Melaka","MLK"
"75300","Jalan Tun Perak Kampung 6","Melaka","MLK"
"75300","Jalan Tun Perak","Melaka","MLK"
"75300","KMA Digital Mall","Melaka","MLK"
"75300","Kampung Bachang","Melaka","MLK"
"75300","Kampung BakarBatu","Melaka","MLK"
"75300","Kampung Baru Melaka","Melaka","MLK"
"75300","Kampung Empat (Kubu)","Melaka","MLK"
"75300","Kampung Enam (Bachang)","Melaka","MLK"
"75300","Kampung Morten","Melaka","MLK"
"75300","Kampung Tujuh","Melaka","MLK"
"75300","Kompleks Mara","Melaka","MLK"
"75300","Lorong Belakang","Melaka","MLK"
"75300","Pangsapuri Sri Kubu","Melaka","MLK"
"75300","Pangsapuri Tun Mutahir","Melaka","MLK"
"75300","Pangsapuri Tun Perak","Melaka","MLK"
"75300","Pasar Besar","Melaka","MLK"
"75300","Plaza Hang Tuah","Melaka","MLK"
"75300","Plaza Sri Kubu","Melaka","MLK"
"75300","Plaza Usahawan","Melaka","MLK"
"75300","Plaza Wang","Melaka","MLK"
"75300","Rumah Pangsa Kenanga Mewah","Melaka","MLK"
"75300","Rumah Pangsa Muhibbah","Melaka","MLK"
"75300","Soon Seng Plaza","Melaka","MLK"
"75300","Taman Bachang","Melaka","MLK"
"75300","Taman Nam Seng","Melaka","MLK"
"75300","Taman Orkid Mewah","Melaka","MLK"
"75300","Taman Rumpon Bahagia","Melaka","MLK"
"75300","Wisma Persekutuan","Melaka","MLK"
"75350","Arked Sutera Belia","Melaka","MLK"
"75350","Arked Sutera Jaya","Melaka","MLK"
"75350","Batu Berendam Putera","Melaka","MLK"
"75350","Batu Berendam","Melaka","MLK"
"75350","Batu Hampar","Melaka","MLK"
"75350","Jalan Batu Berendam","Melaka","MLK"
"75350","Jalan Batu Hampar","Melaka","MLK"
"75350","Jalan Cengal","Melaka","MLK"
"75350","Jalan Datuk Seri Haji Mohd Zin","Melaka","MLK"
"75350","Jalan Gudang Beras","Melaka","MLK"
"75350","Jalan IKS M 5, 6, 7, 7A, 8","Melaka","MLK"
"75350","Jalan Jasa Merdeka","Melaka","MLK"
"75350","Jalan Kolam Ikan","Melaka","MLK"
"75350","Jalan Lapangan Terbang","Melaka","MLK"
"75350","Jalan Melaka Baru Fasa 3","Melaka","MLK"
"75350","Jalan Melaka Baru","Melaka","MLK"
"75350","Jalan Meranti","Melaka","MLK"
"75350","Jalan Merdeka","Melaka","MLK"
"75350","Jalan Pengaga","Melaka","MLK"
"75350","Jalan Peringgit (Batu Berendam)","Melaka","MLK"
"75350","Jalan Solok Pulau Nibong","Melaka","MLK"
"75350","Jalan Taman Merdeka","Melaka","MLK"
"75350","Jalan Taman Perkota","Melaka","MLK"
"75350","Jalan Tembusu","Melaka","MLK"
"75350","Jelutong","Melaka","MLK"
"75350","Kampung Bachang Pasir Putih","Melaka","MLK"
"75350","Kampung Batu Ampar","Melaka","MLK"
"75350","Kampung Batu Berendam","Melaka","MLK"
"75350","Kampung Batu Hampar","Melaka","MLK"
"75350","Kampung Batu Hampar, Hang Tuah Jaya","Melaka","MLK"
"75350","Kampung Gelanggang Sikumi","Melaka","MLK"
"75350","Kampung Pasir Putih","Melaka","MLK"
"75350","Kampung Pulau Nibong","Melaka","MLK"
"75350","Kampung Pulau Samak","Melaka","MLK"
"75350","Kampung Solok Pulau Nibong","Melaka","MLK"
"75350","Kampung Solok Sang Lang","Melaka","MLK"
"75350","Kampung Solok Sarang Helang","Melaka","MLK"
"75350","Kampung Sungai Putat","Melaka","MLK"
"75350","Lapangan Terbang Batu Berendam","Melaka","MLK"
"75350","Lorong Bachang","Melaka","MLK"
"75350","Menara Pertam, Hang Tuah Jaya","Melaka","MLK"
"75350","Pangsapuri Kiara Apartment","Melaka","MLK"
"75350","Pangsapuri Melaka Baru, Hang Tuah Jaya","Melaka","MLK"
"75350","Pangsapuri Taman Merdeka","Melaka","MLK"
"75350","Pangsapuri Tasek Barat, Hang Tuah Jaya","Melaka","MLK"
"75350","Peringgit Point","Melaka","MLK"
"75350","Pulau Samak","Melaka","MLK"
"75350","Rumah Awam Batu Berendam","Melaka","MLK"
"75350","Rumah Awam Seri Budi","Melaka","MLK"
"75350","Rumah Awam Setia Budi, Hang Tuah Jaya","Melaka","MLK"
"75350","Rumah Awam Sungai Putat","Melaka","MLK"
"75350","Rumah Pangsa Bacang Permai, Hang Tuah Jaya","Melaka","MLK"
"75350","Rumah Pangsa Batu Berendam, Hang Tuah Jaya","Melaka","MLK"
"75350","Rumah Pangsa Pegaga Taman Merdeka","Melaka","MLK"
"75350","Rumah Pangsa Taman Merdeka, Hang Tuah Jaya","Melaka","MLK"
"75350","Solok Pasir Putih","Melaka","MLK"
"75350","Solok Pulau Nibong","Melaka","MLK"
"75350","Solok Sang Lang","Melaka","MLK"
"75350","Sungai Putat","Melaka","MLK"
"75350","Taman Akasia, Hang Tuah Jaya","Melaka","MLK"
"75350","Taman Ara Indah, Hang Tuah Jaya","Melaka","MLK"
"75350","Taman Ara Permai, Hang Tuah Jaya","Melaka","MLK"
"75350","Taman Ara, Hang Tuah Jaya","Melaka","MLK"
"75350","Taman Bachang Baru Seksyen 1, Hang Tuah Jaya","Melaka","MLK"
"75350","Taman Bachang Baru, Hang Tuah Jaya","Melaka","MLK"
"75350","Taman Bachang Jaya, Hang Tuah Jaya","Melaka","MLK"
"75350","Taman Bachang Permai","Melaka","MLK"
"75350","Taman Bachang Utama, Hang Tuah Jaya","Melaka","MLK"
"75350","Taman Bachang","Melaka","MLK"
"75350","Taman Batu Berendam Putra, Hang Tuah Jaya","Melaka","MLK"
"75350","Taman Berendam, Hang Tuah Jaya","Melaka","MLK"
"75350","Taman Beringin, Hang Tuah Jaya","Melaka","MLK"
"75350","Taman Cergas, Hang Tuah Jaya","Melaka","MLK"
"75350","Taman Datuk Tamby Chik Karim, Hang Tuah Jaya","Melaka","MLK"
"75350","Taman Desa Bakti","Melaka","MLK"
"75350","Taman Desa Baru, Hang Tuah Jaya","Melaka","MLK"
"75350","Taman Devadason, Hang Tuah Jaya","Melaka","MLK"
"75350","Taman IKS Merdeka","Melaka","MLK"
"75350","Taman Ikhsan, Hang Tuah Jaya","Melaka","MLK"
"75350","Taman Jati, Hang Tuah Jaya","Melaka","MLK"
"75350","Taman MGBM","Melaka","MLK"
"75350","Taman Mas Jaya","Melaka","MLK"
"75350","Taman Mas Merah Jaya, Hang Tuah Jaya","Melaka","MLK"
"75350","Taman Mas Merah, Hang Tuah Jaya","Melaka","MLK"
"75350","Taman Melaka Baru Seksyen 1,2,3, Hang Tuah Jaya","Melaka","MLK"
"75350","Taman Melaka Baru, Hang Tuah Jaya","Melaka","MLK"
"75350","Taman Melaka Permai, Hang Tuah Jaya","Melaka","MLK"
"75350","Taman Merdeka Jaya, Hang Tuah Jaya","Melaka","MLK"
"75350","Taman Merdeka Permai, Hang Tuah Jaya","Melaka","MLK"
"75350","Taman Merdeka, Hang Tuah Jaya","Melaka","MLK"
"75350","Taman Mutiara Melaka, Hang Tuah Jaya","Melaka","MLK"
"75350","Taman Padang Balang, Hang Tuah Jaya","Melaka","MLK"
"75350","Taman Pasir Putih","Melaka","MLK"
"75350","Taman Perindustrian Batu Berendam, Hang Tuah Jaya","Melaka","MLK"
"75350","Taman Perindustrian Merdeka Jaya","Melaka","MLK"
"75350","Taman Perindustrian Merdeka, Hang Tuah Jaya","Melaka","MLK"
"75350","Taman Perkota, Hang Tuah Jaya","Melaka","MLK"
"75350","Taman Pertama","Melaka","MLK"
"75350","Taman Putat Indah, Hang Tuah Jaya","Melaka","MLK"
"75350","Taman Putat Permai, Hang Tuah Jaya","Melaka","MLK"
"75350","Taman Ria, Hang Tuah Jaya","Melaka","MLK"
"75350","Taman Seri Budi","Melaka","MLK"
"75350","Taman Seri Daya, Hang Tuah Jaya","Melaka","MLK"
"75350","Taman Seri Jati, Hang Tuah Jaya","Melaka","MLK"
"75350","Taman Seri Perkota","Melaka","MLK"
"75350","Taman Seri Selendang, Hang Tuah Jaya","Melaka","MLK"
"75350","Taman Seri Songket, Hang Tuah Jaya","Melaka","MLK"
"75350","Taman Seri Wangsa, Hang Tuah Jaya","Melaka","MLK"
"75350","Taman Sutera Belia, Hang Tuah Jaya","Melaka","MLK"
"75350","Taman Sutera Seksyen 1, Hang Tuah Jaya","Melaka","MLK"
"75350","Taman Sutera Wangi","Melaka","MLK"
"75350","Taman Sutera","Melaka","MLK"
"75350","Taman Widuri","Melaka","MLK"
"75350","Zon Perindustrian Batu Berendam","Melaka","MLK"
"75400","Bukit Palah","Melaka","MLK"
"75400","Bukit Peringgit","Melaka","MLK"
"75400","Bukit Serindit","Melaka","MLK"
"75400","Flat Bukit Serindit","Melaka","MLK"
"75400","Jalan Bakti Peringgit","Melaka","MLK"
"75400","Jalan Bukit Palah","Melaka","MLK"
"75400","Jalan Bukit Serindit","Melaka","MLK"
"75400","Jalan Durian Daun Dalam","Melaka","MLK"
"75400","Jalan Durian Daun","Melaka","MLK"
"75400","Jalan Lagenda (1 - 10)","Melaka","MLK"
"75400","Jalan Lagenda","Melaka","MLK"
"75400","Jalan Lin Cheng Hoon","Melaka","MLK"
"75400","Jalan Mahendasa","Melaka","MLK"
"75400","Jalan Mayang","Melaka","MLK"
"75400","Jalan Mufti Haji Khalil","Melaka","MLK"
"75400","Jalan Pantai Peringgit","Melaka","MLK"
"75400","Jalan Peringgit (Peringgit)","Melaka","MLK"
"75400","Jalan Peringgit Jaya","Melaka","MLK"
"75400","Jalan Seri Aman","Melaka","MLK"
"75400","Jalan Taming Sari Dalam","Melaka","MLK"
"75400","Jalan Taming Sari","Melaka","MLK"
"75400","Jalan Tun Fatimah (Durian Daun)","Melaka","MLK"
"75400","Jalan Tun Fatimah","Melaka","MLK"
"75400","Jalan Tun Razak","Melaka","MLK"
"75400","Kampung Durian Daun Dalam","Melaka","MLK"
"75400","Kampung Mata Kuching Dalam","Melaka","MLK"
"75400","Kampung Pantai Peringgit","Melaka","MLK"
"75400","Kolej Jururawat","Melaka","MLK"
"75400","Kompleks Majlis Agama Islam Melaka (MAIM)","Melaka","MLK"
"75400","Kompleks Perniagaan Al-Azim","Melaka","MLK"
"75400","Kompleks Perumahan TNB","Melaka","MLK"
"75400","Kuarters TNB","Melaka","MLK"
"75400","Melaka Sentral","Melaka","MLK"
"75400","Pangsapuri Peringgit Indah","Melaka","MLK"
"75400","Pangsapuri Sri Serindit","Melaka","MLK"
"75400","Pangsapuri Taming Sari","Melaka","MLK"
"75400","Pantai Peringgit 1 & 2","Melaka","MLK"
"75400","Pasar Besar Melaka","Melaka","MLK"
"75400","Peringgit","Melaka","MLK"
"75400","Plaza Melaka Central","Melaka","MLK"
"75400","Rumah Awam Pantai Peringgit","Melaka","MLK"
"75400","Rumah Murah Perenggit","Melaka","MLK"
"75400","Solok Balik Bukit Palah","Melaka","MLK"
"75400","Solok Balik Bukit","Melaka","MLK"
"75400","Solok Bukit Palah","Melaka","MLK"
"75400","Taman Bukit Serindit Jaya","Melaka","MLK"
"75400","Taman Bukit Serindit","Melaka","MLK"
"75400","Taman Cempaka","Melaka","MLK"
"75400","Taman Desa Peringgit","Melaka","MLK"
"75400","Taman Elok","Melaka","MLK"
"75400","Taman I-Lagenda","Melaka","MLK"
"75400","Taman Laksamana","Melaka","MLK"
"75400","Taman Mata Kuching","Melaka","MLK"
"75400","Taman Noorbar","Melaka","MLK"
"75400","Taman Norbah","Melaka","MLK"
"75400","Taman Panglima (Bukit Serindit)","Melaka","MLK"
"75400","Taman Panglima 2","Melaka","MLK"
"75400","Taman Panglima","Melaka","MLK"
"75400","Taman Peringgit Indah","Melaka","MLK"
"75400","Taman Peringgit Jaya","Melaka","MLK"
"75400","Taman Peringgit Permai","Melaka","MLK"
"75400","Taman Peringgit Ria","Melaka","MLK"
"75400","Taman Seri Cempaka","Melaka","MLK"
"75400","Taman Sri Serindit","Melaka","MLK"
"75450","Air Keroh D Village Resort","Ayer Keroh","MLK"
"75450","Ayer Keroh Country Resort","Ayer Keroh","MLK"
"75450","Bangunan LHDN Hang Tuah Jaya","Ayer Keroh","MLK"
"75450","Bangunan TM Hang Tuah Jaya","Ayer Keroh","MLK"
"75450","Bayu Lagun Saujana Resort","Ayer Keroh","MLK"
"75450","Bazaar Bukit Beruang, Hang Tuah Jaya","Ayer Keroh","MLK"
"75450","Bioteknologi","Ayer Keroh","MLK"
"75450","Bukit Bayan","Ayer Keroh","MLK"
"75450","Bukit Beruang Bazaar","Ayer Keroh","MLK"
"75450","Bukit Beruang Dalam","Ayer Keroh","MLK"
"75450","Bukit Beruang","Ayer Keroh","MLK"
"75450","Bukit Bruang Heights, Hang Tuah Jaya","Ayer Keroh","MLK"
"75450","Bukit Duyong","Ayer Keroh","MLK"
"75450","Bukit Katil Permai","Ayer Keroh","MLK"
"75450","Bukit Katil","Ayer Keroh","MLK"
"75450","Bukit Tahu Sama Tahu","Ayer Keroh","MLK"
"75450","D'village Resort","Ayer Keroh","MLK"
"75450","Hospital Pantai","Ayer Keroh","MLK"
"75450","Hotel Sri Malaysia","Ayer Keroh","MLK"
"75450","Hotel Water City","Ayer Keroh","MLK"
"75450","Ibu Pejabat Bomba Negeri Melaka, Bukit Katil","Ayer Keroh","MLK"
"75450","Ibu Pejabat Polis Kontijen Melaka Bukit Beruang","Ayer Keroh","MLK"
"75450","Institut Latihan Perindustrian","Ayer Keroh","MLK"
"75450","Institut Putra","Ayer Keroh","MLK"
"75450","Jalan Ayer Keroh Lama","Ayer Keroh","MLK"
"75450","Jalan Ayer Keroh","Ayer Keroh","MLK"
"75450","Jalan BKI (1 - 20), Taman Bukit Katil Indah","Ayer Keroh","MLK"
"75450","Jalan Belia (1 - 17), Taman Belia Antarabangsa","Ayer Keroh","MLK"
"75450","Jalan Belia Antarabangsa","Ayer Keroh","MLK"
"75450","Jalan Belia Utama","Ayer Keroh","MLK"
"75450","Jalan Bukit Beruang","Ayer Keroh","MLK"
"75450","Jalan Bukit Katil Dalam","Ayer Keroh","MLK"
"75450","Jalan Bukit Katil","Ayer Keroh","MLK"
"75450","Jalan RKSK (1,2)","Ayer Keroh","MLK"
"75450","Jalan RKSK","Ayer Keroh","MLK"
"75450","K - Ekonomi","Ayer Keroh","MLK"
"75450","K-Ekonomi","Ayer Keroh","MLK"
"75450","Kampung Ayer Keroh, Hang Tuah Jaya","Ayer Keroh","MLK"
"75450","Kampung Balik Hutan","Ayer Keroh","MLK"
"75450","Kampung Baru Ayer Keroh","Ayer Keroh","MLK"
"75450","Kampung Baru Bukit Bruang, Hang Tuah Jaya","Ayer Keroh","MLK"
"75450","Kampung Batu Tujuh","Ayer Keroh","MLK"
"75450","Kampung Bukit Bayan","Ayer Keroh","MLK"
"75450","Kampung Bukit Beruang, Hang Tuah Jaya","Ayer Keroh","MLK"
"75450","Kampung Bukit Katil","Ayer Keroh","MLK"
"75450","Kampung Bukit Ranting","Ayer Keroh","MLK"
"75450","Kampung Pengkalan Badak, Hang Tuah Jaya","Ayer Keroh","MLK"
"75450","Kampung Tebing Tinggi","Ayer Keroh","MLK"
"75450","Kampung Telok Bukit Beruang","Ayer Keroh","MLK"
"75450","Kampung Telok Bukit Katil","Ayer Keroh","MLK"
"75450","Kampung Tun Abdul Razak, Hang Tuah Jaya","Ayer Keroh","MLK"
"75450","Kampung Tun Razak Fasa II","Ayer Keroh","MLK"
"75450","Kelab Pelangi Hang Tuah Jaya","Ayer Keroh","MLK"
"75450","Kem Bukit Bruang","Ayer Keroh","MLK"
"75450","Kolej Universiti Teknologi Kebangsaan Malaysia","Ayer Keroh","MLK"
"75450","Kolej Yayasan Saad","Ayer Keroh","MLK"
"75450","Kompleks Belia & Sukan","Ayer Keroh","MLK"
"75450","Kompleks Ibu Pejabat Bomba & Penyelamat Hang Tuah Jaya","Ayer Keroh","MLK"
"75450","Kompleks Niaga Melaka Perdana","Ayer Keroh","MLK"
"75450","Kondominium Seri Nuri, Hang Tuah Jaya","Ayer Keroh","MLK"
"75450","Kondominium Tiara, Hang Tuah Jaya","Ayer Keroh","MLK"
"75450","Kota Fesyen - MTC","Ayer Keroh","MLK"
"75450","Kuarters Kastam","Ayer Keroh","MLK"
"75450","Leboh Ayer Keroh","Ayer Keroh","MLK"
"75450","Lorong Bukit Saga","Ayer Keroh","MLK"
"75450","Melaka Mall","Ayer Keroh","MLK"
"75450","Melaka Perdana","Ayer Keroh","MLK"
"75450","Melaka Planetarium Adventure Science Centre","Ayer Keroh","MLK"
"75450","Menara MICTH","Ayer Keroh","MLK"
"75450","Mydin Mall Ayer Keroh","Ayer Keroh","MLK"
"75450","Ozana Country Resort","Ayer Keroh","MLK"
"75450","Ozana Impian","Ayer Keroh","MLK"
"75450","Pangsapuri Bukit Beruang Bestari","Ayer Keroh","MLK"
"75450","Pangsapuri Bukit Beruang Murni, Hang Tuah Jaya","Ayer Keroh","MLK"
"75450","Pangsapuri Bukit Beruang Permai, Hang Tuah Jaya","Ayer Keroh","MLK"
"75450","Pangsapuri Bukit Beruang Utama, Hang Tuah Jaya","Ayer Keroh","MLK"
"75450","Pangsapuri Bukit Beruang","Ayer Keroh","MLK"
"75450","Pangsapuri Bukit Beruang, Hang Tuah Jaya","Ayer Keroh","MLK"
"75450","Pangsapuri Bunga Raya, Hang Tuah Jaya","Ayer Keroh","MLK"
"75450","Pangsapuri Dahlia, Hang Tuah Jaya","Ayer Keroh","MLK"
"75450","Pangsapuri Melor","Ayer Keroh","MLK"
"75450","Pangsapuri Murni","Ayer Keroh","MLK"
"75450","Pangsapuri Pantai Baru, Hang Tuah Jaya","Ayer Keroh","MLK"
"75450","Pangsapuri Pelangi, Hang Tuah Jaya","Ayer Keroh","MLK"
"75450","Pangsapuri Saujana Resort","Ayer Keroh","MLK"
"75450","Pangsapuri Yayasan Belia Sedunia","Ayer Keroh","MLK"
"75450","Paradise Resort","Ayer Keroh","MLK"
"75450","Pejabat Hutan","Ayer Keroh","MLK"
"75450","Pejabat Seri Negeri","Ayer Keroh","MLK"
"75450","Plaza MITC","Ayer Keroh","MLK"
"75450","Putri Resort","Ayer Keroh","MLK"
"75450","Rumah Awam Bukit Beruang, Hang Tuah Jaya","Ayer Keroh","MLK"
"75450","Rumah Awam Bukit Duyong","Ayer Keroh","MLK"
"75450","Rumah Awam Bukit Katil","Ayer Keroh","MLK"
"75450","Rumah Ku Syurga Ku","Ayer Keroh","MLK"
"75450","Rumah Pangsa Murni, Hang Tuah Jaya","Ayer Keroh","MLK"
"75450","Sekolah Menengah Teknik Bukit Katil","Melaka","MLK"
"75450","Sekolah Menengah Teknik Melaka Tengah","Ayer Keroh","MLK"
"75450","Solok Bukit Bayan","Ayer Keroh","MLK"
"75450","Solok Sidang Hasan (Bukit Katil)","Ayer Keroh","MLK"
"75450","Solok Tebing Tinggi (Bukit Katil)","Ayer Keroh","MLK"
"75450","Soon Lee Lebah","Ayer Keroh","MLK"
"75450","Taman Ayer Keroh Height 1, Hang Tuah Jaya","Ayer Keroh","MLK"
"75450","Taman Ayer Keroh Height","Ayer Keroh","MLK"
"75450","Taman Ayer Keroh Permai","Ayer Keroh","MLK"
"75450","Taman Belia Antarabangsa","Air Keroh","MLK"
"75450","Taman Bistari","Ayer Keroh","MLK"
"75450","Taman Buaya","Ayer Keroh","MLK"
"75450","Taman Bukit Baru","Ayer Keroh","MLK"
"75450","Taman Bukit Beruang Bestari, Hang Tuah Jaya","Ayer Keroh","MLK"
"75450","Taman Bukit Beruang Height, Hang Tuah Jaya","Ayer Keroh","MLK"
"75450","Taman Bukit Beruang Indah, Hang Tuah Jaya","Ayer Keroh","MLK"
"75450","Taman Bukit Beruang Permai","Ayer Keroh","MLK"
"75450","Taman Bukit Beruang Permai, Hang Tuah Jaya","Ayer Keroh","MLK"
"75450","Taman Bukit Beruang Utama 2, Hang Tuah Jaya","Ayer Keroh","MLK"
"75450","Taman Bukit Beruang Utama Seksyen 1, Hang Tuah Jaya","Ayer Keroh","MLK"
"75450","Taman Bukit Beruang Utama, Hang Tuah Jaya","Ayer Keroh","MLK"
"75450","Taman Bukit Beruang","Ayer Keroh","MLK"
"75450","Taman Bukit Katil Damai","Ayer Keroh","MLK"
"75450","Taman Bukit Katil Indah","Ayer Keroh","MLK"
"75450","Taman Bukit Katil Jaya","Ayer Keroh","MLK"
"75450","Taman Bukit Katil Kenari","Ayer Keroh","MLK"
"75450","Taman Bukit Katil Permai","Ayer Keroh","MLK"
"75450","Taman Bukit Katil","Ayer Keroh","MLK"
"75450","Taman Bukit Melaka Seksyen 1, Hang Tuah Jaya","Ayer Keroh","MLK"
"75450","Taman Bukit Melaka, Hang Tuah Jaya","Ayer Keroh","MLK"
"75450","Taman Bukit Puteri","Ayer Keroh","MLK"
"75450","Taman Bunga Raya, Hang Tuah Jaya","Ayer Keroh","MLK"
"75450","Taman Bunga Seksyen 3, Hang Tuah Jaya","Ayer Keroh","MLK"
"75450","Taman Camar Indah","Ayer Keroh","MLK"
"75450","Taman Cendana, Hang Tuah Jaya","Ayer Keroh","MLK"
"75450","Taman Ciptaco, Hang Tuah Jaya","Ayer Keroh","MLK"
"75450","Taman Dahlia, Hang Tuah Jaya","Ayer Keroh","MLK"
"75450","Taman Delima, Hang Tuah Jaya","Ayer Keroh","MLK"
"75450","Taman Duyong Permai","Ayer Keroh","MLK"
"75450","Taman Faridah, Hang Tuah Jaya","Ayer Keroh","MLK"
"75450","Taman IKS Bukit Katil, Hang Tuah Jaya","Ayer Keroh","MLK"
"75450","Taman Kerjasama 1, Hang Tuah Jaya","Ayer Keroh","MLK"
"75450","Taman Kerjasama, Hang Tuah Jaya","Ayer Keroh","MLK"
"75450","Taman Kota Cemerlang","Ayer Keroh","MLK"
"75450","Taman Kota Gemilang","Ayer Keroh","MLK"
"75450","Taman Kota Mas, Hang Tuah Jaya","Ayer Keroh","MLK"
"75450","Taman Mega Perdana, Hang Tuah Jaya","Ayer Keroh","MLK"
"75450","Taman Mega","Ayer Keroh","MLK"
"75450","Taman Megah, Hang Tuah Jaya","Ayer Keroh","MLK"
"75450","Taman Melaka Perdana","Ayer Keroh","MLK"
"75450","Taman Melaka Perdana, Hang Tuah Jaya","Ayer Keroh","MLK"
"75450","Taman Melawis, Hang Tuah Jaya","Ayer Keroh","MLK"
"75450","Taman Merak Mas, Hang Tuah Jaya","Ayer Keroh","MLK"
"75450","Taman Merak, Hang Tuah Jaya","Ayer Keroh","MLK"
"75450","Taman Merbok Seksyen 1, Hang Tuah Jaya","Ayer Keroh","MLK"
"75450","Taman Merbok, Hang Tuah Jaya","Ayer Keroh","MLK"
"75450","Taman Muzaffar Height, Hang Tuah Jaya","Ayer Keroh","MLK"
"75450","Taman Muzaffar Shah","Ayer Keroh","MLK"
"75450","Taman Muzaffar Syah","Melaka","MLK"
"75450","Taman Ozana Impian, Hang Tuah Jaya","Ayer Keroh","MLK"
"75450","Taman Pangsapuri Bukit Pelangi","Ayer Keroh","MLK"
"75450","Taman Pelangi, Hang Tuah Jaya","Ayer Keroh","MLK"
"75450","Taman Pengkalan Jaya","Ayer Keroh","MLK"
"75450","Taman Pengkalan Permai","Melaka","MLK"
"75450","Taman Perindustrian Ayer Keroh 2, Hang Tuah Jaya","Ayer Keroh","MLK"
"75450","Taman Perindustrian Ayer Keroh, Hang Tuah Jaya","Ayer Keroh","MLK"
"75450","Taman Puncak Bukit Katil, Hang Tuah Jaya","Ayer Keroh","MLK"
"75450","Taman Rama-Rama","Ayer Keroh","MLK"
"75450","Taman Rumahku Syurgaku (RKSK)","Ayer Keroh","MLK"
"75450","Taman Saujana Impian","Ayer Keroh","MLK"
"75450","Taman Saujana Indah, Hang Tuah Jaya","Ayer Keroh","MLK"
"75450","Taman Saujana Jaya","Ayer Keroh","MLK"
"75450","Taman Saujana Permai","Melaka","MLK"
"75450","Taman Saujana Puri","Ayer Keroh","MLK"
"75450","Taman Saujana Puri, Hang Tuah Jaya","Ayer Keroh","MLK"
"75450","Taman Saujana Seksyen 2 & 3, Hang Tuah Jaya","Ayer Keroh","MLK"
"75450","Taman Saujana Seksyen 3","Ayer Keroh","MLK"
"75450","Taman Saujana Villa, Hang Tuah Jaya","Ayer Keroh","MLK"
"75450","Taman Saujana","Ayer Keroh","MLK"
"75450","Taman Seroja, Hang Tuah Jaya","Ayer Keroh","MLK"
"75450","Taman Sri Pengkalan","Ayer Keroh","MLK"
"75450","Taman Suria, Hang Tuah Jaya","Ayer Keroh","MLK"
"75450","Taman Tasik Air Keroh","Ayer Keroh","MLK"
"75450","Taman Tasik Perdana","Ayer Keroh","MLK"
"75450","Taman Tasik Utama, Hang Tuah Jaya","Ayer Keroh","MLK"
"75450","Taman Tiong Emas, Hang Tuah Jaya","Ayer Keroh","MLK"
"75450","Taman Tun Kudu","Ayer Keroh","MLK"
"75450","Taman Tun Rahah, Hang Tuah Jaya","Ayer Keroh","MLK"
"75450","Tepian Gelanggang","Ayer Keroh","MLK"
"75450","Tiara Golf & Ayer Keroh Country Resort","Ayer Keroh","MLK"
"75450","Tiara Golf & Country Resort","Ayer Keroh","MLK"
"75450","Universiti Multimedia","Ayer Keroh","MLK"
"75450","Wisma Negeri","Ayer Keroh","MLK"
"75450","Wisma Pantai Baru","Ayer Keroh","MLK"
"75450","Wisma Perkeso","Ayer Keroh","MLK"
"75450","Wisma Persekutuan MITC Hang Tuah Jaya","Ayer Keroh","MLK"
"75450","World Youth Fondation Consult","Ayer Keroh","MLK"
"75450","Yayasan Melaka","Ayer Keroh","MLK"
"75450","Zon Perindustrian Ayer Keroh","Ayer Keroh","MLK"
"75450","Zoo Melaka","Ayer Keroh","MLK"
"75460","Akademi JPJ","Melaka","MLK"
"75460","Alai (km 7 - 8)","Melaka","MLK"
"75460","Ayer Molek","Melaka","MLK"
"75460","Bakar batu","Melaka","MLK"
"75460","Balik Bukit (Bukit Lintang)","Melaka","MLK"
"75460","Batu 3 1/2 Duyong","Melaka","MLK"
"75460","Batu 9 Solok Punggai (Air Molek)","Melaka","MLK"
"75460","Bukit Larang","Melaka","MLK"
"75460","Bukit Lintang","Melaka","MLK"
"75460","Bukit Meta","Melaka","MLK"
"75460","Bukit Nibong","Melaka","MLK"
"75460","Bukit Punggur Alai","Melaka","MLK"
"75460","Bukit Pungur","Melaka","MLK"
"75460","Duyong","Melaka","MLK"
"75460","IKS Telok Mas","Melaka","MLK"
"75460","Jalan AMM 1 hingga 6","Melaka","MLK"
"75460","Jalan Alai Indah","Melaka","MLK"
"75460","Jalan Aman 1 & 2","Melaka","MLK"
"75460","Jalan Anggerik","Melaka","MLK"
"75460","Jalan Baru Tiang Dua","Melaka","MLK"
"75460","Jalan Bukit Katil (Duyong)","Melaka","MLK"
"75460","Jalan Cempaka","Melaka","MLK"
"75460","Jalan Daing Tawi","Melaka","MLK"
"75460","Jalan Damai","Melaka","MLK"
"75460","Jalan Desa Duyong (18, 18A, 18B)","Melaka","MLK"
"75460","Jalan Desa Duyong (24, 24A)","Melaka","MLK"
"75460","Jalan Haji Amin (Air Molek)","Melaka","MLK"
"75460","Jalan Haji Ismail","Melaka","MLK"
"75460","Jalan Haji Manan","Melaka","MLK"
"75460","Jalan Hang Nadim","Melaka","MLK"
"75460","Jalan Hang Tuah Duyung","Melaka","MLK"
"75460","Jalan Hashim Alai","Melaka","MLK"
"75460","Jalan Jasin (Batu 9)","Melaka","MLK"
"75460","Jalan Kenanga","Melaka","MLK"
"75460","Jalan Lama Telok Mas","Melaka","MLK"
"75460","Jalan Makmor","Melaka","MLK"
"75460","Jalan Masjid Tambak Paya","Melaka","MLK"
"75460","Jalan Mawar Tambak Paya","Melaka","MLK"
"75460","Jalan Melati (Tambak Paya)","Melaka","MLK"
"75460","Jalan Muhibbah","Melaka","MLK"
"75460","Jalan Pantai Telok Mas","Melaka","MLK"
"75460","Jalan Penghulu Mak Yah","Melaka","MLK"
"75460","Jalan Penghulu Samad","Melaka","MLK"
"75460","Jalan Penghulu","Melaka","MLK"
"75460","Jalan Pengkalan Jajar","Melaka","MLK"
"75460","Jalan Pengkalan Pulau Besar (Pernu)","Melaka","MLK"
"75460","Jalan Pengkalan","Melaka","MLK"
"75460","Jalan Perigi Hang Tuah","Melaka","MLK"
"75460","Jalan Permatang Pasir","Melaka","MLK"
"75460","Jalan Punggai","Melaka","MLK"
"75460","Jalan Raja Haji","Melaka","MLK"
"75460","Jalan Sekolah Alai (Batu 5)","Melaka","MLK"
"75460","Jalan Setia","Melaka","MLK"
"75460","Jalan Solok Sidang Hussain","Melaka","MLK"
"75460","Jalan Surau","Melaka","MLK"
"75460","Jalan Tambak Gelam","Melaka","MLK"
"75460","Jalan Tambak Paya","Melaka","MLK"
"75460","Jalan Tanjung","Melaka","MLK"
"75460","Jalan Wakaf 1","Melaka","MLK"
"75460","Kampung Air Molek","Melaka","MLK"
"75460","Kampung Alai","Melaka","MLK"
"75460","Kampung Balik Bukit","Melaka","MLK"
"75460","Kampung Bantut (Paya Redan)","Melaka","MLK"
"75460","Kampung Baru Tiang Dua","Melaka","MLK"
"75460","Kampung Batu Puteh","Melaka","MLK"
"75460","Kampung Bukit Gadong","Melaka","MLK"
"75460","Kampung Bukit Kechil (Pernu)","Melaka","MLK"
"75460","Kampung Bukit Larang (Pernu)","Melaka","MLK"
"75460","Kampung Bukit Lintang","Melaka","MLK"
"75460","Kampung Bukit Meta","Melaka","MLK"
"75460","Kampung Bukit Nibong (Paya Dalam)","Melaka","MLK"
"75460","Kampung Bukit Pegoh","Melaka","MLK"
"75460","Kampung Duyong","Melaka","MLK"
"75460","Kampung Jambatan Duyong","Melaka","MLK"
"75460","Kampung Kandang","Melaka","MLK"
"75460","Kampung Ketapang","Melaka","MLK"
"75460","Kampung Padang (Bukit Lintang)","Melaka","MLK"
"75460","Kampung Paya Baru","Melaka","MLK"
"75460","Kampung Paya Dalam","Melaka","MLK"
"75460","Kampung Paya Menanti","Melaka","MLK"
"75460","Kampung Paya Redan","Melaka","MLK"
"75460","Kampung Pendamar","Melaka","MLK"
"75460","Kampung Pengkalan Minyak","Melaka","MLK"
"75460","Kampung Permatang Duyong","Melaka","MLK"
"75460","Kampung Permatang Pasir","Melaka","MLK"
"75460","Kampung Pernu","Melaka","MLK"
"75460","Kampung Seberang Anak Air","Melaka","MLK"
"75460","Kampung Solok Gaong","Melaka","MLK"
"75460","Kampung Surau Batu","Melaka","MLK"
"75460","Kampung Tambak Paya","Melaka","MLK"
"75460","Kampung Tanjong Mak Mindah","Melaka","MLK"
"75460","Kampung Tengah Paya Dalam","Melaka","MLK"
"75460","Kampung Tersusun Bukit Larang","Melaka","MLK"
"75460","Kandang Batu 4 1/2 - 5 1/4","Melaka","MLK"
"75460","Kandang","Melaka","MLK"
"75460","Km 14 Jalan Haji Manan (Air Molek)","Melaka","MLK"
"75460","Ladang Union","Melaka","MLK"
"75460","Lorong Pitchy Tambak Paya","Melaka","MLK"
"75460","Lorong Sinnu","Melaka","MLK"
"75460","Paya Baru","Melaka","MLK"
"75460","Paya Meranti","Melaka","MLK"
"75460","Paya Redan","Melaka","MLK"
"75460","Pekan Air Molek","Melaka","MLK"
"75460","Pengkalan Minyak","Melaka","MLK"
"75460","Pengkalan Renggam","Melaka","MLK"
"75460","Permatang Bukit Meta","Melaka","MLK"
"75460","Permatang Duyong","Melaka","MLK"
"75460","Permatang Pasir","Melaka","MLK"
"75460","Pernu","Melaka","MLK"
"75460","Pusat Serenti Tiang Dua","Melaka","MLK"
"75460","Rumah Awam AIR Molek","Melaka","MLK"
"75460","Rumah Awam Bukit Larang","Melaka","MLK"
"75460","Rumah Awam Bukit Lintang","Melaka","MLK"
"75460","Rumah Awam Kandang","Melaka","MLK"
"75460","Rumah Awam Paya Dalam","Melaka","MLK"
"75460","Simpang Bukit Lintang","Melaka","MLK"
"75460","Simpang Tambak Bugis","Melaka","MLK"
"75460","Solok Bantut","Melaka","MLK"
"75460","Solok Bukit Baru","Melaka","MLK"
"75460","Solok Bukit Gadong","Melaka","MLK"
"75460","Solok Bukit Jinjang","Melaka","MLK"
"75460","Solok Bukit Kecil","Melaka","MLK"
"75460","Solok Bukit Ranting","Melaka","MLK"
"75460","Solok Gaung Tiang Dua","Melaka","MLK"
"75460","Solok Jenuang","Melaka","MLK"
"75460","Taman Air Molek (Fasa 2)","Melaka","MLK"
"75460","Taman Air Molek Jaya (Fasa 2)","Melaka","MLK"
"75460","Taman Air Molek Mesra","Melaka","MLK"
"75460","Taman Alai Indah","Melaka","MLK"
"75460","Taman Alai Jaya","Melaka","MLK"
"75460","Taman Alai Murni","Melaka","MLK"
"75460","Taman Alai Perdana","Melaka","MLK"
"75460","Taman Ayer Molek Jaya","Melaka","MLK"
"75460","Taman Ayer Molek Mesra","Melaka","MLK"
"75460","Taman Ayer Molek","Melaka","MLK"
"75460","Taman Bukit Larang Indah","Melaka","MLK"
"75460","Taman Bukit Nibong","Melaka","MLK"
"75460","Taman Desa Duyong","Melaka","MLK"
"75460","Taman Desa Molek","Melaka","MLK"
"75460","Taman Duyong Bistari","Melaka","MLK"
"75460","Taman Duyong Emas","Melaka","MLK"
"75460","Taman Duyong Indah 2","Melaka","MLK"
"75460","Taman Duyong Indah","Melaka","MLK"
"75460","Taman Duyong Ria","Melaka","MLK"
"75460","Taman Emas","Melaka","MLK"
"75460","Taman IKS Duyung","Melaka","MLK"
"75460","Taman Kandang Mesra","Melaka","MLK"
"75460","Taman Kandang Permai","Melaka","MLK"
"75460","Taman Lintang Indah","Melaka","MLK"
"75460","Taman Lintang Jaya","Melaka","MLK"
"75460","Taman Lintang Permai","Melaka","MLK"
"75460","Taman Merdeka Permai Hang Tuah Jaya","Melaka","MLK"
"75460","Taman Molek","Melaka","MLK"
"75460","Taman Paya Dalam","Melaka","MLK"
"75460","Taman Paya Murni","Melaka","MLK"
"75460","Taman Pendamar Jaya","Melaka","MLK"
"75460","Taman Permatang Duyung 2","Melaka","MLK"
"75460","Taman Permatang Duyung","Melaka","MLK"
"75460","Taman Permatang Pasir Perdana","Melaka","MLK"
"75460","Taman Permatang Pasir Permai","Melaka","MLK"
"75460","Taman Permatang Pasir","Melaka","MLK"
"75460","Taman Pusaka","Melaka","MLK"
"75460","Taman Seri Duyong","Melaka","MLK"
"75460","Taman Seri Telok Mas","Melaka","MLK"
"75460","Taman Sri Duyung 2","Melaka","MLK"
"75460","Taman Sri Duyung 3","Melaka","MLK"
"75460","Taman Sri Duyung Seksyen 1 & 2","Melaka","MLK"
"75460","Taman Sri Paya Dalam","Melaka","MLK"
"75460","Taman Tambak Paya Indah","Melaka","MLK"
"75460","Taman Tambak Paya Murni, Hang Tuah Jaya","Melaka","MLK"
"75460","Taman Tambak Paya Permai","Melaka","MLK"
"75460","Taman Tiang Dua Mutiara","Melaka","MLK"
"75460","Taman Tiang Dua Utama","Melaka","MLK"
"75460","Tambak Bugis","Melaka","MLK"
"75460","Tambak Gelam","Melaka","MLK"
"75460","Tambak Paya","Melaka","MLK"
"75460","Tambak Sebelong","Melaka","MLK"
"75500","TYT Yang Di Pertua Negeri Melaka","Melaka","MLK"
"75502","Biro Tata Negara Zon Selatan","Melaka","MLK"
"75502","Penyelia Bangunan Persekutuan","Melaka","MLK"
"75502","YAB Ketua Menteri Melaka","Melaka","MLK"
"75503","Setiausaha Kerajaan Negeri","Melaka","MLK"
"75503","Setiausaha Keselamatan Negeri","Melaka","MLK"
"75504","Biro Bantuan Guaman","Melaka","MLK"
"75505","Biro Pengaduan Awam","Melaka","MLK"
"75506","Mahkamah Tengah","Melaka","MLK"
"75508","Amanah Raya Berhad","Melaka","MLK"
"75510","Jabatan Perkhidmatan Awam","Melaka","MLK"
"75512","Penasihat Undang-Undang Negeri","Melaka","MLK"
"75514","Jabatan Perangkaan","Melaka","MLK"
"75516","Jabatan Pemegang Harta","Melaka","MLK"
"75517","Jabatan Perpaduan Negara","Melaka","MLK"
"75518","Ketua Audit Negeri","Melaka","MLK"
"75519","Majlis Agama Islam Melaka","Melaka","MLK"
"75532","Jabatan Sumber Manusia","Melaka","MLK"
"75536","Jabatan Perhubungan Perusahaan","Melaka","MLK"
"75538","Jabatan Keselamatan Sosial (Perkeso)","Melaka","MLK"
"75540","Jabatan Tenaga Rakyat","Melaka","MLK"
"75542","Pendaftar Kesatuan Sekerja","Melaka","MLK"
"75546","Pejabat Rela Negeri","Melaka","MLK"
"75550","Jabatan Imigresen","Melaka","MLK"
"75551","Jabatan Pendaftaran Negara","Melaka","MLK"
"75552","Jabatan Pendaftar Pertubuhan","Melaka","MLK"
"75560","Ketua Polis Negeri","Melaka","MLK"
"75564","Jabatan Kebajikan Masyarakat","Melaka","MLK"
"75566","Arkiologi Zon Selatan Muzium Negara","Melaka","MLK"
"75570","Jabatan Belia & Sukan","Melaka","MLK"
"75572","Perpustakaan Awam Negeri","Melaka","MLK"
"75576","Jabatan Tanah & Galian","Melaka","MLK"
"75578","Jabatan Ukur & Pemetaan","Melaka","MLK"
"75582","Jabatan Kerja Raya","Melaka","MLK"
"75584","Jabatan Anti Malaria","Melaka","MLK"
"75586","Hospital Melaka","Melaka","MLK"
"75590","Jabatan Kesihatan","Melaka","MLK"
"75592","Jabatan Penilaian Harta","Melaka","MLK"
"75592","Pegawai Kewangan Negeri","Melaka","MLK"
"75594","Akauntan Negeri","Melaka","MLK"
"75596","Jabatan Kastam & Eksais Di Raja","Melaka","MLK"
"75600","Lembaga Hasil Dalam Negeri","Melaka","MLK"
"75604","Jabatan Pendidikan","Melaka","MLK"
"75604","Jemaah Nazir Sekolah Persekutuan","Melaka","MLK"
"75606","Jabatan Kemajuan Masyarakat (Kemas)","Melaka","MLK"
"75608","Jabatan Pembangunan Koperasi","Melaka","MLK"
"75609","Pejabat Mara Negeri","Melaka","MLK"
"75610","Bahagian Pelesenan - Kementerian Penerangan","Melaka","MLK"
"75612","Jabatan Penerangan","Melaka","MLK"
"75618","Lapangan Terbang Batu Berendam","Melaka","MLK"
"75620","Jabatan Pengangkutan Jalan","Melaka","MLK"
"75622","Penguatkuasa Kementerian Perdagangan Dalam Negeri","Melaka","MLK"
"75626","Jabatan Pengairan & Saliran","Melaka","MLK"
"75628","Jabatan Perikanan","Melaka","MLK"
"75630","Jabatan Haiwan","Melaka","MLK"
"75632","Jabatan Pertanian","Melaka","MLK"
"75646","Jabatan Perancang Bandar & Desa","Melaka","MLK"
"75648","Jabatan Bomba & Penyelamat","Melaka","MLK"
"75662","Jabatan Kajicuaca","Melaka","MLK"
"75670","Pos Malaysia Berhad","Melaka","MLK"
"75672","Telekom Malaysia Berhad","Melaka","MLK"
"75673","Tenaga Nasional Berhad","Melaka","MLK"
"75674","Pegawai Kemajuan Negeri Melaka","Melaka","MLK"
"75676","Jabatan Agama Islam Melaka","Melaka","MLK"
"75676","Lembaga Pendidikan Islam","Melaka","MLK"
"75676","Lembaga Wakaf Zakat & Baitumal","Melaka","MLK"
"75690","Suruhanjaya Pilihan Raya Negeri","Melaka","MLK"
"75700","Melaka - Peti surat 1 - 14","Melaka","MLK"
"75700","Melaka - Peti surat 16 - 50","Melaka","MLK"
"75710","Melaka - Peti surat 51 - 61","Melaka","MLK"
"75710","Melaka - Peti surat 63 - 74","Melaka","MLK"
"75710","Melaka - Peti surat 76 - 95","Melaka","MLK"
"75710","Melaka - Peti surat 97 - 100","Melaka","MLK"
"75720","Melaka - Peti surat 101 - 118","Melaka","MLK"
"75720","Melaka - Peti surat 120 - 140","Melaka","MLK"
"75730","Melaka - Peti surat 141 - 142","Melaka","MLK"
"75730","Melaka - Peti surat 145 - 176","Melaka","MLK"
"75740","Melaka - Peti surat 178 - 224","Melaka","MLK"
"75750","Melaka - Peti surat 225 - 299","Melaka","MLK"
"75750","Melaka - Peti surat 301 - 304","Melaka","MLK"
"75760","Melaka - Peti surat 305 - 323","Melaka","MLK"
"75760","Melaka - Peti surat 325 & ke atas","Melaka","MLK"
"75900","Melaka - Peti surat 15","Melaka","MLK"
"75902","Melaka - Peti surat 62","Melaka","MLK"
"75904","Melaka - Peti surat 75","Melaka","MLK"
"75906","Melaka - Peti surat 96","Melaka","MLK"
"75908","Melaka - Peti surat 119","Melaka","MLK"
"75910","Melaka - Peti surat 143","Melaka","MLK"
"75912","Melaka - Peti surat 144","Melaka","MLK"
"75914","Melaka - Peti surat 177","Melaka","MLK"
"75916","Melaka - Peti surat 300","Melaka","MLK"
"75918","Melaka - Peti surat 324","Melaka","MLK"
"75990","Melaka - Beg berkunci","Melaka","MLK"
"76100","Ayer Semubok","Durian Tunggal","MLK"
"76100","Bertam Estate","Durian Tunggal","MLK"
"76100","Cempaka Heights","Durian Tunggal","MLK"
"76100","Durian Tunggal (Pekan)","Durian Tunggal","MLK"
"76100","Hing Guan Estate","Durian Tunggal","MLK"
"76100","Jalan Air Semubok","Durian Tunggal","MLK"
"76100","Jalan Belimbing Lama","Durian Tunggal","MLK"
"76100","Jalan Kesang (Batu 16)","Durian Tunggal","MLK"
"76100","Jalan Rumah Asap","Durian Tunggal","MLK"
"76100","Kampung Ayer Pasir","Durian Tunggal","MLK"
"76100","Kampung Ayer Resam","Durian Tunggal","MLK"
"76100","Kampung Ayer Semubok","Durian Tunggal","MLK"
"76100","Kampung Bangsal","Durian Tunggal","MLK"
"76100","Kampung Baru Simin","Durian Tunggal","MLK"
"76100","Kampung Batu Senandong","Durian Tunggal","MLK"
"76100","Kampung Batu Ular Upa","Durian Tunggal","MLK"
"76100","Kampung Belimbing Dalam","Durian Tunggal","MLK"
"76100","Kampung Beringin","Durian Tunggal","MLK"
"76100","Kampung Bukit Balai, Hang Tuah Jaya","Durian Tunggal","MLK"
"76100","Kampung Bukit Tambun","Durian Tunggal","MLK"
"76100","Kampung Gangsa, Hang Tuah Jaya","Durian Tunggal","MLK"
"76100","Kampung Garing","Durian Tunggal","MLK"
"76100","Kampung Machap Lama","Durian Tunggal","MLK"
"76100","Kampung Orang Asli Machap Umboo","Durian Tunggal","MLK"
"76100","Kampung Padang Keladi, Hang Tuah Jaya","Durian Tunggal","MLK"
"76100","Kampung Padang Kerbau, Hang Tuah Jaya","Durian Tunggal","MLK"
"76100","Kampung Panchor","Durian Tunggal","MLK"
"76100","Kampung Pantai Belimbing","Durian Tunggal","MLK"
"76100","Kampung Parit Melana","Durian Tunggal","MLK"
"76100","Kampung Pulau","Durian Tunggal","MLK"
"76100","Kampung Tengah","Durian Tunggal","MLK"
"76100","Kampung Tualang","Durian Tunggal","MLK"
"76100","Kampung Ulu Padang Keladi Hang Tuah Jaya","Durian Tunggal","MLK"
"76100","Kampung Ulu Padang, Hang Tuah Jaya","Durian Tunggal","MLK"
"76100","Kampung Ulu Seraja","Durian Tunggal","MLK"
"76100","Kolej Universiti Teknologi Kebangsaan Melaka","Durian Tunggal","MLK"
"76100","Kondominium Seri Nuri Hang Tuah Jaya","Durian Tunggal","MLK"
"76100","Ladang Ayer Resam, Hang Tuah Jaya","Durian Tunggal","MLK"
"76100","Ladang Chuan Hin San","Durian Tunggal","MLK"
"76100","Ladang Seng Choon","Durian Tunggal","MLK"
"76100","Ladang Tong Leng","Durian Tunggal","MLK"
"76100","Ladang Tualang","Durian Tunggal","MLK"
"76100","Ladang Yong Kee Shian","Durian Tunggal","MLK"
"76100","Machap Baru","Durian Tunggal","MLK"
"76100","Machap","Durian Tunggal","MLK"
"76100","Panchor Estate","Durian Tunggal","MLK"
"76100","Panchor","Durian Tunggal","MLK"
"76100","Pangsapuri Macap","Durian Tunggal","MLK"
"76100","Pangsapuri Machap Baru","Durian Tunggal","MLK"
"76100","Rumah Awam Durian Tunggal","Durian Tunggal","MLK"
"76100","Sim Hai Estate","Durian Tunggal","MLK"
"76100","Simpang Gading","Durian Tunggal","MLK"
"76100","Solok Gangsa","Durian Tunggal","MLK"
"76100","Taman Angkasa Nuri, Hang Tuah Jaya","Durian Tunggal","MLK"
"76100","Taman Angsa Mas, Hang Tuah Jaya","Durian Tunggal","MLK"
"76100","Taman Belatuk Emas, Hang Tuah Jaya","Durian Tunggal","MLK"
"76100","Taman Cempaka Heights, Hang Tuah Jaya","Durian Tunggal","MLK"
"76100","Taman Cempaka","Durian Tunggal","MLK"
"76100","Taman Cenderawasih","Durian Tunggal","MLK"
"76100","Taman Desa Idaman, Hang Tuah Jaya","Durian Tunggal","MLK"
"76100","Taman Durian Tunggal, Hang Tuah Jaya","Durian Tunggal","MLK"
"76100","Taman Enggang, Hang Tuah Jaya","Durian Tunggal","MLK"
"76100","Taman Gangsa Height, Hang Tuah Jaya","Durian Tunggal","MLK"
"76100","Taman Gangsa, Hang Tuah Jaya","Durian Tunggal","MLK"
"76100","Taman Garuda, Hang Tuah Jaya","Durian Tunggal","MLK"
"76100","Taman Idaman","Durian Tunggal","MLK"
"76100","Taman Inang Sari","Durian Tunggal","MLK"
"76100","Taman Kasawari, Hang Tuah Jaya","Durian Tunggal","MLK"
"76100","Taman Kasturi","Durian Tunggal","MLK"
"76100","Taman Kenari Jaya, Hang Tuah Jaya","Durian Tunggal","MLK"
"76100","Taman Mawar","Durian Tunggal","MLK"
"76100","Taman Mekar, Hang Tuah Jaya","Durian Tunggal","MLK"
"76100","Taman Melor Machap","Durian Tunggal","MLK"
"76100","Taman Melor","Durian Tunggal","MLK"
"76100","Taman Merak Mas","Durian Tunggal","MLK"
"76100","Taman Merpati Putih","Durian Tunggal","MLK"
"76100","Taman Murai Jaya, Hang Tuah Jaya","Durian Tunggal","MLK"
"76100","Taman Rajawali","Durian Tunggal","MLK"
"76100","Taman Seri Bayan, Hang Tuah Jaya","Durian Tunggal","MLK"
"76100","Taman Seri Siantan","Durian Tunggal","MLK"
"76100","Taman Seri Tuah","Durian Tunggal","MLK"
"76100","Taman Sri Inang Sari","Durian Tunggal","MLK"
"76100","Taman Sri Siantan Machap","Durian Tunggal","MLK"
"76100","Taman Tunggal","Durian Tunggal","MLK"
"76100","Tong Bee Estate","Durian Tunggal","MLK"
"76100","Tong Leng Estate","Durian Tunggal","MLK"
"76109","Durian Tunggal - Beg berkunci","Durian Tunggal","MLK"
"76200","Jalan Aman","Kem Trendak","MLK"
"76200","Jalan Anggerik","Kem Trendak","MLK"
"76200","Jalan Arab","Kem Trendak","MLK"
"76200","Jalan Bakti","Kem Trendak","MLK"
"76200","Jalan Bukit Terendak","Kem Trendak","MLK"
"76200","Jalan Bunga Raya","Kem Trendak","MLK"
"76200","Jalan Bunga Tanjung","Kem Trendak","MLK"
"76200","Jalan Hulubalang","Kem Trendak","MLK"
"76200","Jalan Kenanga","Kem Trendak","MLK"
"76200","Jalan Mahkota","Kem Trendak","MLK"
"76200","Jalan Melor","Kem Trendak","MLK"
"76200","Jalan Menara","Kem Trendak","MLK"
"76200","Jalan Muhibbah","Kem Trendak","MLK"
"76200","Jalan Pahlawan","Kem Trendak","MLK"
"76200","Jalan Pandak","Kem Trendak","MLK"
"76200","Jalan Perkasa","Kem Trendak","MLK"
"76200","Jalan Persiaran Pegawai","Kem Trendak","MLK"
"76200","Jalan Sejahtera","Kem Trendak","MLK"
"76200","Jalan Selat","Kem Trendak","MLK"
"76200","Jalan Sentosa","Kem Trendak","MLK"
"76200","Jalan Serai","Kem Trendak","MLK"
"76200","Jalan Serindit","Kem Trendak","MLK"
"76200","Jalan Tenteram","Kem Trendak","MLK"
"76200","Jalan Tepian","Kem Trendak","MLK"
"76200","Kem Terendak","Kem Trendak","MLK"
"76200","Lorong Indah","Kem Trendak","MLK"
"76200","Lorong Melati","Kem Trendak","MLK"
"76200","Lorong Serai","Kem Trendak","MLK"
"76200","Lorong Silang","Kem Trendak","MLK"
"76200","Lorong Tabib","Kem Trendak","MLK"
"76200","Lorong Tiong","Kem Trendak","MLK"
"76300","Flat Desa Taming Sari","Sungai Udang","MLK"
"76300","Flat Desa Tun Razak","Sungai Udang","MLK"
"76300","Flat Tangga Batu (Batu 10 Sungai Udang)","Sungai Udang","MLK"
"76300","Jalan Bertam Hulu","Sungai Udang","MLK"
"76300","Jalan Gagah","Sungai Udang","MLK"
"76300","Jalan Haji Yusof","Sungai Udang","MLK"
"76300","Jalan Kerambit (1 - 13)","Sungai Udang","MLK"
"76300","Jalan Perkasa","Sungai Udang","MLK"
"76300","Jalan Pinang Sebatang","Sungai Udang","MLK"
"76300","Jalan SU (2,4)","Sungai Udang","MLK"
"76300","Jalan Tanah Wakaf","Sungai Udang","MLK"
"76300","Kampung Baru Ayer Limau","Sungai Udang","MLK"
"76300","Kampung Baru Sungai Udang","Sungai Udang","MLK"
"76300","Kampung Maidin","Sungai Udang","MLK"
"76300","Kampung Paya Rumput","Sungai Udang","MLK"
"76300","Kampung Solok Pauh","Sungai Udang","MLK"
"76300","Kampung Sungai Udang","Sungai Udang","MLK"
"76300","Kampung Tanah Merah","Sungai Udang","MLK"
"76300","Kem Sungai Udang","Sungai Udang","MLK"
"76300","Lorong An Nuriah","Sungai Udang","MLK"
"76300","Lorong Belakang Masjid","Sungai Udang","MLK"
"76300","Lorong Bukit Sekolah","Sungai Udang","MLK"
"76300","Lorong Bukit Selekoh","Sungai Udang","MLK"
"76300","Lorong Daim","Sungai Udang","MLK"
"76300","Lorong Dol Mat","Sungai Udang","MLK"
"76300","Lorong Haji Dahan","Sungai Udang","MLK"
"76300","Lorong Haji Hassan","Sungai Udang","MLK"
"76300","Lorong Imam Moksen","Sungai Udang","MLK"
"76300","Lorong Jantan Mumat","Sungai Udang","MLK"
"76300","Lorong Kadi Sidek","Sungai Udang","MLK"
"76300","Lorong Mad Lasim","Sungai Udang","MLK"
"76300","Lorong Mak Som","Sungai Udang","MLK"
"76300","Lorong Paya Rumput Jaya","Sungai Udang","MLK"
"76300","Lorong Paya Sum","Sungai Udang","MLK"
"76300","Lorong Penghulu Abdullah","Sungai Udang","MLK"
"76300","Lorong Penghulu Maarof","Sungai Udang","MLK"
"76300","Lorong Penghulu Yasin","Sungai Udang","MLK"
"76300","Lorong Pusara Abadi","Sungai Udang","MLK"
"76300","Lorong Salam","Sungai Udang","MLK"
"76300","Lorong Salleh Kudus","Sungai Udang","MLK"
"76300","Lorong Shamsudin","Sungai Udang","MLK"
"76300","Lorong Sidang Jamil","Sungai Udang","MLK"
"76300","Lorong Sidang Rabu","Sungai Udang","MLK"
"76300","Lorong Solok Bakong","Sungai Udang","MLK"
"76300","Lorong Sulong Patah","Sungai Udang","MLK"
"76300","Lorong Tokong","Sungai Udang","MLK"
"76300","Lorong Tompang","Sungai Udang","MLK"
"76300","Lorong Ujung Tanjong","Sungai Udang","MLK"
"76300","Lorong Yahya Mad Som","Sungai Udang","MLK"
"76300","Lorong Zakaria","Sungai Udang","MLK"
"76300","Rumah Awam Sungai Udang","Sungai Udang","MLK"
"76300","Rumah Mara Sungai Udang","Sungai Udang","MLK"
"76300","Sungai Udang (Km 16 - 20)","Sungai Udang","MLK"
"76300","Sungai Udang","Sungai Udang","MLK"
"76300","Taman Bukit Terendak","Sungai Udang","MLK"
"76300","Taman Desa Taming Sari","Sungai Udang","MLK"
"76300","Taman Hang Tuah","Sungai Udang","MLK"
"76300","Taman Keris Emas","Sungai Udang","MLK"
"76300","Taman Keris Laksamana","Sungai Udang","MLK"
"76300","Taman Leech Avenue","Sungai Udang","MLK"
"76300","Taman Pahlawan","Sungai Udang","MLK"
"76300","Taman Paya Rumput Jaya","Sungai Udang","MLK"
"76300","Taman Peruna","Sungai Udang","MLK"
"76300","Taman Sri Terendak","Sungai Udang","MLK"
"76300","Taman Sungai Udang Mutiara","Sungai Udang","MLK"
"76300","Taman Sungai Udang","Sungai Udang","MLK"
"76300","Taman Terendak Permai","Sungai Udang","MLK"
"76300","Taman Terendak","Sungai Udang","MLK"
"76300","Tangga Batu (Km 17 ke atas)","Sungai Udang","MLK"
"76400","Asrama Hualon","Tanjong Kling","MLK"
"76400","Asrama Takara","Tanjong Kling","MLK"
"76400","Balik Bukit","Tanjong Kling","MLK"
"76400","Bangunan UDA","Tanjong Kling","MLK"
"76400","Batang Tiga","Tanjong Kling","MLK"
"76400","Bukit Tempayan","Tanjong Kling","MLK"
"76400","Everly Resort Hotel","Tanjong Kling","MLK"
"76400","Flat Lereh","Tanjong Kling","MLK"
"76400","Jabatan Laut","Tanjong Kling","MLK"
"76400","Jabatan Penjara","Tanjong Kling","MLK"
"76400","Jalan Banglo","Tanjong Kling","MLK"
"76400","Jalan Jeti Tanjong Kling","Tanjong Kling","MLK"
"76400","Jalan Kilang Besi","Tanjong Kling","MLK"
"76400","Jalan Lama","Tanjong Kling","MLK"
"76400","Jalan Paya Keladi","Tanjong Kling","MLK"
"76400","Jalan Pokok Asam","Tanjong Kling","MLK"
"76400","Jalan Solok Bilal","Tanjong Kling","MLK"
"76400","Jalan Solok Haji Othman","Tanjong Kling","MLK"
"76400","Jalan Solok Ketar","Tanjong Kling","MLK"
"76400","Jalan Tanjung Bruas","Tanjong Kling","MLK"
"76400","Kampung Bahagia","Tanjong Kling","MLK"
"76400","Kampung Balik Bukit","Tanjong Kling","MLK"
"76400","Kampung Batang Tiga","Tanjong Kling","MLK"
"76400","Kampung Bukit Darat","Tanjong Kling","MLK"
"76400","Kampung Bukit Gedong","Tanjong Kling","MLK"
"76400","Kampung Gelam","Tanjong Kling","MLK"
"76400","Kampung Ghafar Baba","Tanjong Kling","MLK"
"76400","Kampung Hailam","Tanjong Kling","MLK"
"76400","Kampung Kelongkong","Tanjong Kling","MLK"
"76400","Kampung Lereh Dalam","Tanjong Kling","MLK"
"76400","Kampung Lereh","Tanjong Kling","MLK"
"76400","Kampung Pantai Jaring","Tanjong Kling","MLK"
"76400","Kampung Pantai Kundor","Tanjong Kling","MLK"
"76400","Kampung Pantai Tanah Merah","Tanjong Kling","MLK"
"76400","Kampung Paya Luboh","Tanjong Kling","MLK"
"76400","Kampung Pengkalan Lanjut","Tanjong Kling","MLK"
"76400","Kampung Pengkalan Perigi","Tanjong Kling","MLK"
"76400","Kampung Pinang (A & B)","Tanjong Kling","MLK"
"76400","Kampung Solok Biak","Tanjong Kling","MLK"
"76400","Kampung Tangga Batu","Tanjong Kling","MLK"
"76400","Kampung Tanjong","Tanjong Kling","MLK"
"76400","Kawasan Perindustrian Tangga Batu","Tanjong Kling","MLK"
"76400","Klebang Beach","Tanjong Kling","MLK"
"76400","Kompleks Penghulu","Tanjong Kling","MLK"
"76400","Kuarters TNB","Tanjong Kling","MLK"
"76400","Lereh Kampung Cina","Tanjong Kling","MLK"
"76400","Lereh Luar","Tanjong Kling","MLK"
"76400","Lorong Bukit Tempayan","Tanjong Kling","MLK"
"76400","Lorong Haji Abdullah","Tanjong Kling","MLK"
"76400","Palmstone","Tanjong Kling","MLK"
"76400","Pangsapuri Tangga Batu","Tanjong Kling","MLK"
"76400","Pangsapuri mutiara","Melaka","MLK"
"76400","Pantai Bidara Puteri Resort","Tanjong Kling","MLK"
"76400","Pantai Kundor","Tanjong Kling","MLK"
"76400","Pantai Rombang","Tanjong Kling","MLK"
"76400","Paya Keladi","Tanjong Kling","MLK"
"76400","Paya Lubuh","Tanjong Kling","MLK"
"76400","Pengkalan Perigi","Tanjong Kling","MLK"
"76400","Rumah Pangsa Sungai Lereh","Tanjong Kling","MLK"
"76400","Samudera Condo","Tanjong Kling","MLK"
"76400","Seaview","Tanjong Kling","MLK"
"76400","Shah Beach Resort","Tanjong Kling","MLK"
"76400","Solok Tangga Batu","Tanjong Kling","MLK"
"76400","Spring Garden","Tanjong Kling","MLK"
"76400","Sri Bayan Condo","Tanjong Kling","MLK"
"76400","Sri Tanjong Servis","Tanjong Kling","MLK"
"76400","Taman Imigresen","Tanjong Kling","MLK"
"76400","Taman Nirwana","Tanjong Kling","MLK"
"76400","Taman Pantai Kundur","Tanjong Kling","MLK"
"76400","Taman Pantai Puteri","Tanjong Kling","MLK"
"76400","Taman Permai","Tanjong Kling","MLK"
"76400","Taman Puncak Maju","Tanjong Kling","MLK"
"76400","Taman Seri Gelam","Tanjong Kling","MLK"
"76400","Taman Seri Nilam","Tanjong Kling","MLK"
"76400","Taman Seri Tanjong","Tanjong Kling","MLK"
"76400","Taman Spring","Tanjong Kling","MLK"
"76400","Taman Tanah Merah Jaya","Tanjong Kling","MLK"
"76400","Taman Tangga Batu","Tanjong Kling","MLK"
"76400","Taman Tanjong Kling","Tanjong Kling","MLK"
"76400","Taman Tanjung Jaya","Tanjong Kling","MLK"
"76400","Tangga Batu (Km 15 - 16)","Tanjong Kling","MLK"
"76400","Tanjong Kling","Tanjong Kling","MLK"
"76409","Tanjong Kling - Beg berkunci","Tanjong Kling","MLK"
"76450","Alor Bertam Ulu","Melaka","MLK"
"76450","Jalan CS (11 - 15)","Melaka","MLK"
"76450","Jalan CS 9","Melaka","MLK"
"76450","Jalan Cikgu Jalil","Melaka","MLK"
"76450","Jalan Damai","Melaka","MLK"
"76450","Jalan Demang Mohd","Melaka","MLK"
"76450","Jalan Koh Lai Sin","Melaka","MLK"
"76450","Jalan Penghulu Mak Yah","Melaka","MLK"
"76450","Jalan Sidang Jaffar","Melaka","MLK"
"76450","Jalan Solok Air Supai","Melaka","MLK"
"76450","Jalan TU (10A - 10E)","Melaka","MLK"
"76450","Jalan Tuan Guru Haji Ahmad","Melaka","MLK"
"76450","Jalan Wakaf Bertam Ulu","Melaka","MLK"
"76450","Kampung Alor","Melaka","MLK"
"76450","Kampung Baru Bertam Ulu","Melaka","MLK"
"76450","Kampung Bertam Ulu","Melaka","MLK"
"76450","Kawasan Perindustrian Paya Rumput","Melaka","MLK"
"76450","Lorong Sidang Jaafar","Melaka","MLK"
"76450","Paya Rumput Hilir","Melaka","MLK"
"76450","Paya Rumput Seberang","Melaka","MLK"
"76450","Paya Rumput Tengah","Melaka","MLK"
"76450","Paya Rumput","Melaka","MLK"
"76450","Pekan Paya Rumput","Melaka","MLK"
"76450","Rumah Awam Bertam Ulu","Melaka","MLK"
"76450","Rumah Awam Paya Rumput","Melaka","MLK"
"76450","Solok Air Supai","Melaka","MLK"
"76450","Solok Chong Chan","Melaka","MLK"
"76450","Solok Hilir","Melaka","MLK"
"76450","Solok Penghulu Mak Yah","Melaka","MLK"
"76450","Solok Sim Fat","Melaka","MLK"
"76450","Solok Yong Lian","Melaka","MLK"
"76450","Taman Bertam Impian","Melaka","MLK"
"76450","Taman Bertam Indah","Melaka","MLK"
"76450","Taman Bertam Jaya","Melaka","MLK"
"76450","Taman Bertam Permai","Melaka","MLK"
"76450","Taman Bertam Setia","Melaka","MLK"
"76450","Taman Bertam Ulu","Melaka","MLK"
"76450","Taman Cheng Setia","Melaka","MLK"
"76450","Taman Paya Mas","Melaka","MLK"
"76450","Taman Paya Rumput Bahagia","Melaka","MLK"
"76450","Taman Paya Rumput Indah 2","Melaka","MLK"
"76450","Taman Paya Rumput Indah","Melaka","MLK"
"76450","Taman Paya Rumput Jaya","Melaka","MLK"
"76450","Taman Paya Rumput Permai","Melaka","MLK"
"76450","Taman Paya Rumput Ria","Melaka","MLK"
"76450","Taman Paya Rumput Utama","Melaka","MLK"
"76450","Taman Permai Indah","Melaka","MLK"
"76450","Taman Rumput Jaya","Melaka","MLK"
"76450","Taman Seri Bertam","Melaka","MLK"
"76450","Taman Seri Paya Rumput","Melaka","MLK"
"76450","Taman Sri Bertam","Melaka","MLK"
"76450","Ujong Padang","Melaka","MLK"
"76450","Ulu Paya Rumput","Melaka","MLK"
"77000","Balik Bukit (Chohong)","Jasin","MLK"
"77000","Bukit Pulau","Jasin","MLK"
"77000","CT Tan Estate","Jasin","MLK"
"77000","Felda Kemendor","Jasin","MLK"
"77000","Jalan Teratai","Jasin","MLK"
"77000","Jasin","Jasin","MLK"
"77000","Kampung Ayer Barok","Jasin","MLK"
"77000","Kampung Ayer Manggis","Jasin","MLK"
"77000","Kampung Bukit Katong","Jasin","MLK"
"77000","Kampung Bukit Tinggi A","Jasin","MLK"
"77000","Kampung Bukit Tinggi B","Jasin","MLK"
"77000","Kampung Chenderawasih","Jasin","MLK"
"77000","Kampung Chin-Chin","Jasin","MLK"
"77000","Kampung Chinderah","Jasin","MLK"
"77000","Kampung Chohong","Jasin","MLK"
"77000","Kampung Kelubi","Jasin","MLK"
"77000","Kampung Kemengkang","Jasin","MLK"
"77000","Kampung Kesang Jaya, Hang Tuah Jaya","Jasin","MLK"
"77000","Kampung Kesang Pajak","Jasin","MLK"
"77000","Kampung Kesang Tua, Hang Tuah Jaya","Jasin","MLK"
"77000","Kampung Ladang Baharu","Jasin","MLK"
"77000","Kampung Rim","Jasin","MLK"
"77000","Kampung Seri Kesang","Jasin","MLK"
"77000","Kampung Simpang Badak","Jasin","MLK"
"77000","Kampung Terentang","Jasin","MLK"
"77000","Kesang Pajak","Jasin","MLK"
"77000","Kumpai","Jasin","MLK"
"77000","Ladang R.M. Chettiar","Jasin","MLK"
"77000","Lipat Kajang","Jasin","MLK"
"77000","Loji Ayer","Jasin","MLK"
"77000","Rumah Awam Cenderahwasih","Jasin","MLK"
"77000","Rumah Awam Chin Chin","Jasin","MLK"
"77000","Rumah Awam Kersang","Jasin","MLK"
"77000","Rumah Awam Rim","Jasin","MLK"
"77000","Rumah Awam Simpang Kerayong","Jasin","MLK"
"77000","Rumah Awam Sri Kerayong","Jasin","MLK"
"77000","Simpang Kerayong","Jasin","MLK"
"77000","Taman Bahagia (1 & 2)","Jasin","MLK"
"77000","Taman Chenderawasih","Jasin","MLK"
"77000","Taman Desa Kesang","Jasin","MLK"
"77000","Taman Desa Rim 2","Jasin","MLK"
"77000","Taman Desa Rim","Jasin","MLK"
"77000","Taman Jarim Jaya","Jasin","MLK"
"77000","Taman Kelubi Damai","Jasin","MLK"
"77000","Taman Kesang Indah","Jasin","MLK"
"77000","Taman Kesang Jaya","Jasin","MLK"
"77000","Taman Kolam Air","Jasin","MLK"
"77000","Taman Lot Baru Jalan Kemendor","Jasin","MLK"
"77000","Taman Maju (1 - 3)","Jasin","MLK"
"77000","Taman Mesra Rim 2","Jasin","MLK"
"77000","Taman Mesra","Jasin","MLK"
"77000","Taman Permata","Jasin","MLK"
"77000","Taman Rim Baru","Jasin","MLK"
"77000","Taman Rim Jaya","Jasin","MLK"
"77000","Taman Sin Ban Bee","Jasin","MLK"
"77000","Taman Sri Chin-Chin","Jasin","MLK"
"77000","Taman Sri Kelubi","Jasin","MLK"
"77000","Taman Sri Kemendor","Jasin","MLK"
"77000","Taman Suria","Jasin","MLK"
"77000","Taman Teman","Jasin","MLK"
"77007","Jasin - Peti surat 1 - 80","Jasin","MLK"
"77008","Jasin - Peti surat 81 ke atas","Jasin","MLK"
"77009","Jasin - Beg berkunci","Jasin","MLK"
"77100","Asahan","Asahan","MLK"
"77100","Ayer Tekah","Asahan","MLK"
"77100","Bukit Palembang","Asahan","MLK"
"77100","Bukit Panjang","Asahan","MLK"
"77100","Chabau","Asahan","MLK"
"77100","Felda Bukit Senggeh","Asahan","MLK"
"77100","Ho Seng San","Asahan","MLK"
"77100","Kampung Abbey","Asahan","MLK"
"77100","Kampung Air Kuning","Asahan","MLK"
"77100","Kampung Air Pepat","Asahan","MLK"
"77100","Kampung Air Repah","Asahan","MLK"
"77100","Kampung Air Repat","Asahan","MLK"
"77100","Kampung Ayer Songsang","Asahan","MLK"
"77100","Kampung Ayer Tekah","Asahan","MLK"
"77100","Kampung Baru Cina Asahan","Asahan","MLK"
"77100","Kampung Baru Mantai","Asahan","MLK"
"77100","Kampung Baru Nyalas","Asahan","MLK"
"77100","Kampung Baru Pondok Batang","Asahan","MLK"
"77100","Kampung Bukit Asahan","Asahan","MLK"
"77100","Kampung Gapis","Asahan","MLK"
"77100","Kampung Gubah","Asahan","MLK"
"77100","Kampung Gunung Emas","Asahan","MLK"
"77100","Kampung Jalan Raja","Asahan","MLK"
"77100","Kampung Ladang Keeming","Asahan","MLK"
"77100","Kampung Lubok Bandong","Asahan","MLK"
"77100","Kampung Maju Pondok Batang","Asahan","MLK"
"77100","Kampung Maju","Asahan","MLK"
"77100","Kampung Mantai","Asahan","MLK"
"77100","Kampung Masjid Baru","Asahan","MLK"
"77100","Kampung Melangkan","Asahan","MLK"
"77100","Kampung Nyalas","Asahan","MLK"
"77100","Kampung Padang Lebar","Asahan","MLK"
"77100","Kampung Parit Keliling","Asahan","MLK"
"77100","Kampung Pelembang","Asahan","MLK"
"77100","Kampung Raja","Asahan","MLK"
"77100","Kampung Relau","Asahan","MLK"
"77100","Kampung Sialang","Asahan","MLK"
"77100","Kampung Simpang Bekoh","Asahan","MLK"
"77100","Kampung Simpang Meriang","Asahan","MLK"
"77100","Kampung Solok Kemong","Asahan","MLK"
"77100","Kampung Sungai Dua","Asahan","MLK"
"77100","Kem Asahan","Asahan","MLK"
"77100","Kolam Ayer","Asahan","MLK"
"77100","Ladang Gapis","Asahan","MLK"
"77100","Ladang Kim Kee","Asahan","MLK"
"77100","Ladang Mantai","Asahan","MLK"
"77100","Ladang Nyalas","Asahan","MLK"
"77100","Mantai","Asahan","MLK"
"77100","Nyalas","Asahan","MLK"
"77100","Pondok Batang","Asahan","MLK"
"77100","Rumah Awam Pondok Batang","Asahan","MLK"
"77100","Sialang","Asahan","MLK"
"77100","Simpang Meriang","Asahan","MLK"
"77100","Solok Komong","Asahan","MLK"
"77100","Sungai Dua","Asahan","MLK"
"77100","Sungai Mering","Asahan","MLK"
"77100","Taman Gunung Asahan","Asahan","MLK"
"77100","Taman Nyalas Baru","Asahan","MLK"
"77100","Taman Nyalas","Asahan","MLK"
"77100","Taman Sri Asahan","Asahan","MLK"
"77100","Taman Sri Jaya","Asahan","MLK"
"77100","Taman Sri Nyalas","Asahan","MLK"
"77109","Asahan - Beg berkunci","Asahan","MLK"
"77200","Ayer Merbau","Bemban","MLK"
"77200","Ayer Panas","Bemban","MLK"
"77200","Baba dan Nyonya Resort, Hang Tuah Jaya","Bemban","MLK"
"77200","Bemban (Pekan)","Bemban","MLK"
"77200","Golden Valley Resort, Hang Tuah Jaya","Bemban","MLK"
"77200","Jalan Gapam","Bemban","MLK"
"77200","Jalan Jasin (Batu 14 - 15)","Bemban","MLK"
"77200","Jalan Kolam Air","Bemban","MLK"
"77200","Jalan Solok Bemban","Bemban","MLK"
"77200","Jasin IndustRial Park","Bemban","MLK"
"77200","Kampung Air Merbau","Bemban","MLK"
"77200","Kampung Asam Kumbang","Bemban","MLK"
"77200","Kampung Ayer Panas, Hang Tuah Jaya","Bemban","MLK"
"77200","Kampung Baru (Km 26)","Bemban","MLK"
"77200","Kampung Baru Ayer Panas","Bemban","MLK"
"77200","Kampung Baru Bukit Kajang","Bemban","MLK"
"77200","Kampung Bemban","Bemban","MLK"
"77200","Kampung Bukit Kajang","Bemban","MLK"
"77200","Kampung Gapam, Hang Tuah Jaya","Bemban","MLK"
"77200","Kampung Jilir","Bemban","MLK"
"77200","Kampung Kesang","Bemban","MLK"
"77200","Kampung Kongsai","Bemban","MLK"
"77200","Kampung Parit Lampong","Bemban","MLK"
"77200","Kampung Paya Beringin (Km 19.2)","Bemban","MLK"
"77200","Kampung Serompong","Bemban","MLK"
"77200","Kampung Solok Hilir Ulu Duyong, Hang Tuah Jaya","Bemban","MLK"
"77200","Kampung Tanjong Laboh","Bemban","MLK"
"77200","Kampung Tehel Tengah, Hang Tuah Jaya","Bemban","MLK"
"77200","Kampung Tehel Ulu, Hang Tuah Jaya","Bemban","MLK"
"77200","Kampung Tehel, Hang Tuah Jaya","Bemban","MLK"
"77200","Kampung Ulu Duyong, Hang Tuah Jaya","Bemban","MLK"
"77200","Ladang Ayer Panas","Bemban","MLK"
"77200","Ladang Bukit Kajang","Bemban","MLK"
"77200","Ladang Leong Watt Hin","Bemban","MLK"
"77200","Orna Resort, Hang Tuah Jaya","Bemban","MLK"
"77200","Paya Asam Kumbang","Bemban","MLK"
"77200","Pekan Tehel","Bemban","MLK"
"77200","Rumah Awam Air Merbau","Bemban","MLK"
"77200","Solok Parit Lampong","Bemban","MLK"
"77200","Solok Paya Kundang","Bemban","MLK"
"77200","Solok Tehel Ulu","Bemban","MLK"
"77200","Taman Asia Selatan","Bemban","MLK"
"77200","Taman Bemban Baru","Bemban","MLK"
"77200","Taman Bemban Jaya, Hang Tuah Jaya","Bemban","MLK"
"77200","Taman Bemban Utama","Bemban","MLK"
"77200","Taman Bemban, Hang Tuah Jaya","Bemban","MLK"
"77200","Taman Damai","Bemban","MLK"
"77200","Taman Desa Merbau","Bemban","MLK"
"77200","Taman IKS Air Panas","Bemban","MLK"
"77200","Taman Indah","Bemban","MLK"
"77200","Taman Mayang Baru","Bemban","MLK"
"77200","Taman Mayang","Bemban","MLK"
"77200","Taman Megah","Bemban","MLK"
"77200","Taman Merbau Jaya","Bemban","MLK"
"77200","Taman Mewah","Bemban","MLK"
"77200","Taman Permai","Bemban","MLK"
"77200","Taman Perumahan Polis","Bemban","MLK"
"77200","Taman Sri Bemban","Bemban","MLK"
"77200","Taman Wira Rumah Awam Tehel, Hang Tuah Jaya","Bemban","MLK"
"77200","Yen Chong Realty","Bemban","MLK"
"77300","Anjong Batu","Merlimau","MLK"
"77300","Bandar Baru Merlimau","Merlimau","MLK"
"77300","Bandar Baru","Merlimau","MLK"
"77300","Batu Gajah (Batu 15 - 17 3/4)","Merlimau","MLK"
"77300","Bukit Durian","Merlimau","MLK"
"77300","Bukit Gereja","Merlimau","MLK"
"77300","Bukit Kuda","Merlimau","MLK"
"77300","Bukit Tembakau","Merlimau","MLK"
"77300","Felcra Lembah Kesang","Merlimau","MLK"
"77300","Jalan Abu Hassan","Merlimau","MLK"
"77300","Jalan Ahmad","Merlimau","MLK"
"77300","Jalan Aman","Merlimau","MLK"
"77300","Jalan Baksan","Merlimau","MLK"
"77300","Jalan Bakti","Merlimau","MLK"
"77300","Jalan Batu Gajah (Km 23 - 24)","Merlimau","MLK"
"77300","Jalan Bayan","Merlimau","MLK"
"77300","Jalan Bendang (1 & 2)","Merlimau","MLK"
"77300","Jalan Berkat","Merlimau","MLK"
"77300","Jalan Boyak","Merlimau","MLK"
"77300","Jalan Bukit Kuda (1,2,3 & 4)","Merlimau","MLK"
"77300","Jalan Bukit Tasek","Merlimau","MLK"
"77300","Jalan Bunga Raya","Merlimau","MLK"
"77300","Jalan Damai","Merlimau","MLK"
"77300","Jalan Darat Seberang","Merlimau","MLK"
"77300","Jalan Dato Langgar","Merlimau","MLK"
"77300","Jalan Dato Nawar","Merlimau","MLK"
"77300","Jalan Dato Suri","Merlimau","MLK"
"77300","Jalan Giang","Merlimau","MLK"
"77300","Jalan Hajah Salbiah","Merlimau","MLK"
"77300","Jalan Haji Hassan","Merlimau","MLK"
"77300","Jalan Haji Kamis","Merlimau","MLK"
"77300","Jalan Haji Mentol","Merlimau","MLK"
"77300","Jalan Haji Sharif","Merlimau","MLK"
"77300","Jalan Haji Yahya","Merlimau","MLK"
"77300","Jalan Indah","Merlimau","MLK"
"77300","Jalan Jasin (Batu 15)","Merlimau","MLK"
"77300","Jalan Jasin (Km 23)","Merlimau","MLK"
"77300","Jalan Kenari","Merlimau","MLK"
"77300","Jalan Kubur","Merlimau","MLK"
"77300","Jalan Ladang Pasir","Merlimau","MLK"
"77300","Jalan Lombong","Merlimau","MLK"
"77300","Jalan Madrasah","Merlimau","MLK"
"77300","Jalan Masai","Merlimau","MLK"
"77300","Jalan Masjid","Merlimau","MLK"
"77300","Jalan Merbok","Merlimau","MLK"
"77300","Jalan Minhad","Merlimau","MLK"
"77300","Jalan Muar (Batu 15 - 20)","Merlimau","MLK"
"77300","Jalan Muar (Km 23)","Merlimau","MLK"
"77300","Jalan Muar Lama","Merlimau","MLK"
"77300","Jalan Mulia","Merlimau","MLK"
"77300","Jalan Pahlawan","Merlimau","MLK"
"77300","Jalan Pantai Siring","Merlimau","MLK"
"77300","Jalan Parit Alai","Merlimau","MLK"
"77300","Jalan Parit Pendekar","Merlimau","MLK"
"77300","Jalan Paya Goyang","Merlimau","MLK"
"77300","Jalan Paya Lengkong","Merlimau","MLK"
"77300","Jalan Paya Lukah","Merlimau","MLK"
"77300","Jalan Paya Panglong","Merlimau","MLK"
"77300","Jalan Paya Tanjong","Merlimau","MLK"
"77300","Jalan Penghulu Ahim","Merlimau","MLK"
"77300","Jalan Permatang Bukit (1 - 4)","Merlimau","MLK"
"77300","Jalan Permatang Serai","Merlimau","MLK"
"77300","Jalan Pulai Darat","Merlimau","MLK"
"77300","Jalan Puyuh","Merlimau","MLK"
"77300","Jalan Rahmat","Merlimau","MLK"
"77300","Jalan Salim","Merlimau","MLK"
"77300","Jalan Sayang","Merlimau","MLK"
"77300","Jalan Serindit","Merlimau","MLK"
"77300","Jalan Sidang Harun","Merlimau","MLK"
"77300","Jalan Sidang Md Diah","Merlimau","MLK"
"77300","Jalan Simin","Merlimau","MLK"
"77300","Jalan Simpang Pasir Gembur","Merlimau","MLK"
"77300","Jalan Sokma","Merlimau","MLK"
"77300","Jalan Solok Minyak 1","Merlimau","MLK"
"77300","Jalan Solok Minyak 2","Merlimau","MLK"
"77300","Jalan Solok Telok","Merlimau","MLK"
"77300","Jalan Sungai Renggi 1&2","Merlimau","MLK"
"77300","Jalan Tenaga Baru","Merlimau","MLK"
"77300","Jalan Tiong","Merlimau","MLK"
"77300","Jalan Ujong Tanjong","Merlimau","MLK"
"77300","Jalan Zakaria","Merlimau","MLK"
"77300","Kampung Ayer Tawar","Merlimau","MLK"
"77300","Kampung Batak","Merlimau","MLK"
"77300","Kampung Batu 14 (Jalan Melaka)","Merlimau","MLK"
"77300","Kampung Batu 14 (Jalan Muar)","Merlimau","MLK"
"77300","Kampung Batu Gajah Pasir (Batu 18)","Merlimau","MLK"
"77300","Kampung Batu Gajah","Merlimau","MLK"
"77300","Kampung Berangan Enam","Merlimau","MLK"
"77300","Kampung Bukit Datok","Merlimau","MLK"
"77300","Kampung Bukit Durian","Merlimau","MLK"
"77300","Kampung Bukit Kepok","Merlimau","MLK"
"77300","Kampung Kilang Berapi","Merlimau","MLK"
"77300","Kampung Lancang","Merlimau","MLK"
"77300","Kampung Merlimau Pasir","Merlimau","MLK"
"77300","Kampung Paya Buloh","Merlimau","MLK"
"77300","Kampung Paya Yoke","Merlimau","MLK"
"77300","Kampung Pulai Barat","Merlimau","MLK"
"77300","Kampung Pulai","Merlimau","MLK"
"77300","Kampung Sawah Padang","Merlimau","MLK"
"77300","Kampung Sebatu (Km 29 Jalan Salim)","Merlimau","MLK"
"77300","Kampung Sempang","Merlimau","MLK"
"77300","Kampung Semujuk Sri Mendapat","Merlimau","MLK"
"77300","Kampung Semujuk","Merlimau","MLK"
"77300","Kampung Sri Minyak","Merlimau","MLK"
"77300","Kampung Sungai Sembilang","Merlimau","MLK"
"77300","Kampung Telok","Merlimau","MLK"
"77300","Kampung Tengah Permatang Serai","Merlimau","MLK"
"77300","Kawasan Industri Serkam","Merlimau","MLK"
"77300","Kawasan Kilang Semujuk","Merlimau","MLK"
"77300","Ladang Selatan Baru","Merlimau","MLK"
"77300","Ladang Tong Bee","Merlimau","MLK"
"77300","Ladang Yew Watt Hin","Merlimau","MLK"
"77300","Lorong Terap Jalan Haji Jamat","Merlimau","MLK"
"77300","Merlimau Estate","Merlimau","MLK"
"77300","Merlimau Pantai","Merlimau","MLK"
"77300","Merlimau","Merlimau","MLK"
"77300","Paya Tanjong","Merlimau","MLK"
"77300","Pekan Batu Gajah Pasir","Merlimau","MLK"
"77300","Pekan Sempang","Merlimau","MLK"
"77300","Pekan Serkam","Merlimau","MLK"
"77300","Pengkalan Samak","Merlimau","MLK"
"77300","Pulai Darat","Merlimau","MLK"
"77300","Rumah Awam Merlimau","Merlimau","MLK"
"77300","Rumah Awam Sempang","Merlimau","MLK"
"77300","Rumah Awam Umbai","Merlimau","MLK"
"77300","Sebatu","Merlimau","MLK"
"77300","Semujuk","Merlimau","MLK"
"77300","Serkam Anak Ayer","Merlimau","MLK"
"77300","Serkam Darat","Merlimau","MLK"
"77300","Serkam Estate","Merlimau","MLK"
"77300","Serkam Pantai","Merlimau","MLK"
"77300","Serkam Tengah","Merlimau","MLK"
"77300","Serkam Timur","Merlimau","MLK"
"77300","Serkam","Merlimau","MLK"
"77300","Simpang Bunga Raya","Merlimau","MLK"
"77300","Simpang Pasir Gembor","Merlimau","MLK"
"77300","Simpang Pekan","Merlimau","MLK"
"77300","Solok Minyak","Merlimau","MLK"
"77300","Solok Pasal","Merlimau","MLK"
"77300","Solok Paya Lengkong","Merlimau","MLK"
"77300","Sri Minyak","Merlimau","MLK"
"77300","Sungai Ayer Tawar","Merlimau","MLK"
"77300","Sungai Rengi","Merlimau","MLK"
"77300","Taman Balkis (Bukit Durian)","Merlimau","MLK"
"77300","Taman Bukit Tembakau","Merlimau","MLK"
"77300","Taman Dato Abdul Aziz Umbai","Merlimau","MLK"
"77300","Taman Debunga","Merlimau","MLK"
"77300","Taman Deretan","Merlimau","MLK"
"77300","Taman Harmoni","Merlimau","MLK"
"77300","Taman IKS Industri","Merlimau","MLK"
"77300","Taman IKS Serkam","Merlimau","MLK"
"77300","Taman Koperasi Serkam Darat","Merlimau","MLK"
"77300","Taman Maju Jaya","Merlimau","MLK"
"77300","Taman Makmur","Merlimau","MLK"
"77300","Taman Merlimau Baru","Merlimau","MLK"
"77300","Taman Merlimau Indah","Merlimau","MLK"
"77300","Taman Merlimau Jaya","Merlimau","MLK"
"77300","Taman Merlimau Utara","Merlimau","MLK"
"77300","Taman Mewah","Merlimau","MLK"
"77300","Taman Muhibbah 6A, 6B, 6C","Merlimau","MLK"
"77300","Taman Muhibbah","Merlimau","MLK"
"77300","Taman Pahlawan","Merlimau","MLK"
"77300","Taman Panglima Park","Merlimau","MLK"
"77300","Taman Persona","Merlimau","MLK"
"77300","Taman Pitis","Merlimau","MLK"
"77300","Taman Pulai Indah","Merlimau","MLK"
"77300","Taman Pulai Jaya","Merlimau","MLK"
"77300","Taman Rakyat","Merlimau","MLK"
"77300","Taman Sejati","Merlimau","MLK"
"77300","Taman Seri Jati","Merlimau","MLK"
"77300","Taman Seri Merlimau","Merlimau","MLK"
"77300","Taman Serkam Jaya","Merlimau","MLK"
"77300","Taman Serkam Perdana","Merlimau","MLK"
"77300","Taman Sri Serkam","Merlimau","MLK"
"77300","Tedong (Pekan)","Merlimau","MLK"
"77300","Tedong Barat","Merlimau","MLK"
"77300","Tedong Darat","Merlimau","MLK"
"77300","Tedong Pantai","Merlimau","MLK"
"77300","Umbai","Merlimau","MLK"
"77309","Merlimau - Beg berkunci","Merlimau","MLK"
"77400","Jalan Ghafar","Sungai Rambai","MLK"
"77400","Jalan Haji Dahlan","Sungai Rambai","MLK"
"77400","Jalan Haji Raya","Sungai Rambai","MLK"
"77400","Jalan Ibrahim","Sungai Rambai","MLK"
"77400","Jalan Laidin","Sungai Rambai","MLK"
"77400","Jalan Parit Putat","Sungai Rambai","MLK"
"77400","Jalan Parit Sialang","Sungai Rambai","MLK"
"77400","Jalan Paya Rembut","Sungai Rambai","MLK"
"77400","Kampung Benteng","Sungai Rambai","MLK"
"77400","Kampung Parit Gantong","Sungai Rambai","MLK"
"77400","Kampung Parit Penghulu","Sungai Rambai","MLK"
"77400","Kampung Parit Perawas","Sungai Rambai","MLK"
"77400","Kampung Parit Putat","Sungai Rambai","MLK"
"77400","Kampung Parit Sidang Seman","Sungai Rambai","MLK"
"77400","Kampung Paya Rembut","Sungai Rambai","MLK"
"77400","Kampung Sebatu (Km 29 - 31)","Sungai Rambai","MLK"
"77400","Kampung Solok Ikan Paus","Sungai Rambai","MLK"
"77400","Kampung Tasek","Sungai Rambai","MLK"
"77400","Kampung Telok Gong","Sungai Rambai","MLK"
"77400","Lorong Baba","Sungai Rambai","MLK"
"77400","Lorong Pengkalan Leban","Sungai Rambai","MLK"
"77400","Lorong Sayang","Sungai Rambai","MLK"
"77400","Parit Derhaka","Sungai Rambai","MLK"
"77400","Parit Hailam","Sungai Rambai","MLK"
"77400","Parit Penghulu Benteng","Sungai Rambai","MLK"
"77400","Parit Putat Benting","Sungai Rambai","MLK"
"77400","Parit Sialang","Sungai Rambai","MLK"
"77400","Parit Sidang Seman","Sungai Rambai","MLK"
"77400","Permatang Tualang","Sungai Rambai","MLK"
"77400","Rumah Awam Sungai Rambai","Sungai Rambai","MLK"
"77400","Sungai Rambai - Peti surat","Sungai Rambai","MLK"
"77400","Sungai Rambai","Sungai Rambai","MLK"
"77400","Taman Anggerik","Sungai Rambai","MLK"
"77400","Taman Cempaka","Sungai Rambai","MLK"
"77400","Taman Jaya Parit Putat","Sungai Rambai","MLK"
"77400","Taman Jaya","Sungai Rambai'","MLK"
"77400","Taman Perdana","Sungai Rambai","MLK"
"77400","Taman Rambai Perdana","Sungai Rambai","MLK"
"77400","Taman Seri Desa","Sungai Rambai","MLK"
"77400","Taman Sri Rambai","Sungai Rambai","MLK"
"77400","Taman Sri Suria","Sungai Rambai","MLK"
"77400","Tambak Merah","Sungai Rambai","MLK"
"77409","Sungai Rambai - Beg berkunci","Sungai Rambai","MLK"
"77500","Balai Polis Batang Melaka","Selandar","MLK"
"77500","Batang Melaka (Batu 27 - 28)","Selandar","MLK"
"77500","Batang Melaka (Km 43 - 44)","Selandar","MLK"
"77500","Batang Melaka Estate","Selandar","MLK"
"77500","Batu Ampar","Selandar","MLK"
"77500","Belakang Pekan Batang Melaka","Selandar","MLK"
"77500","Bukit Senggeh Hilir","Selandar","MLK"
"77500","Bukit Senggeh","Selandar","MLK"
"77500","Chai Soon Hin Estate","Selandar","MLK"
"77500","Felcra Bukit Sedanan","Selandar","MLK"
"77500","Felda Ayer Kangkong","Selandar","MLK"
"77500","IKS Selandar","Selandar","MLK"
"77500","Jalan Air Talam","Selandar","MLK"
"77500","Jalan Batang Melaka (Km 38 - 44)","Selandar","MLK"
"77500","Jalan Bidan Kampung Bukit Senggeh","Selandar","MLK"
"77500","Jalan Bilal","Selandar","MLK"
"77500","Jalan Gemas - Tampin Tebong","Selandar","MLK"
"77500","Jalan Gemas Tampin","Selandar","MLK"
"77500","Jalan Hassan","Selandar","MLK"
"77500","Jalan Imam Razak","Selandar","MLK"
"77500","Jalan Machap Selandar","Selandar","MLK"
"77500","Jalan Manja","Selandar","MLK"
"77500","Jalan Tenaga Baru","Selandar","MLK"
"77500","Kampung Air Sialang Orang Asli","Selandar","MLK"
"77500","Kampung Ayer Kangkong","Selandar","MLK"
"77500","Kampung Baru Anak Ayer Tebong","Selandar","MLK"
"77500","Kampung Baru Bukit Sedanan","Selandar","MLK"
"77500","Kampung Baru On Lok","Selandar","MLK"
"77500","Kampung Baru Selandar","Selandar","MLK"
"77500","Kampung Baru Tebong","Selandar","MLK"
"77500","Kampung Bukit Senggeh","Selandar","MLK"
"77500","Kampung Bukit Seraya","Selandar","MLK"
"77500","Kampung Hilir (Batu 26 - 29)","Selandar","MLK"
"77500","Kampung Hulu (Batu 3)","Selandar","MLK"
"77500","Kampung Jalan Tebong","Selandar","MLK"
"77500","Kampung Jus Permai","Selandar","MLK"
"77500","Kampung Jus Selandar","Selandar","MLK"
"77500","Kampung Nelayan Bukit Sendanan","Selandar","MLK"
"77500","Kampung Orang Asli Air Dusun Tebong","Selandar","MLK"
"77500","Kampung Orang Asli Batang Melaka","Selandar","MLK"
"77500","Kampung Orang Asli Bukit Putus","Selandar","MLK"
"77500","Kampung Orang Asli Bukit Seraya","Selandar","MLK"
"77500","Kampung Orang Asli Gapam","Selandar","MLK"
"77500","Kampung Orang Asli Jus","Selandar","MLK"
"77500","Kampung Orang Asli Kubang Badak","Selandar","MLK"
"77500","Kampung Orang Asli Tebong Station","Selandar","MLK"
"77500","Kampung Orang Asli Terentang","Selandar","MLK"
"77500","Kampung Pondok Kempas","Selandar","MLK"
"77500","Kampung Pulau","Selandar","MLK"
"77500","Kampung Rejang Selandar","Selandar","MLK"
"77500","Kampung Selandar","Selandar","MLK"
"77500","Kampung Solok Ayer Keroh","Selandar","MLK"
"77500","Kampung Solok Bukit Putus","Selandar","MLK"
"77500","Kampung Solok Kuala Sungga","Selandar","MLK"
"77500","Kampung Tebong Dalam","Selandar","MLK"
"77500","Kampung Tebong","Selandar","MLK"
"77500","Kampung Tengah Batang Melaka","Selandar","MLK"
"77500","Kampung Tengah","Selandar","MLK"
"77500","Kampung Ulu Batang Melaka","Selandar","MLK"
"77500","Kampung Ulu Jus","Selandar","MLK"
"77500","Kuala Sungga","Selandar","MLK"
"77500","Ladang Batu Berkarat","Selandar","MLK"
"77500","Ladang Bukit Putus","Selandar","MLK"
"77500","Ladang Chye Soon Hing","Selandar","MLK"
"77500","Ladang Enam B Tebong","Selandar","MLK"
"77500","Ladang Guthrie","Selandar","MLK"
"77500","Ladang Kemuning","Selandar","MLK"
"77500","Ladang Leong Whatt Hin","Selandar","MLK"
"77500","Ladang Nam Bee","Selandar","MLK"
"77500","Ladang Tebolang","Selandar","MLK"
"77500","Ladang Tebong","Selandar","MLK"
"77500","Ladang Tor Lee","Selandar","MLK"
"77500","Ladang Yong Teck Nam","Selandar","MLK"
"77500","Lim Kok Wah Estate","Selandar","MLK"
"77500","Nam Bee Estate","Selandar","MLK"
"77500","Pekan Kuala Sungga","Selandar","MLK"
"77500","Pekan Selandar","Selandar","MLK"
"77500","Rumah Awam Batang Melaka","Selandar","MLK"
"77500","Rumah Awam Pondok Kempas","Selandar","MLK"
"77500","Rumah Awam Selandar","Selandar","MLK"
"77500","Rumah Awam Sri Cahaya","Selandar","MLK"
"77500","Rumah Awam Tebong","Selandar","MLK"
"77500","Rumah Keretapi Tebong","Selandar","MLK"
"77500","Selandar","Selandar","MLK"
"77500","Sing Lian Estate","Selandar","MLK"
"77500","Solok Air Lanjut","Selandar","MLK"
"77500","Solok Anak Air Tetaban","Selandar","MLK"
"77500","Solok Ayer Keroh","Selandar","MLK"
"77500","Solok Chembung","Selandar","MLK"
"77500","Solok Kampung Pulau","Selandar","MLK"
"77500","Solok Rejang","Selandar","MLK"
"77500","Soon Huat Estate","Selandar","MLK"
"77500","Tai Joo Estate","Selandar","MLK"
"77500","Taman Baru Jus","Selandar","MLK"
"77500","Taman Baru Selandar","Selandar","MLK"
"77500","Taman Batang Melaka Baru","Selandar","MLK"
"77500","Taman Batang Melaka Jaya","Selandar","MLK"
"77500","Taman Desa Selandar","Selandar","MLK"
"77500","Taman Desa","Selandar","MLK"
"77500","Taman Hilir","Selandar","MLK"
"77500","Taman Indah 2","Selandar","MLK"
"77500","Taman Indah","Selandar","MLK"
"77500","Taman Jus Perdana","Selandar","MLK"
"77500","Taman Kejora","Selandar","MLK"
"77500","Taman Kuala Sungga","Selandar","MLK"
"77500","Taman Pelangi","Selandar","MLK"
"77500","Taman Permai","Selandar","MLK"
"77500","Taman Pertanian Selandar","Selandar","MLK"
"77500","Taman Selandar Baru","Selandar","MLK"
"77500","Taman Selandar Permai","Selandar","MLK"
"77500","Taman Selandar","Selandar","MLK"
"77500","Taman Seri Selandar","Selandar","MLK"
"77500","Taman Sri Hilir","Selandar","MLK"
"77500","Tebong (Pekan)","Selandar","MLK"
"77500","Tebong","Selandar","MLK"
"77500","Tor Lee Estate","Selandar","MLK"
"78000","Air Cantik (Lendu Air Paabas)","Alor Gajah","MLK"
"78000","Alor Gajah","Alor Gajah","MLK"
"78000","Ayer Hitam Lendu","Alor Gajah","MLK"
"78000","Ayer Pak Abas","Alor Gajah","MLK"
"78000","Ayer Panas Estate","Alor Gajah","MLK"
"78000","Ayer Panas","Alor Gajah","MLK"
"78000","Bandar Vendor Taboh Naning","Alor Gajah","MLK"
"78000","Bangunan Prima Alor Gajah","Alor Gajah","MLK"
"78000","Bukit Hang Lipoh","Alor Gajah","MLK"
"78000","Bukit Hantu (Lendu Dalam)","Alor Gajah","MLK"
"78000","Bukit Lengkap","Alor Gajah","MLK"
"78000","Bukit Tampoi","Alor Gajah","MLK"
"78000","Bukit Tuan Karia","Alor Gajah","MLK"
"78000","Felda Hutan Percha","Alor Gajah","MLK"
"78000","Felda Machap","Alor Gajah","MLK"
"78000","Felda Solok MengGong","Alor Gajah","MLK"
"78000","Gadek Buloh China","Alor Gajah","MLK"
"78000","Gadek","Alor Gajah","MLK"
"78000","Heng Lee Estate","Alor Gajah","MLK"
"78000","Hook Lai Estate","Alor Gajah","MLK"
"78000","Hutan Percha","Alor Gajah","MLK"
"78000","IKS Air Paabas","Alor Gajah","MLK"
"78000","IKS Paya Datok","Alor Gajah","MLK"
"78000","IKS Sungai Petai","Alor Gajah","MLK"
"78000","Jalan Air Lanjut","Alor Gajah","MLK"
"78000","Jalan Air Manggis (Lendu Dalam)","Alor Gajah","MLK"
"78000","Jalan Air Putih","Alor Gajah","MLK"
"78000","Jalan Batu 16 3/4 Kampung Paya Datok","Alor Gajah","MLK"
"78000","Jalan Besar Alor Gajah","Alor Gajah","MLK"
"78000","Jalan Bukit Langkap","Alor Gajah","MLK"
"78000","Jalan Bukit Payong","Alor Gajah","MLK"
"78000","Jalan Hospital","Alor Gajah","MLK"
"78000","Jalan Kolam Air","Alor Gajah","MLK"
"78000","Jalan Kolam Ayer","Alor Gajah","MLK"
"78000","Jalan Lama Padang Sebang","Alor Gajah","MLK"
"78000","Jalan Lendu","Alor Gajah","MLK"
"78000","Jalan Maid Cerana Putih","Alor Gajah","MLK"
"78000","Jalan Masjid Melekek","Alor Gajah","MLK"
"78000","Jalan Miat","Alor Gajah","MLK"
"78000","Jalan Mutiara","Alor Gajah","MLK"
"78000","Jalan Semerling","Alor Gajah","MLK"
"78000","Jalan Tanjong Cerana Putih","Alor Gajah","MLK"
"78000","Jalan Tanjung","Alor Gajah","MLK"
"78000","Kampung Ampang Batu","Alor Gajah","MLK"
"78000","Kampung Ayer Hitam Lendu","Alor Gajah","MLK"
"78000","Kampung Ayer Lanjut Dalam","Alor Gajah","MLK"
"78000","Kampung Ayer Lanjut","Alor Gajah","MLK"
"78000","Kampung Ayer Manggis","Alor Gajah","MLK"
"78000","Kampung Ayer Paabas Dalam","Alor Gajah","MLK"
"78000","Kampung Ayer Paabas","Alor Gajah","MLK"
"78000","Kampung Ayer Tanai","Alor Gajah","MLK"
"78000","Kampung Balai","Alor Gajah","MLK"
"78000","Kampung Baru 1 & 2","Alor Gajah","MLK"
"78000","Kampung Baru Alor Gajah","Alor Gajah","MLK"
"78000","Kampung Baru Gadek","Alor Gajah","MLK"
"78000","Kampung Baru Lendu","Alor Gajah","MLK"
"78000","Kampung Baru Menggong","Alor Gajah","MLK"
"78000","Kampung Baru Paya Datok","Alor Gajah","MLK"
"78000","Kampung Baru Rumbia","Alor Gajah","MLK"
"78000","Kampung Baru Taboh Naning","Alor Gajah","MLK"
"78000","Kampung Bukit Nangka","Alor Gajah","MLK"
"78000","Kampung Cherana Puteh","Alor Gajah","MLK"
"78000","Kampung Dalong","Alor Gajah","MLK"
"78000","Kampung Durian Terong","Alor Gajah","MLK"
"78000","Kampung Enau","Alor Gajah","MLK"
"78000","Kampung Gadek Binjai","Alor Gajah","MLK"
"78000","Kampung Gadek Buluh Cina","Alor Gajah","MLK"
"78000","Kampung Gadek Dalam","Alor Gajah","MLK"
"78000","Kampung Gadek Luar","Alor Gajah","MLK"
"78000","Kampung Gadek Tebat","Alor Gajah","MLK"
"78000","Kampung Ganun","Alor Gajah","MLK"
"78000","Kampung Gedang","Alor Gajah","MLK"
"78000","Kampung Jalan Estate Kelemak","Alor Gajah","MLK"
"78000","Kampung Jawa","Alor Gajah","MLK"
"78000","Kampung Jelatang","Alor Gajah","MLK"
"78000","Kampung Kati","Alor Gajah","MLK"
"78000","Kampung Kelemak (Jalan Lendu)","Alor Gajah","MLK"
"78000","Kampung Kelemak Dalam","Alor Gajah","MLK"
"78000","Kampung Kelemak Luar","Alor Gajah","MLK"
"78000","Kampung Kelemak Tengah","Alor Gajah","MLK"
"78000","Kampung Kelemak Ulu","Alor Gajah","MLK"
"78000","Kampung Kelemak","Alor Gajah","MLK"
"78000","Kampung Kemuning Tengah","Alor Gajah","MLK"
"78000","Kampung Kemuning","Alor Gajah","MLK"
"78000","Kampung Kemus","Alor Gajah","MLK"
"78000","Kampung Kolam Ayer Gadek","Alor Gajah","MLK"
"78000","Kampung Kundangan Simpang Empat","Alor Gajah","MLK"
"78000","Kampung Lanjut Manis","Alor Gajah","MLK"
"78000","Kampung Lelong","Alor Gajah","MLK"
"78000","Kampung Lendu Ayer Hitam","Alor Gajah","MLK"
"78000","Kampung Lendu Dalam","Alor Gajah","MLK"
"78000","Kampung Lendu Hilir","Alor Gajah","MLK"
"78000","Kampung Lendu Pondok Sepam","Alor Gajah","MLK"
"78000","Kampung Lendu Tengah","Alor Gajah","MLK"
"78000","Kampung Lendu","Alor Gajah","MLK"
"78000","Kampung Lubok Kepong","Alor Gajah","MLK"
"78000","Kampung Melekek (Batu 17 1/2)","Alor Gajah","MLK"
"78000","Kampung Melekek Dalam","Alor Gajah","MLK"
"78000","Kampung Padang Besar","Alor Gajah","MLK"
"78000","Kampung Padang Kambing","Alor Gajah","MLK"
"78000","Kampung Padang Lalang","Alor Gajah","MLK"
"78000","Kampung Padang Melekek","Alor Gajah","MLK"
"78000","Kampung Padang Sebang","Alor Gajah","MLK"
"78000","Kampung Padang","Alor Gajah","MLK"
"78000","Kampung Pagoh Luar","Alor Gajah","MLK"
"78000","Kampung Paku Dalam","Alor Gajah","MLK"
"78000","Kampung Paku","Alor Gajah","MLK"
"78000","Kampung Paya Dalam","Alor Gajah","MLK"
"78000","Kampung Paya Datok","Alor Gajah","MLK"
"78000","Kampung Paya Simpang Empat","Alor Gajah","MLK"
"78000","Kampung Pegoh","Alor Gajah","MLK"
"78000","Kampung Pengkalan","Alor Gajah","MLK"
"78000","Kampung Perling (Simpang Ampat)","Alor Gajah","MLK"
"78000","Kampung Perling Simpang Ampat","Alor Gajah","MLK"
"78000","Kampung Perling","Alor Gajah","MLK"
"78000","Kampung Pernau","Alor Gajah","MLK"
"78000","Kampung Ponggor","Alor Gajah","MLK"
"78000","Kampung Ponggur","Alor Gajah","MLK"
"78000","Kampung Punggur","Alor Gajah","MLK"
"78000","Kampung Rembia","Alor Gajah","MLK"
"78000","Kampung Simpang Kendong","Alor Gajah","MLK"
"78000","Kampung Solok Ayer Puteh","Alor Gajah","MLK"
"78000","Kampung Solok Bukit Hantu","Alor Gajah","MLK"
"78000","Kampung Solok Cherana Puteh","Alor Gajah","MLK"
"78000","Kampung Solok Gajah Mati","Alor Gajah","MLK"
"78000","Kampung Solok Jeram Rumbia","Alor Gajah","MLK"
"78000","Kampung Solok Limau Purut","Alor Gajah","MLK"
"78000","Kampung Solok Menggong","Alor Gajah","MLK"
"78000","Kampung Sri Kendong","Alor Gajah","MLK"
"78000","Kampung Sungai Buloh","Alor Gajah","MLK"
"78000","Kampung Sungai Petai","Alor Gajah","MLK"
"78000","Kampung Sungai Ragok","Alor Gajah","MLK"
"78000","Kampung Taboh Naning","Alor Gajah","MLK"
"78000","Kampung Tambak Jelatang","Alor Gajah","MLK"
"78000","Kampung Tanjong Balai","Alor Gajah","MLK"
"78000","Kampung Tanjong Rimau Dalam","Alor Gajah","MLK"
"78000","Kampung Tanjong Rimau Luar","Alor Gajah","MLK"
"78000","Kampung Tanjong Rimau","Alor Gajah","MLK"
"78000","Kampung Tebat","Alor Gajah","MLK"
"78000","Kampung Tengah (Melaka Pindah)","Alor Gajah","MLK"
"78000","Kampung Tengah (Melekek)","Alor Gajah","MLK"
"78000","Kampung Tengah Sungai Ragok","Alor Gajah","MLK"
"78000","Kampung Ulu Kemus","Alor Gajah","MLK"
"78000","Kampung Ulu Sungai Buluh","Alor Gajah","MLK"
"78000","Kelemak Jalan Bukit Tampoi","Alor Gajah","MLK"
"78000","Kelemak Jalan Lama","Alor Gajah","MLK"
"78000","Kemas Dalam","Alor Gajah","MLK"
"78000","Kolej Risda Melaka","Alor Gajah","MLK"
"78000","Kuarters Kesihatan Paya Datok","Alor Gajah","MLK"
"78000","Ladang kemuning Kru","Alor Gajah","MLK"
"78000","Lanjut Manis","Alor Gajah","MLK"
"78000","Lendu Ayer Paabas","Alor Gajah","MLK"
"78000","Lendu Estate","Alor Gajah","MLK"
"78000","Lendu","Alor Gajah","MLK"
"78000","Lesong Batu","Alor Gajah","MLK"
"78000","Lian Huat Estate","Alor Gajah","MLK"
"78000","Lorong Solok Zakaria","Alor Gajah","MLK"
"78000","Machap Umboo Baru","Alor Gajah","MLK"
"78000","Machap Umboo Permai","Alor Gajah","MLK"
"78000","Machap Umboo","Alor Gajah","MLK"
"78000","Masjid Saga","Alor Gajah","MLK"
"78000","Melaka Pindah Estate","Alor Gajah","MLK"
"78000","Melaka Pindah Hilir","Alor Gajah","MLK"
"78000","Melaka Pindah","Alor Gajah","MLK"
"78000","Melekek Kampung Padang","Alor Gajah","MLK"
"78000","Melekek Tanjong Balai","Alor Gajah","MLK"
"78000","Melekek","Alor Gajah","MLK"
"78000","Padang Besar","Alor Gajah","MLK"
"78000","Pasar Menggong","Alor Gajah","MLK"
"78000","Paya Dalam","Alor Gajah","MLK"
"78000","Pegoh Dalam","Alor Gajah","MLK"
"78000","Pegoh Estate Rembia Division","Alor Gajah","MLK"
"78000","Pegoh Estate","Alor Gajah","MLK"
"78000","Pekan Alor Gajah","Alor Gajah","MLK"
"78000","Pekan Gadek","Alor Gajah","MLK"
"78000","Pekan Lendu","Alor Gajah","MLK"
"78000","Pekan Melaka Pindah","Alor Gajah","MLK"
"78000","Pekan Simpang Empat","Alor Gajah","MLK"
"78000","Rumah Awam Gadek","Alor Gajah","MLK"
"78000","Rumah Awam Kelemak","Alor Gajah","MLK"
"78000","Rumah Awam Kemuning","Alor Gajah","MLK"
"78000","Rumah Awam Lendu","Alor Gajah","MLK"
"78000","Rumah Awam Machap Umboo Permai","Alor Gajah","MLK"
"78000","Rumah Awam Melekek","Alor Gajah","MLK"
"78000","Rumah Awam Paya Datok","Alor Gajah","MLK"
"78000","Rumah Awam Rembia","Alor Gajah","MLK"
"78000","Rumah Awam Rumbia","Alor Gajah","MLK"
"78000","Rumah Awam Seri Pengkalan","Alor Gajah","MLK"
"78000","Rumah Awam Simpang Ampat","Alor Gajah","MLK"
"78000","Rumah Awam Sri Pengkalan","Alor Gajah","MLK"
"78000","Rumah Awam Sungai Petai","Alor Gajah","MLK"
"78000","Rumbia","Alor Gajah","MLK"
"78000","Seri Kelemak","Alor Gajah","MLK"
"78000","Seri Tanjong","Alor Gajah","MLK"
"78000","Simpang Ampat","Alor Gajah","MLK"
"78000","Simpang Gadek","Alor Gajah","MLK"
"78000","Simpang Kelemak","Alor Gajah","MLK"
"78000","Simpang Kendong","Alor Gajah","MLK"
"78000","Simpang Melaka Pindah","Alor Gajah","MLK"
"78000","Simpang Pengkalan","Alor Gajah","MLK"
"78000","Solok Air Tanai","Alor Gajah","MLK"
"78000","Solok Ayer Pinang","Alor Gajah","MLK"
"78000","Solok Gajah Mati","Alor Gajah","MLK"
"78000","Solok Kemus","Alor Gajah","MLK"
"78000","Solok Limau Purut","Alor Gajah","MLK"
"78000","Solok Mengawa (Pegoh)","Alor Gajah","MLK"
"78000","Solok Perling","Alor Gajah","MLK"
"78000","Solok Pinang Pegoh","Alor Gajah","MLK"
"78000","Solok Seberang Perai","Alor Gajah","MLK"
"78000","Solok Semelenggong","Alor Gajah","MLK"
"78000","Solok Semenggang","Alor Gajah","MLK"
"78000","Solok Senda","Alor Gajah","MLK"
"78000","Solok Tanah Liat","Alor Gajah","MLK"
"78000","Sungai Petai","Alor Gajah","MLK"
"78000","Taboh Naning New Village","Alor Gajah","MLK"
"78000","Taman Alor","Alor Gajah","MLK"
"78000","Taman Aman","Alor Gajah","MLK"
"78000","Taman Anggerik Utama","Alor Gajah","MLK"
"78000","Taman Bukit Emas","Alor Gajah","MLK"
"78000","Taman Bukit Nangka","Alor Gajah","MLK"
"78000","Taman Bukit Rumbia","Alor Gajah","MLK"
"78000","Taman Dimensi","Alor Gajah","MLK"
"78000","Taman Gadek Perdana","Alor Gajah","MLK"
"78000","Taman Gadek","Alor Gajah","MLK"
"78000","Taman IKS","Alor Gajah","MLK"
"78000","Taman Industri Perniagaan Melekek","Alor Gajah","MLK"
"78000","Taman Intekma","Alor Gajah","MLK"
"78000","Taman Jati Indah","Alor Gajah","MLK"
"78000","Taman Jati Lendu","Alor Gajah","MLK"
"78000","Taman Jaya","Alor Gajah","MLK"
"78000","Taman Kebaya","Alor Gajah","MLK"
"78000","Taman Kelemak Jaya","Alor Gajah","MLK"
"78000","Taman Kelemak Perdana","Alor Gajah","MLK"
"78000","Taman Koperasi Naning","Alor Gajah","MLK"
"78000","Taman Lendu Bakti","Alor Gajah","MLK"
"78000","Taman Lendu Baru","Alor Gajah","MLK"
"78000","Taman Maim","Alor Gajah","MLK"
"78000","Taman Markisah","Alor Gajah","MLK"
"78000","Taman Mawar Jaya","Alor Gajah","MLK"
"78000","Taman Melaka Perdana","Alor Gajah","MLK"
"78000","Taman Melaka Pindah","Alor Gajah","MLK"
"78000","Taman Melayu Permai","Alor Gajah","MLK"
"78000","Taman Melekek","Alor Gajah","MLK"
"78000","Taman Merak IKS Sungai Petai","Alor Gajah","MLK"
"78000","Taman Mewah","Alor Gajah","MLK"
"78000","Taman Mutiara","Alor Gajah","MLK"
"78000","Taman PKNM","Alor Gajah","MLK"
"78000","Taman Pelangi","Alor Gajah","MLK"
"78000","Taman Pengkalan Indah","Alor Gajah","MLK"
"78000","Taman Permai Rumbia","Alor Gajah","MLK"
"78000","Taman Permai","Alor Gajah","MLK"
"78000","Taman Perumahan PDRM (Polis)","Alor Gajah","MLK"
"78000","Taman Perumahan PDRM","Alor Gajah","MLK"
"78000","Taman Pisang Mas Jaya","Alor Gajah","MLK"
"78000","Taman Pisang Mas","Alor Gajah","MLK"
"78000","Taman Rancangan Bukit Bulat","Alor Gajah","MLK"
"78000","Taman Rembia Perkasa","Alor Gajah","MLK"
"78000","Taman Rembia Setia","Alor Gajah","MLK"
"78000","Taman Rembia Utama","Alor Gajah","MLK"
"78000","Taman Rumah Awam Biru","Alor Gajah","MLK"
"78000","Taman Rumbia Perkasa","Alor Gajah","MLK"
"78000","Taman Rumbia Utama","Alor Gajah","MLK"
"78000","Taman Rumbia","Alor Gajah","MLK"
"78000","Taman Saujana Height","Alor Gajah","MLK"
"78000","Taman Sebang Gemilang","Alor Gajah","MLK"
"78000","Taman Sebang Mutiara","Alor Gajah","MLK"
"78000","Taman Seri Bayu 1&2","Alor Gajah","MLK"
"78000","Taman Seri Bayu","Alor Gajah","MLK"
"78000","Taman Seri Naning","Alor Gajah","MLK"
"78000","Taman Seri Pelangi","Alor Gajah","MLK"
"78000","Taman Seri Sutera","Alor Gajah","MLK"
"78000","Taman Sri Kelemak","Alor Gajah","MLK"
"78000","Taman Sutera Indah","Alor Gajah","MLK"
"78000","Taman Sutera","Alor Gajah","MLK"
"78000","Tanah Rancangan Bukit Bulat","Alor Gajah","MLK"
"78000","Tanah Rancangan Hutan Percha","Alor Gajah","MLK"
"78000","Tanah Rancangan Menggong","Alor Gajah","MLK"
"78000","Teck Ping Chan","Alor Gajah","MLK"
"78000","Tiang Guan Estate","Alor Gajah","MLK"
"78000","UiTM Lendu","Alor Gajah","MLK"
"78000","Ulu Melaka Pindah","Alor Gajah","MLK"
"78000","Ulu Sungai Buloh","Alor Gajah","MLK"
"78000","Vinnyagar Estate","Alor Gajah","MLK"
"78009","Alor Gajah - Beg berkunci","Alor Gajah","MLK"
"78100","Berembang Jaya","Lubok China","MLK"
"78100","Berisu Tengah","Lubok China","MLK"
"78100","Jalan Batu Alang","Lubok China","MLK"
"78100","Jalan Bukit Pering","Lubok China","MLK"
"78100","Jalan Bukit Sendok","Lubok China","MLK"
"78100","Jalan Lubok Buntar","Lubok China","MLK"
"78100","Jalan Solok Gitam","Lubok China","MLK"
"78100","Kampung Baru Lubuk China","Lubok China","MLK"
"78100","Kampung Berisu","Lubok China","MLK"
"78100","Kampung Lubok Buntar","Lubok China","MLK"
"78100","Kampung Lubok China","Lubok China","MLK"
"78100","Kampung Pengkalan Paoh","Lubok China","MLK"
"78100","Kampung Pengkalan Pauh","Lubok China","MLK"
"78100","Kampung Ramuan China Kechil","Lubok China","MLK"
"78100","Kampung Seberang","Lubok China","MLK"
"78100","Kampung Serban Hijau","Lubok China","MLK"
"78100","Kampung Seri Marlow","Lubok China","MLK"
"78100","Kampung Seri Merlow","Lubok China","MLK"
"78100","Kampung Solok Limau Nipis","Lubok China","MLK"
"78100","Kampung Solok Minching","Lubok China","MLK"
"78100","Kampung Solok Uban","Lubok China","MLK"
"78100","Kampung Sungai Jerneh Ulu","Lubok China","MLK"
"78100","Kampung Sungai Jernih","Lubok China","MLK"
"78100","Kampung Sungai Siput (Lubuk China)","Lubok China","MLK"
"78100","Kampung Sungai Siput","Lubok China","MLK"
"78100","Kampung Telok Berembang","Lubok China","MLK"
"78100","Kampung Tengah (Berisu)","Lubok China","MLK"
"78100","Kampung Ulu Brisu","Lubok China","MLK"
"78100","Lubok China (Pekan)","Lubok China","MLK"
"78100","Rumah Awam Sungai Siput","Lubok China","MLK"
"78100","Serban Hijau","Lubok China","MLK"
"78100","Solok Miching","Lubok China","MLK"
"78100","Solok Minching","Lubok China","MLK"
"78100","Solok Semenggong","Lubok China","MLK"
"78100","Solok Serban Hijau","Lubok China","MLK"
"78100","Solok Tumpak","Lubok China","MLK"
"78100","Solok Uban Dekat","Lubok China","MLK"
"78100","Solok Uban Jauh","Lubok China","MLK"
"78100","Sungai Jerneh Ulu","Lubok China","MLK"
"78100","Sungai Siput Estate","Lubok China","MLK"
"78100","Taman Berembang Jaya","Lubok China","MLK"
"78100","Taman Setia Jaya","Lubok China","MLK"
"78100","Taman Wira Emas","Lubok China","MLK"
"78100","Taman Wira Indah","Lubok China","MLK"
"78200","Batu 28 Kampung Lapan (Permatang)","Kuala Sungai Baru","MLK"
"78200","Bukit Bunbun","Kuala Sungai Baru","MLK"
"78200","Jalan Air Molek","Kuala Sungai Baru","MLK"
"78200","Jalan Atas Masjid (Kuala Linggi)","Kuala Sungai Baru","MLK"
"78200","Jalan Balik Bukit (Kuala Linggi)","Kuala Sungai Baru","MLK"
"78200","Jalan Bilal Mohd","Kuala Sungai Baru","MLK"
"78200","Jalan Bukit Darat (Kuala Linggi)","Kuala Sungai Baru","MLK"
"78200","Jalan Bukit Darat","Kuala Sungai Baru","MLK"
"78200","Jalan Felcra","Kuala Sungai Baru","MLK"
"78200","Jalan Haji Baba","Kuala Sungai Baru","MLK"
"78200","Jalan Haji Mat Dali","Kuala Sungai Baru","MLK"
"78200","Jalan Katib Alwi (Kampung Tengah)","Kuala Sungai Baru","MLK"
"78200","Jalan Khatib Osman","Kuala Sungai Baru","MLK"
"78200","Jalan Kilang (Kuala Linggi)","Kuala Sungai Baru","MLK"
"78200","Jalan Kuala Idaman","Kuala Sungai Baru","MLK"
"78200","Jalan Labuh Kapal","Kuala Sungai Baru","MLK"
"78200","Jalan Melor","Kuala Sungai Baru","MLK"
"78200","Jalan Meriam Patah","Kuala Sungai Baru","MLK"
"78200","Jalan Parit Bakar (Kampung Tengah)","Kuala Sungai Baru","MLK"
"78200","Jalan Tanjung Agas (Kuala Linggi)","Kuala Sungai Baru","MLK"
"78200","Jalan Telok","Kuala Sungai Baru","MLK"
"78200","Jalan Tok Bongkok (Tanjung Dahan)","Kuala Sungai Baru","MLK"
"78200","Jalan Tok Enteh (Tanjung Dahan)","Kuala Sungai Baru","MLK"
"78200","Kampung 'Keramat Leban","Kuala Sungai Baru","MLK"
"78200","Kampung Ayer Molek","Kuala Sungai Baru","MLK"
"78200","Kampung Baru Kuala Sungai Baru","Kuala Sungai Baru","MLK"
"78200","Kampung Bukit Beruang","Kuala Sungai Baru","MLK"
"78200","Kampung Bukit Darat","Kuala Sungai Baru","MLK"
"78200","Kampung Bukit Supai","Kuala Sungai Baru","MLK"
"78200","Kampung Guan","Kuala Sungai Baru","MLK"
"78200","Kampung Hilir","Kuala Sungai Baru","MLK"
"78200","Kampung Kuala Linggi","Kuala Sungai Baru","MLK"
"78200","Kampung Kuala","Kuala Sungai Baru","MLK"
"78200","Kampung Ladang","Kuala Sungai Baru","MLK"
"78200","Kampung Man Lok","Kuala Sungai Baru","MLK"
"78200","Kampung Nelayan","Kuala Sungai Baru","MLK"
"78200","Kampung Permatang Hilir","Kuala Sungai Baru","MLK"
"78200","Kampung Permatang Tengah","Kuala Sungai Baru","MLK"
"78200","Kampung Permatang","Kuala Sungai Baru","MLK"
"78200","Kampung Tanjong Dahan","Kuala Sungai Baru","MLK"
"78200","Kampung Tanjong Serai","Kuala Sungai Baru","MLK"
"78200","Kampung Telok Gong","Kuala Sungai Baru","MLK"
"78200","Kampung Telok Perun","Kuala Sungai Baru","MLK"
"78200","Kampung Teluk Belanga","Kuala Sungai Baru","MLK"
"78200","Kampung Tengah","Kuala Sungai Baru","MLK"
"78200","Keramat Leban","Kuala Sungai Baru","MLK"
"78200","Kuala Linggi","Kuala Sungai Baru","MLK"
"78200","Kuala Sungai Baru","Kuala Sungai Baru","MLK"
"78200","Lorong Haji Zainal","Kuala Sungai Baru","MLK"
"78200","Lorong Hitam Pajar","Kuala Sungai Baru","MLK"
"78200","Pekan Kuala Sungai Baru","Kuala Sungai Baru","MLK"
"78200","Pelabuhan Kuala Linggi","Kuala Sungai Baru","MLK"
"78200","Rebana Jernih","Kuala Sungai Baru","MLK"
"78200","Rumah Awam Tanjung Dahan Fasa 2","Kuala Sungai Baru","MLK"
"78200","Taman Kampung Ria","Kuala Sungai Baru","MLK"
"78200","Taman Kuala Damai","Kuala Sungai Baru","MLK"
"78200","Taman Kuala Idaman","Kuala Sungai Baru","MLK"
"78200","Taman Kuala Indah","Kuala Sungai Baru","MLK"
"78200","Taman Kuala Jaya","Kuala Sungai Baru","MLK"
"78200","Taman Kuala Permai","Kuala Sungai Baru","MLK"
"78200","Taman Melor","Kuala Sungai Baru","MLK"
"78200","Taman Rebana Jernih","Kuala Sungai Baru","MLK"
"78200","Taman Sri Kuala","Kuala Sungai Baru","MLK"
"78200","Teluk Belanga","Kuala Sungai Baru","MLK"
"78300","Ayer Hitam Hulu","Masjid Tanah","MLK"
"78300","Ayer Hitam Pantai","Masjid Tanah","MLK"
"78300","Ayer Hitam Tengah","Masjid Tanah","MLK"
"78300","Ayer Punggai","Masjid Tanah","MLK"
"78300","Balik Batu","Masjid Tanah","MLK"
"78300","Felcra Ramuan China Kechil","Masjid Tanah","MLK"
"78300","Felcra Ramuan China","Masjid Tanah","MLK"
"78300","Hong Teng Estate","Masjid Tanah","MLK"
"78300","Institut Kemahiran Belia Negara","Masjid Tanah","MLK"
"78300","Jalan Pulau Semut","Masjid Tanah","MLK"
"78300","Jalan Ahmad Teriang","Masjid Tanah","MLK"
"78300","Jalan Air Langsat","Masjid Tanah","MLK"
"78300","Jalan Ampang Batu","Masjid Tanah","MLK"
"78300","Jalan Ayer Limau","Masjid Tanah","MLK"
"78300","Jalan Ayer Selamah","Masjid Tanah","MLK"
"78300","Jalan Bakti","Masjid Tanah","MLK"
"78300","Jalan Balik Batu","Masjid Tanah","MLK"
"78300","Jalan Balik Hutan","Masjid Tanah","MLK"
"78300","Jalan Bandar Baru","Masjid Tanah","MLK"
"78300","Jalan Batu Putih (1 & 2)","Masjid Tanah","MLK"
"78300","Jalan Berisu","Masjid Tanah","MLK"
"78300","Jalan Bilal Mamat","Masjid Tanah","MLK"
"78300","Jalan Bukit Kepong","Masjid Tanah","MLK"
"78300","Jalan Bukit Tinggi 1","Masjid Tanah","MLK"
"78300","Jalan Bukit Tinggi 2","Masjid Tanah","MLK"
"78300","Jalan Bunga Melor","Masjid Tanah","MLK"
"78300","Jalan Bunga Tanjung","Masjid Tanah","MLK"
"78300","Jalan Damai","Masjid Tanah","MLK"
"78300","Jalan Dato Nelo","Masjid Tanah","MLK"
"78300","Jalan Deli Awal","Masjid Tanah","MLK"
"78300","Jalan Desa Permai","Masjid Tanah","MLK"
"78300","Jalan Dol Hadi","Masjid Tanah","MLK"
"78300","Jalan Durian Daun","Masjid Tanah","MLK"
"78300","Jalan Fatimah Arip","Masjid Tanah","MLK"
"78300","Jalan Haji Ali","Masjid Tanah","MLK"
"78300","Jalan Haji Hassan","Masjid Tanah","MLK"
"78300","Jalan Haji Omar","Masjid Tanah","MLK"
"78300","Jalan Hamid Osman","Masjid Tanah","MLK"
"78300","Jalan Hujan Panas","Masjid Tanah","MLK"
"78300","Jalan Imam Haji Kamarudin","Masjid Tanah","MLK"
"78300","Jalan Imam Sohor","Masjid Tanah","MLK"
"78300","Jalan Khairat","Masjid Tanah","MLK"
"78300","Jalan Lebai Budin","Masjid Tanah","MLK"
"78300","Jalan Maasim","Masjid Tanah","MLK"
"78300","Jalan Pawang Tahir","Masjid Tanah","MLK"
"78300","Jalan Paya Keladi","Masjid Tanah","MLK"
"78300","Jalan Paya Meranti","Masjid Tanah","MLK"
"78300","Jalan Penghulu Arif","Masjid Tanah","MLK"
"78300","Jalan Penghulu Manas","Masjid Tanah","MLK"
"78300","Jalan Penghulu Said","Masjid Tanah","MLK"
"78300","Jalan Pokok Tanjung","Masjid Tanah","MLK"
"78300","Jalan Seberang Perai","Masjid Tanah","MLK"
"78300","Jalan Sekolah Ghafar Baba","Masjid Tanah","MLK"
"78300","Jalan Sekolah Lama","Masjid Tanah","MLK"
"78300","Jalan Sekolah Sri Laksamana","Masjid Tanah","MLK"
"78300","Jalan Sekolah Thamby Chik Karim","Masjid Tanah","MLK"
"78300","Jalan Sentosa","Masjid Tanah","MLK"
"78300","Jalan Setulang Daing","Masjid Tanah","MLK"
"78300","Jalan Sidang Mat Karim Ani","Masjid Tanah","MLK"
"78300","Jalan Sidang Mat Karim","Masjid Tanah","MLK"
"78300","Jalan Sidang Othman","Masjid Tanah","MLK"
"78300","Jalan Simat","Masjid Tanah","MLK"
"78300","Jalan Solok Air Batu","Masjid Tanah","MLK"
"78300","Jalan Solok Ayer Punggai","Masjid Tanah","MLK"
"78300","Jalan Solok Chambang","Masjid Tanah","MLK"
"78300","Jalan Solok Chuah","Masjid Tanah","MLK"
"78300","Jalan Solok Imam Tahir","Masjid Tanah","MLK"
"78300","Jalan Solok Kilang","Masjid Tanah","MLK"
"78300","Jalan Solok Tok Budi","Masjid Tanah","MLK"
"78300","Jalan Sri Tanjong","Masjid Tanah","MLK"
"78300","Jalan Sri Terubok","Masjid Tanah","MLK"
"78300","Jalan Talib Wahid","Masjid Tanah","MLK"
"78300","Jalan Talip Hassan","Masjid Tanah","MLK"
"78300","Jalan Thamby Chik Karim","Masjid Tanah","MLK"
"78300","Jalan Tok Talib","Masjid Tanah","MLK"
"78300","Jalan Tulang Daing","Masjid Tanah","MLK"
"78300","Jalan Ulu Rantau","Masjid Tanah","MLK"
"78300","Jalan Wakaf Baru","Masjid Tanah","MLK"
"78300","Jalan Wakaf Lama","Masjid Tanah","MLK"
"78300","Jalan Wira","Masjid Tanah","MLK"
"78300","Kampung Ayer Limau Nipis","Masjid Tanah","MLK"
"78300","Kampung Ayer Limau","Masjid Tanah","MLK"
"78300","Kampung Baru Ayer Limau","Masjid Tanah","MLK"
"78300","Kampung Bukit Apit","Masjid Tanah","MLK"
"78300","Kampung Bukit Beringin","Masjid Tanah","MLK"
"78300","Kampung Durian Daun","Masjid Tanah","MLK"
"78300","Kampung Hailam","Masjid Tanah","MLK"
"78300","Kampung Jeram","Masjid Tanah","MLK"
"78300","Kampung Lekok","Masjid Tanah","MLK"
"78300","Kampung Londang","Masjid Tanah","MLK"
"78300","Kampung Lorong Haji Karim","Masjid Tanah","MLK"
"78300","Kampung Lubok Redan","Masjid Tanah","MLK"
"78300","Kampung Masjid Tengah","Masjid Tanah","MLK"
"78300","Kampung Padang Dekat","Masjid Tanah","MLK"
"78300","Kampung Padang Kemunting","Masjid Tanah","MLK"
"78300","Kampung Pasir Gembor","Masjid Tanah","MLK"
"78300","Kampung Paya Keladi","Masjid Tanah","MLK"
"78300","Kampung Paya Lebar","Masjid Tanah","MLK"
"78300","Kampung Paya Mengkuang","Masjid Tanah","MLK"
"78300","Kampung Paya Rumput Batu 19","Masjid Tanah","MLK"
"78300","Kampung Paya Rumput","Masjid Tanah","MLK"
"78300","Kampung Pengkalan Balak","Masjid Tanah","MLK"
"78300","Kampung Pinang","Masjid Tanah","MLK"
"78300","Kampung Pulau Semut","Masjid Tanah","MLK"
"78300","Kampung Pulau","Masjid Tanah","MLK"
"78300","Kampung Ramuan China Besar","Masjid Tanah","MLK"
"78300","Kampung Rantau Panjang","Masjid Tanah","MLK"
"78300","Kampung Seberang","Masjid Tanah","MLK"
"78300","Kampung Seri Jeram","Masjid Tanah","MLK"
"78300","Kampung Seri Tanjong","Masjid Tanah","MLK"
"78300","Kampung Simpang Empat","Masjid Tanah","MLK"
"78300","Kampung Solok Ayer Limau Nipis","Masjid Tanah","MLK"
"78300","Kampung Solok Ayer Limau","Masjid Tanah","MLK"
"78300","Kampung Solok Duku","Masjid Tanah","MLK"
"78300","Kampung Solok Jauh","Masjid Tanah","MLK"
"78300","Kampung Solok Ketong","Masjid Tanah","MLK"
"78300","Kampung Solok Pak Rimau","Masjid Tanah","MLK"
"78300","Kampung Solok Pauh","Masjid Tanah","MLK"
"78300","Kampung Solok Rimau","Masjid Tanah","MLK"
"78300","Kampung Sri Jeram","Masjid Tanah","MLK"
"78300","Kampung Sungai Kertah","Masjid Tanah","MLK"
"78300","Kampung Sungai Tuang","Masjid Tanah","MLK"
"78300","Kampung Tahir Kaya","Masjid Tanah","MLK"
"78300","Kampung Tanjong Bidara","Masjid Tanah","MLK"
"78300","Kampung Ujong Padang","Masjid Tanah","MLK"
"78300","Kawasan Perindustrian Pengkalan Balak","Masjid Tanah","MLK"
"78300","Ladang Lian Heo","Masjid Tanah","MLK"
"78300","Lorong Haji Bidin","Masjid Tanah","MLK"
"78300","Lorong Haji Dol","Masjid Tanah","MLK"
"78300","Lorong Haji Haron","Masjid Tanah","MLK"
"78300","Lorong Haji Karim","Masjid Tanah","MLK"
"78300","Lorong Haji Kechut","Masjid Tanah","MLK"
"78300","Lorong Haji Md Din","Masjid Tanah","MLK"
"78300","Lorong Haji Omar","Masjid Tanah","MLK"
"78300","Lorong Haji Shamsudin","Masjid Tanah","MLK"
"78300","Lorong Imam Mamat","Masjid Tanah","MLK"
"78300","Lorong Kadi Haji Mahadi","Masjid Tanah","MLK"
"78300","Masjid Tanah","Masjid Tanah","MLK"
"78300","Padang Kemunting","Masjid Tanah","MLK"
"78300","Pekan Masjid Tanah","Masjid Tanah","MLK"
"78300","Pengkalan Balak","Masjid Tanah","MLK"
"78300","PerKampungan Baru Air Hitam Darat","Masjid Tanah","MLK"
"78300","Permatang Hilir","Masjid Tanah","MLK"
"78300","Permatang Tengah","Masjid Tanah","MLK"
"78300","Ramuan China Besar","Masjid Tanah","MLK"
"78300","Rantau Panjang","Masjid Tanah","MLK"
"78300","Rumah Awam Bukit Beringin","Masjid Tanah","MLK"
"78300","Rumah Awam Lubok Redan","Masjid Tanah","MLK"
"78300","Rumah Awam Paya Redan","Masjid Tanah","MLK"
"78300","Rumah Awam Paya Rumput","Masjid Tanah","MLK"
"78300","Rumah Awam Tanjung Bidara","Masjid Tanah","MLK"
"78300","Solok Ayer Limau Nipis","Masjid Tanah","MLK"
"78300","Solok Imam Kasim","Masjid Tanah","MLK"
"78300","Solok Imam Tahir","Masjid Tanah","MLK"
"78300","Solok Jeram","Masjid Tanah","MLK"
"78300","Solok Katib Budin","Masjid Tanah","MLK"
"78300","Solok Mangga","Masjid Tanah","MLK"
"78300","Solok Paya Lebar 11","Masjid Tanah","MLK"
"78300","Solok Paya Lebar Satu","Masjid Tanah","MLK"
"78300","Solok Paya Rumput","Masjid Tanah","MLK"
"78300","Solok Terubok","Masjid Tanah","MLK"
"78300","Solok Tok Budi","Masjid Tanah","MLK"
"78300","Solok Tulang Daing","Masjid Tanah","MLK"
"78300","Sungai Baru Estate","Masjid Tanah","MLK"
"78300","Taman Alias","Masjid Tanah","MLK"
"78300","Taman Angklong","Masjid Tanah","MLK"
"78300","Taman Bandar Baru","Masjid Tanah","MLK"
"78300","Taman Bidara Indah","Masjid Tanah","MLK"
"78300","Taman Bidara Jaya","Masjid Tanah","MLK"
"78300","Taman Bidara Mekar","Masjid Tanah","MLK"
"78300","Taman Bidara Palma","Masjid Tanah","MLK"
"78300","Taman Bidara Permai","Masjid Tanah","MLK"
"78300","Taman Bukit Indah","Masjid Tanah","MLK"
"78300","Taman Cahaya Mas","Masjid Tanah","MLK"
"78300","Taman Damai","Masjid Tanah","MLK"
"78300","Taman Dato Setia","Masjid Tanah","MLK"
"78300","Taman Dato Thamby Chik Karim","Masjid Tanah","MLK"
"78300","Taman Desa Bayu 1 & 2","Masjid Tanah","MLK"
"78300","Taman Harmoni","Masjid Tanah","MLK"
"78300","Taman Idaman Jaya","Masjid Tanah","MLK"
"78300","Taman Kampung Ria","Masjid Tanah","MLK"
"78300","Taman Kuala Idaman","Masjid Tanah","MLK"
"78300","Taman Maju Jaya","Masjid Tanah","MLK"
"78300","Taman Makmur","Masjid Tanah","MLK"
"78300","Taman Masjid Tanah Ria","Masjid Tanah","MLK"
"78300","Taman Masjid Tanah","Masjid Tanah","MLK"
"78300","Taman Paya Mengkuang","Masjid Tanah","MLK"
"78300","Taman Paya Rumput","Masjid Tanah","MLK"
"78300","Taman Pengkalan Balak","Masjid Tanah","MLK"
"78300","Taman Permai","Masjid Tanah","MLK"
"78300","Taman Rebana Jernih","Masjid Tanah","MLK"
"78300","Taman Seri Bidara","Masjid Tanah","MLK"
"78300","Taman Seri Naga","Masjid Tanah","MLK"
"78300","Taman Seri Permata","Masjid Tanah","MLK"
"78300","Taman Seri Redan","Masjid Tanah","MLK"
"78300","Taman Sri Aman","Masjid Tanah","MLK"
"78300","Taman Sungai Baru Indah","Masjid Tanah","MLK"
"78300","Taman Sungai Baru","Masjid Tanah","MLK"
"78300","Tanjung Bidara Beach Resort","Masjid Tanah","MLK"
"78300","Tanjung Bidara","Masjid Tanah","MLK"
"78300","UMR Estate","Masjid Tanah","MLK"
"78300","Wakaf Baru","Masjid Tanah","MLK"
"78307","Masjid Tanah - Peti Surat","Masjid Tanah","MLK"
"78309","Masjid Tanah - Beg berkunci","Masjid Tanah","MLK"