"POSTCODE","ADDRESS","CITY","STATE"
"25000","Bangunan LKNP","Kuantan","PHG"
"25000","Biro Tata Negara Pahang","Kuantan","PHG"
"25000","Jabatan Bekalan Elektrik","Kuantan","PHG"
"25000","Jalan Bank","Kuantan","PHG"
"25000","Jalan Besar","Kuantan","PHG"
"25000","Jalan Gambut","Kuantan","PHG"
"25000","Jalan Haji Abd Aziz","Kuantan","PHG"
"25000","Jalan Haji Abd Rahman","Kuantan","PHG"
"25000","Jalan Lebai Ali","Kuantan","PHG"
"25000","Jalan Mahkota","Kuantan","PHG"
"25000","Jalan Masjid","Kuantan","PHG"
"25000","Jalan Pasar Baru","Kuantan","PHG"
"25000","Jalan Pasar Besar","Kuantan","PHG"
"25000","Jalan Pasar","Kuantan","PHG"
"25000","Jalan Stadium Darul Makmur","Kuantan","PHG"
"25000","Jalan Teluk Sisek","Kuantan","PHG"
"25000","Jalan Teruntum","Kuantan","PHG"
"25000","Jalan Tun Ismail 1","Kuantan","PHG"
"25000","Jalan Tun Ismail","Kuantan","PHG"
"25000","Kompleks Teruntum","Kuantan","PHG"
"25000","Lembaga Kemajuan Perusahaan Pertanian","Kuantan","PHG"
"25000","Lembaga Pelesenan Kelapa Sawit","Kuantan","PHG"
"25000","Lembaga Pertubuhan Peladang","Kuantan","PHG"
"25000","Lembaga Tabung Haji","Kuantan","PHG"
"25000","Lorong Haji Abdul Rahman 1","Kuantan","PHG"
"25000","Lorong Pasar Baru","Kuantan","PHG"
"25000","Lorong Tun Ismail (1 - 5)","Kuantan","PHG"
"25000","Lorong Tun Ismail 2","Kuantan","PHG"
"25000","Mahkota Parade","Kuantan","PHG"
"25000","Medan Pelancongan","Kuantan","PHG"
"25000","Pejabat Daerah Kuantan","Kuantan","PHG"
"25000","Pejabat MIDA Negeri","Kuantan","PHG"
"25000","Pusat Khidmat Kontraktor","Kuantan","PHG"
"25000","Telok Sisek","Kuantan","PHG"
"25000","Teluk Sisek Pendek","Kuantan","PHG"
"25000","Wisma Persekutuan","Kuantan","PHG"
"25050","Istana Hinggap","Kuantan","PHG"
"25050","Jalan Abu Samah","Kuantan","PHG"
"25050","Jalan Che Timah","Kuantan","PHG"
"25050","Jalan Club Golf Teruntum","Kuantan","PHG"
"25050","Jalan Dato Abdullah","Kuantan","PHG"
"25050","Jalan Dato Bahaman","Kuantan","PHG"
"25050","Jalan Dato Haji Abu Bakar","Kuantan","PHG"
"25050","Jalan Haji Abu Bakar","Kuantan","PHG"
"25050","Jalan Kampung Tanjung Api","Kuantan","PHG"
"25050","Jalan Merbok","Kuantan","PHG"
"25050","Jalan Padang Golf","Kuantan","PHG"
"25050","Jalan Padang Lalang","Kuantan","PHG"
"25050","Jalan Taman Tok Sira","Kuantan","PHG"
"25050","Jalan Tanjong Api","Kuantan","PHG"
"25050","Jalan Teluk Chempedak","Kuantan","PHG"
"25050","Jalan Teluk Sisek","Kuantan","PHG"
"25050","Jalan Tengku Muhamad","Kuantan","PHG"
"25050","Jalan Tok Sira","Kuantan","PHG"
"25050","Kampung Galing Kechil","Kuantan","PHG"
"25050","Kampung Jalan Telok Sisek","Kuantan","PHG"
"25050","Kampung Jalan Teluk Sisek","Kuantan","PHG"
"25050","Kampung Kubang Buaya","Kuantan","PHG"
"25050","Kampung Kubor Tok Keramat","Kuantan","PHG"
"25050","Kampung Selamat","Kuantan","PHG"
"25050","Kampung Tanjong Api","Kuantan","PHG"
"25050","Kingdom Park","Kuantan","PHG"
"25050","Lorong Alor Akar","Kuantan","PHG"
"25050","Lorong Alur Akar 6","Kuantan","PHG"
"25050","Lorong Kubang Buaya 61","Kuantan","PHG"
"25050","Lorong Kubang Buaya","Kuantan","PHG"
"25050","Lorong Padang Lalang","Kuantan","PHG"
"25050","Lorong Pelindung 101","Kuantan","PHG"
"25050","Lorong Pelindung 50","Kuantan","PHG"
"25050","Lorong Pelindung 54","Kuantan","PHG"
"25050","Lorong Pelindung 76","Kuantan","PHG"
"25050","Lorong Selamat 40","Kuantan","PHG"
"25050","Lorong Tanjong Api","Kuantan","PHG"
"25050","Lorong Tok Sira 10","Kuantan","PHG"
"25050","Lorong Tok Sira 6","Kuantan","PHG"
"25050","Lorong Tok Sira 70","Kuantan","PHG"
"25050","Medan Tok Sera","Kuantan","PHG"
"25050","Padang Lalang","Kuantan","PHG"
"25050","Perkampungan Pelindung","Kuantan","PHG"
"25050","Perkampungan Selamat","Kuantan","PHG"
"25050","Perkampungan Tok Sira","Kuantan","PHG"
"25050","Taman Bakti","Kuantan","PHG"
"25050","Taman Bukit Perlindung (1 & 2)","Kuantan","PHG"
"25050","Taman Cempedak","Kuantan","PHG"
"25050","Taman Coorperative","Kuantan","PHG"
"25050","Taman Datin Maharum","Kuantan","PHG"
"25050","Taman Galing Kecil","Kuantan","PHG"
"25050","Taman Gelora","Kuantan","PHG"
"25050","Taman Jaya","Kuantan","PHG"
"25050","Taman Kasturi","Kuantan","PHG"
"25050","Taman Kerjasama","Kuantan","PHG"
"25050","Taman Kingdom","Kuantan","PHG"
"25050","Taman Koperatif","Kuantan","PHG"
"25050","Taman LKNP Baru","Kuantan","PHG"
"25050","Taman LKNP Medan Tok Sera","Kuantan","PHG"
"25050","Taman LKNP Peringkat 1","Kuantan","PHG"
"25050","Taman LKNP Peringkat 2","Kuantan","PHG"
"25050","Taman Lorong Kijang","Kuantan","PHG"
"25050","Taman Makmor","Kuantan","PHG"
"25050","Taman Medan Tok Sira","Kuantan","PHG"
"25050","Taman Melodies","Kuantan","PHG"
"25050","Taman Melody","Kuantan","PHG"
"25050","Taman Melor","Kuantan","PHG"
"25050","Taman Merbok","Kuantan","PHG"
"25050","Taman Merdeka","Kuantan","PHG"
"25050","Taman Pantai Cempedak","Kuantan","PHG"
"25050","Taman Pelindong","Kuantan","PHG"
"25050","Taman Selamat Baru","Kuantan","PHG"
"25050","Taman Selamat","Kuantan","PHG"
"25050","Taman Seroja","Kuantan","PHG"
"25050","Taman Tanjong Api","Kuantan","PHG"
"25050","Taman Taz","Kuantan","PHG"
"25050","Taman Teberau","Kuantan","PHG"
"25050","Taman Teluk Cempedak","Kuantan","PHG"
"25050","Taman Teluk Sisek","Kuantan","PHG"
"25050","Taman Tengku Mahmud","Kuantan","PHG"
"25050","Taman Tengku Mohamad","Kuantan","PHG"
"25050","Taman Teratai","Kuantan","PHG"
"25050","Taman Timur Jaya","Kuantan","PHG"
"25050","Taman Tok Sira","Kuantan","PHG"
"25050","Tanjung Api","Kuantan","PHG"
"25050","Teluk Cempedak","Kuantan","PHG"
"25100","Fountain Park","Kuantan","PHG"
"25100","Jalan Bayam","Kuantan","PHG"
"25100","Jalan Bintang","Kuantan","PHG"
"25100","Jalan Cempaka","Kuantan","PHG"
"25100","Jalan Cemperai","Kuantan","PHG"
"25100","Jalan Darat Makbar","Kuantan","PHG"
"25100","Jalan Dato Wong Ah Jang","Kuantan","PHG"
"25100","Jalan Hospital","Kuantan","PHG"
"25100","Jalan Kampung Tengah","Kuantan","PHG"
"25100","Jalan Kemunting","Kuantan","PHG"
"25100","Jalan Mat Kilau","Kuantan","PHG"
"25100","Jalan Penjara","Kuantan","PHG"
"25100","Jalan Perisai","Kuantan","PHG"
"25100","Jalan Sentol (Tanah Puteh)","Kuantan","PHG"
"25100","Jalan Sri Teruntum","Kuantan","PHG"
"25100","Jalan Taman Tengah","Kuantan","PHG"
"25100","Jalan Tanah Puteh","Kuantan","PHG"
"25100","Jalan Tanah Putih Lama","Kuantan","PHG"
"25100","Jalan Terkukur","Kuantan","PHG"
"25100","Jalan Wong Ah Jang","Kuantan","PHG"
"25100","Kampung Baru, Kuantan","Kuantan","PHG"
"25100","Kampung Darat Makbar","Kuantan","PHG"
"25100","Kampung Darat Tanah Puteh","Kuantan","PHG"
"25100","Kampung Melayu","Kuantan","PHG"
"25100","Kampung Setinggan Tanah Putih","Kuantan","PHG"
"25100","Kampung Tanah Puteh Lama","Kuantan","PHG"
"25100","Kampung Tanah Puteh","Kuantan","PHG"
"25100","Kampung Tengah","Kuantan","PHG"
"25100","Kompleks Medan Warisan","Kuantan","PHG"
"25100","Kompleks PeriKanan","Kuantan","PHG"
"25100","Lembaga Penduduk Negara (LPPKN)","Kuantan","PHG"
"25100","Lorong Cemperai","Kuantan","PHG"
"25100","Lorong Kemunting","Kuantan","PHG"
"25100","Lorong Mat Kilau 21","Kuantan","PHG"
"25100","Lorong Mat Kilau","Kuantan","PHG"
"25100","Lorong Rusa","Kuantan","PHG"
"25100","Lorong Seri Teruntum 125","Kuantan","PHG"
"25100","Lorong Seri Teruntum 18","Kuantan","PHG"
"25100","Lorong Seri Teruntum 32","Kuantan","PHG"
"25100","Lorong Seri Teruntum","Kuantan","PHG"
"25100","Lorong Sri Teruntum 37","Kuantan","PHG"
"25100","Medan Warisan","Kuantan","PHG"
"25100","Perkampungan Seri Teruntum","Kuantan","PHG"
"25100","Rumah Pangsa Permai","Kuantan","PHG"
"25100","Taman Bintang","Kuantan","PHG"
"25100","Taman Golden City","Kuantan","PHG"
"25100","Taman Jade","Kuantan","PHG"
"25100","Taman Jasmin","Kuantan","PHG"
"25100","Taman Lee Town Apartment","Kuantan","PHG"
"25100","Taman Lion","Kuantan","PHG"
"25100","Taman Mahsuri","Kuantan","PHG"
"25100","Taman Mat Kilau","Kuantan","PHG"
"25100","Taman Mega View","Kuantan","PHG"
"25100","Taman Melor Desa","Kuantan","PHG"
"25100","Taman Muhibah","Kuantan","PHG"
"25100","Taman Murni","Kuantan","PHG"
"25100","Taman Pangsa Puri Permai","Kuantan","PHG"
"25100","Taman Pelangi","Kuantan","PHG"
"25100","Taman Raya","Kuantan","PHG"
"25100","Taman Seri Teruntum","Kuantan","PHG"
"25100","Taman Tanah Puteh","Kuantan","PHG"
"25100","Taman Tas Putera","Kuantan","PHG"
"25100","Taman Tengah","Kuantan","PHG"
"25100","Taman Yau","Kuantan","PHG"
"25100","Taman Zurina","Kuantan","PHG"
"25150","Batu 8, Jalan Pekan","Kuantan","PHG"
"25150","Batu 9 Jalan Gambang","Kuantan","PHG"
"25150","Jalan Damai","Kuantan","PHG"
"25150","Jalan Gambang","Kuantan","PHG"
"25150","Jalan Industri Tanah putih baru","Kuantan","PHG"
"25150","Jalan Isap Perdana","Kuantan","PHG"
"25150","Jalan Karyawan","Kuantan","PHG"
"25150","Jalan Kuantan - Gambang","Kuantan","PHG"
"25150","Jalan Kuantan - Pekan (Km 9 - 16)","Kuantan","PHG"
"25150","Jalan Lebuhraya","Kuantan","PHG"
"25150","Jalan Permatang Badak Aman 1","Kuantan","PHG"
"25150","Jalan Permatang Badak Perdana 4","Kuantan","PHG"
"25150","Jalan Permatang Badak","Kuantan","PHG"
"25150","Jalan Rasau Aman 1","Kuantan","PHG"
"25150","Jalan Seri Damai Perdana 2","Kuantan","PHG"
"25150","Jalan Sri Inderapura","Kuantan","PHG"
"25150","Jalan Sungai Isap jaya","Kuantan","PHG"
"25150","Jalan Tas","Kuantan","PHG"
"25150","Jalan Tok Mat","Kuantan","PHG"
"25150","Kampung Air Itam","Kuantan","PHG"
"25150","Kampung Baru Chendering","Kuantan","PHG"
"25150","Kampung Baru Dalam","Kuantan","PHG"
"25150","Kampung Baru MPK","Kuantan","PHG"
"25150","Kampung Baru Permatang Badak","Kuantan","PHG"
"25150","Kampung Baru Seri Melati","Kuantan","PHG"
"25150","Kampung Baru Yahya Seh (Batu 6)","Kuantan","PHG"
"25150","Kampung Batu 3 - 7 (Jalan Gambang)","Kuantan","PHG"
"25150","Kampung Belukar","Kuantan","PHG"
"25150","Kampung Bukit Rangin","Kuantan","PHG"
"25150","Kampung Cendering","Kuantan","PHG"
"25150","Kampung Desa Mesra (Jalan Gambang)","Kuantan","PHG"
"25150","Kampung Gudang Rasau","Kuantan","PHG"
"25150","Kampung Haji Ali","Kuantan","PHG"
"25150","Kampung Kurnia","Kuantan","PHG"
"25150","Kampung Lubok Puyu","Kuantan","PHG"
"25150","Kampung Melati (Jalan Gambang)","Kuantan","PHG"
"25150","Kampung Permatang Badak","Kuantan","PHG"
"25150","Kampung Razali","Kuantan","PHG"
"25150","Kampung SC","Kuantan","PHG"
"25150","Kampung Sungai Belat","Kuantan","PHG"
"25150","Kampung Sungai Isap","Kuantan","PHG"
"25150","Kampung Telaga Pasu","Kuantan","PHG"
"25150","Kampung Telok Mahang","Kuantan","PHG"
"25150","Lorong BKP 3","Kuantan","PHG"
"25150","Lorong Bakti Batu 5","Kuantan","PHG"
"25150","Lorong Belukar Maju","Kuantan","PHG"
"25150","Lorong Budiman","Kuantan","PHG"
"25150","Lorong Bukit Rangin","Kuantan","PHG"
"25150","Lorong Bunut Rendang Jaya 1","Kuantan","PHG"
"25150","Lorong Guang Rasau 57","Kuantan","PHG"
"25150","Lorong Indera Sempurna 89","Kuantan","PHG"
"25150","Lorong Industri Tanah Puteh Baru 5","Kuantan","PHG"
"25150","Lorong Industri Tanah Putih Baru 15","Kuantan","PHG"
"25150","Lorong Isap Murni","Kuantan","PHG"
"25150","Lorong KM","Kuantan","PHG"
"25150","Lorong Karyawan 34","Kuantan","PHG"
"25150","Lorong Kenanga","Kuantan","PHG"
"25150","Lorong Kurnia Jaya 4","Kuantan","PHG"
"25150","Lorong Lengkok Kanan","Kuantan","PHG"
"25150","Lorong Lengkok Kiri","Kuantan","PHG"
"25150","Lorong Pandan Damai 1/18","Kuantan","PHG"
"25150","Lorong Pandan Damai 2/201","Kuantan","PHG"
"25150","Lorong Pandan Damai 2/211","Kuantan","PHG"
"25150","Lorong Pandan Damai 2/212","Kuantan","PHG"
"25150","Lorong Pandan Perdana","Kuantan","PHG"
"25150","Lorong Permatang Badak Aman 26","Kuantan","PHG"
"25150","Lorong Permatang Badak Aman 28","Kuantan","PHG"
"25150","Lorong Permatang Badak Damai 5","Kuantan","PHG"
"25150","Lorong Permatang Badak Damai","Kuantan","PHG"
"25150","Lorong Permatang Badak Jaya","Kuantan","PHG"
"25150","Lorong Permatang Badak Makmur 24","Kuantan","PHG"
"25150","Lorong Permatang Badak Perdana","Kuantan","PHG"
"25150","Lorong Rasau Aman 2","Kuantan","PHG"
"25150","Lorong Rasau Perdana","Kuantan","PHG"
"25150","Lorong Rasau Permata","Kuantan","PHG"
"25150","Lorong Seri Damai Aman 52","Kuantan","PHG"
"25150","Lorong Seri Damai Perdana 1","Kuantan","PHG"
"25150","Lorong Sri Inderapura","Kuantan","PHG"
"25150","Lorong Sungai Isap Damai","Kuantan","PHG"
"25150","Lorong Sungai Isap Jaya","Kuantan","PHG"
"25150","Lorong Sungai Isap Perdana","Kuantan","PHG"
"25150","Lorong Tas Ria 38","Kuantan","PHG"
"25150","Lorong Tas Ria","Kuantan","PHG"
"25150","Maktab Sains Mara","Kuantan","PHG"
"25150","Paya Besar (Jalan Gambang)","Kuantan","PHG"
"25150","Perkampungan Bunut Rendang Jaya","Kuantan","PHG"
"25150","Perkampungan Gudang Rasau","Kuantan","PHG"
"25150","Perkampungan Indera Sempurna","Kuantan","PHG"
"25150","Perkampungan Pandan Damai","Kuantan","PHG"
"25150","Perkampungan Permatang Badak Jaya","Kuantan","PHG"
"25150","Perkampungan Permatang Badak Perdana","Kuantan","PHG"
"25150","Perkampungan Seri Damai Aman","Kuantan","PHG"
"25150","Perkampungan Seri Damai Baru","Kuantan","PHG"
"25150","Perkampungan Seri Damai Perdana","Kuantan","PHG"
"25150","Perkampungan Sungai Isap Aman","Kuantan","PHG"
"25150","Permatang Badak Aman","Kuantan","PHG"
"25150","Permatang Badak","Kuantan","PHG"
"25150","Perumahan Cendering Lama","Kuantan","PHG"
"25150","Perumahan Cendering","Kuantan","PHG"
"25150","Perumahan Desa Mesra","Kuantan","PHG"
"25150","Perumahan Sungai Isap (1 - 3)","Kuantan","PHG"
"25150","Perumahan Tanah Putih Baru","Kuantan","PHG"
"25150","Rumah Murah Permatang Badak","Kuantan","PHG"
"25150","Sungai Isap","Kuantan","PHG"
"25150","Taman Aishah","Kuantan","PHG"
"25150","Taman Aneka Jaya (Jalan Gambang)","Kuantan","PHG"
"25150","Taman Baru Chendering","Kuantan","PHG"
"25150","Taman Belukar Maju","Kuantan","PHG"
"25150","Taman Bukit Rangin","Kuantan","PHG"
"25150","Taman Desa Mesra","Kuantan","PHG"
"25150","Taman Dr Mohd Taib","Kuantan","PHG"
"25150","Taman Gudang Rasau Aman","Kuantan","PHG"
"25150","Taman Guru","Kuantan","PHG"
"25150","Taman Kurnia Jaya","Kuantan","PHG"
"25150","Taman Mega","Kuantan","PHG"
"25150","Taman Pandan Damai","Kuantan","PHG"
"25150","Taman Pandan Perdana","Kuantan","PHG"
"25150","Taman Pandan Permai","Kuantan","PHG"
"25150","Taman Pandan","Kuantan","PHG"
"25150","Taman Permatang Badak Maju","Kuantan","PHG"
"25150","Taman Putra / Putri","Kuantan","PHG"
"25150","Taman Rasau Aman","Kuantan","PHG"
"25150","Taman Rasau Permata","Kuantan","PHG"
"25150","Taman Sepakat","Kuantan","PHG"
"25150","Taman Sri Belat","Kuantan","PHG"
"25150","Taman Sri Inderapura","Kuantan","PHG"
"25150","Taman Sri Pandan","Kuantan","PHG"
"25150","Taman Sungai Isap Baru","Kuantan","PHG"
"25150","Taman Sungai Isap Damai","Kuantan","PHG"
"25150","Taman Sungai Isap Jaya","Kuantan","PHG"
"25150","Taman Sungai Isap Perdana","Kuantan","PHG"
"25150","Taman Sungai Isap","Kuantan","PHG"
"25150","Taman Tanah Puteh Baru","Kuantan","PHG"
"25150","Taman Tas Kuantan","Kuantan","PHG"
"25150","Taman Tas Ria","Kuantan","PHG"
"25150","Taman Uda (Jalan Gambang)","Kuantan","PHG"
"25150","Taman Uda Murni","Kuantan","PHG"
"25150","Taman Ukhwah","Kuantan","PHG"
"25150","Tanah Puteh","Kuantan","PHG"
"25200","Bandar Indera Mahkota","Kuantan","PHG"
"25200","Batu Sawar","Kuantan","PHG"
"25200","Bukit Istana","Kuantan","PHG"
"25200","Bukit Sekilau","Kuantan","PHG"
"25200","Bukit Setongkol","Kuantan","PHG"
"25200","Desa Samudra","Kuantan","PHG"
"25200","Desa Teratai","Kuantan","PHG"
"25200","Jabatan Bekalan Air","Kuantan","PHG"
"25200","Jalan Bukit Beirut","Kuantan","PHG"
"25200","Jalan Bukit Sekilau 1","Kuantan","PHG"
"25200","Jalan Bukit Sekilau","Kuantan","PHG"
"25200","Jalan Bukit Setongkol","Kuantan","PHG"
"25200","Jalan Bukit Ubi","Kuantan","PHG"
"25200","Jalan Busut Bukit Setongkol","Kuantan","PHG"
"25200","Jalan Haji Junid","Kuantan","PHG"
"25200","Jalan IM 3/9","Kuantan","PHG"
"25200","Jalan Indera Mahkota","Kuantan","PHG"
"25200","Jalan Kampung Baharu","Kuantan","PHG"
"25200","Jalan Kampung Jawa","Kuantan","PHG"
"25200","Jalan Kampung Padang","Kuantan","PHG"
"25200","Jalan Kanchil","Kuantan","PHG"
"25200","Jalan Kenanga","Kuantan","PHG"
"25200","Jalan Lim Hoe Lek","Kuantan","PHG"
"25200","Jalan Padang Jaya","Kuantan","PHG"
"25200","Jalan Paya (1 - 2)","Kuantan","PHG"
"25200","Jalan Paya Bukit Setongkol","Kuantan","PHG"
"25200","Jalan Paya","Kuantan","PHG"
"25200","Jalan Sekilau 3","Kuantan","PHG"
"25200","Jalan Sekilau","Kuantan","PHG"
"25200","Jalan Sepat (Kampung Jawa)","Kuantan","PHG"
"25200","Jalan Setongkol","Kuantan","PHG"
"25200","Jalan Sungai Lembing","Kuantan","PHG"
"25200","Jalan Tok Kong","Kuantan","PHG"
"25200","Kampung Batu Sawar","Kuantan","PHG"
"25200","Kampung Bukit Kuin","Kuantan","PHG"
"25200","Kampung Bukit Sekilau","Kuantan","PHG"
"25200","Kampung Bukit Setongkol","Kuantan","PHG"
"25200","Kampung Bukit Ubi","Kuantan","PHG"
"25200","Kampung Cina (Indera Mahkota)","Kuantan","PHG"
"25200","Kampung Haji Junid","Kuantan","PHG"
"25200","Kampung India Bukit Setongkol","Kuantan","PHG"
"25200","Kampung Kobat","Kuantan","PHG"
"25200","Kampung Padang","Kuantan","PHG"
"25200","Kampung Paya (Bukit Setongkol)","Kuantan","PHG"
"25200","Kampung Songsang","Kuantan","PHG"
"25200","Kampung Sungai Charu","Kuantan","PHG"
"25200","Kampung Sungai Pinang","Kuantan","PHG"
"25200","Kampung Sungai Tiram","Kuantan","PHG"
"25200","Kampung Tanjong Pasir","Kuantan","PHG"
"25200","Kampung Tanjong Putus","Kuantan","PHG"
"25200","Kampung Tiram","Kuantan","PHG"
"25200","Ketua Unit Kontrak Bumiputra","Kuantan","PHG"
"25200","Kompleks Tun Abdul Razak (KOMTAR)","Kuantan","PHG"
"25200","Ladang Sungai Talam","Kuantan","PHG"
"25200","Lembaga Pasaran & Perusahaan Getah","Kuantan","PHG"
"25200","Lorong Beirut","Kuantan","PHG"
"25200","Lorong Bukit Bay Route 15","Kuantan","PHG"
"25200","Lorong Bukit Setongkol 209","Kuantan","PHG"
"25200","Lorong Bukit Setongkol 32/1","Kuantan","PHG"
"25200","Lorong Bukit Setongkol Maju 18","Kuantan","PHG"
"25200","Lorong Bukit Setongkol Maju 44","Kuantan","PHG"
"25200","Lorong Bukit Setongkol Maju 46","Kuantan","PHG"
"25200","Lorong Bukit Setongkol Maju","Kuantan","PHG"
"25200","Lorong Bukit Setongkol","Kuantan","PHG"
"25200","Lorong Bukit Ubi 16","Kuantan","PHG"
"25200","Lorong Bukit Ubi 2","Kuantan","PHG"
"25200","Lorong Bukit Ubi 32","Kuantan","PHG"
"25200","Lorong Bukit Ubi 35","Kuantan","PHG"
"25200","Lorong Bukit Ubi 47","Kuantan","PHG"
"25200","Lorong Bukit Ubi 63","Kuantan","PHG"
"25200","Lorong Bukit Ubi 75","Kuantan","PHG"
"25200","Lorong Bukit Ubi","Kuantan","PHG"
"25200","Lorong Cenderawasih","Kuantan","PHG"
"25200","Lorong Desa Teratai","Kuantan","PHG"
"25200","Lorong IM 1/28","Kuantan","PHG"
"25200","Lorong IM 1/34","Kuantan","PHG"
"25200","Lorong IM 10/22","Kuantan","PHG"
"25200","Lorong IM 12/1","Kuantan","PHG"
"25200","Lorong IM 16/14","Kuantan","PHG"
"25200","Lorong IM 5/17","Kuantan","PHG"
"25200","Lorong IM 8/33","Kuantan","PHG"
"25200","Lorong Impian Ku","Kuantan","PHG"
"25200","Lorong Jaya","Kuantan","PHG"
"25200","Lorong Kampung Jawa","Kuantan","PHG"
"25200","Lorong Kampung Padang Jaya 27","Kuantan","PHG"
"25200","Lorong Kampung Padang Jaya","Kuantan","PHG"
"25200","Lorong Kampung Tiram Jaya 6","Kuantan","PHG"
"25200","Lorong Kancil","Kuantan","PHG"
"25200","Lorong Padang Jaya","Kuantan","PHG"
"25200","Lorong Padang Permai 41","Kuantan","PHG"
"25200","Lorong Paya Tiga 1/1","Kuantan","PHG"
"25200","Lorong Paya Tiga 30","Kuantan","PHG"
"25200","Lorong Setongkol Baru","Kuantan","PHG"
"25200","Lorong Shahzan IM 12","Kuantan","PHG"
"25200","Lorong Singa Mas","Kuantan","PHG"
"25200","Lorong Sri Teruntum","Kuantan","PHG"
"25200","Lorong Stongkol Maju","Kuantan","PHG"
"25200","Lorong Stongkol Perdana","Kuantan","PHG"
"25200","Lorong Tiram Perdana 2","Kuantan","PHG"
"25200","Lorong Tiram","Kuantan","PHG"
"25200","Lot 108, Sek. 31","Kuantan","PHG"
"25200","Pejabat Felcra Negeri","Kuantan","PHG"
"25200","Pejabat Felda Pahang Timur","Kuantan","PHG"
"25200","Pejabat Risda Negeri","Kuantan","PHG"
"25200","PerKampungan Cenderawasih","Kuantan","PHG"
"25200","Perkampungan Bukit Setongkol 36","Kuantan","PHG"
"25200","Perkampungan Bukit Setongkol Maju","Kuantan","PHG"
"25200","Perkampungan Bukit Setongkol Perdana 36","Kuantan","PHG"
"25200","Perkampungan Bukit Setongkol","Kuantan","PHG"
"25200","Perkampungan Padang Indah","Kuantan","PHG"
"25200","Perkampungan Padang Jaya","Kuantan","PHG"
"25200","Perkampungan Padang Permai","Kuantan","PHG"
"25200","Perkampungan Paya Tiga","Kuantan","PHG"
"25200","Perkampungan Shahzan IM","Kuantan","PHG"
"25200","Perkampungan Tiram Jaya","Kuantan","PHG"
"25200","Persiaran Sultan Abu Bakar","Kuantan","PHG"
"25200","Perumahan Bandar Indera Mahkota 16","Kuantan","PHG"
"25200","Perumahan Kampung Padang Baru","Kuantan","PHG"
"25200","Perumahan Kampung Padang Maju","Kuantan","PHG"
"25200","Risda Negeri","Kuantan","PHG"
"25200","Sungai Charu","Kuantan","PHG"
"25200","Taman Aneka Jaya","Kuantan","PHG"
"25200","Taman Astana View","Kuantan","PHG"
"25200","Taman Beirut","Kuantan","PHG"
"25200","Taman Bukit Setongkol","Kuantan","PHG"
"25200","Taman Bukit Ubi Jaya","Kuantan","PHG"
"25200","Taman Bukit Ubi","Kuantan","PHG"
"25200","Taman Cahaya (Kampung Jawa)","Kuantan","PHG"
"25200","Taman Cenderawasih Baru","Kuantan","PHG"
"25200","Taman Cenderawasih Indah","Kuantan","PHG"
"25200","Taman Cenderawasih","Kuantan","PHG"
"25200","Taman Chung Chin","Kuantan","PHG"
"25200","Taman Dahlia (Bukit Setongkol)","Kuantan","PHG"
"25200","Taman Desa Cahaya","Kuantan","PHG"
"25200","Taman Desa Jawa (Kampung Tengah)","Kuantan","PHG"
"25200","Taman Desa Jaya","Kuantan","PHG"
"25200","Taman Desa Samudra","Kuantan","PHG"
"25200","Taman Desa Teratai","Kuantan","PHG"
"25200","Taman Fairmont","Kuantan","PHG"
"25200","Taman Haji Junid","Kuantan","PHG"
"25200","Taman Idaman","Kuantan","PHG"
"25200","Taman Impian Ku","Kuantan","PHG"
"25200","Taman Indera Mahkota 5","Kuantan","PHG"
"25200","Taman Indera Mahkota Jaya","Kuantan","PHG"
"25200","Taman Indera Mahkota","Kuantan","PHG"
"25200","Taman Irama","Kuantan","PHG"
"25200","Taman Jasmin","Kuantan","PHG"
"25200","Taman Kampung Jawa","Kuantan","PHG"
"25200","Taman Kampung Padang Permai","Kuantan","PHG"
"25200","Taman Kampung Padang Sejahtera","Kuantan","PHG"
"25200","Taman Kg. Padang Jaya","Kuantan","PHG"
"25200","Taman Kota Ria","Kuantan","PHG"
"25200","Taman LKNP (Bukit Setongkol)","Kuantan","PHG"
"25200","Taman LKNP Sekilau Maju","Kuantan","PHG"
"25200","Taman Madu","Kuantan","PHG"
"25200","Taman Mahkota Idaman","Kuantan","PHG"
"25200","Taman Mahkota Perdana","Kuantan","PHG"
"25200","Taman Mahkota","Kuantan","PHG"
"25200","Taman Maju Jaya","Kuantan","PHG"
"25200","Taman Mega Gold","Kuantan","PHG"
"25200","Taman Muhibbah","Kuantan","PHG"
"25200","Taman Num Chun","Kuantan","PHG"
"25200","Taman Padang Jaya","Kuantan","PHG"
"25200","Taman Padang Perdana","Kuantan","PHG"
"25200","Taman Paya Tiga","Kuantan","PHG"
"25200","Taman Perdana","Kuantan","PHG"
"25200","Taman Polo","Kuantan","PHG"
"25200","Taman Rose","Kuantan","PHG"
"25200","Taman Salmah","Kuantan","PHG"
"25200","Taman Sekilau Maju","Kuantan","PHG"
"25200","Taman Sekilau Makmur","Kuantan","PHG"
"25200","Taman Sekilau Mewah","Kuantan","PHG"
"25200","Taman Sekilau Perdana","Kuantan","PHG"
"25200","Taman Sekilau","Kuantan","PHG"
"25200","Taman Seri Berlian","Kuantan","PHG"
"25200","Taman Seri Setongkol","Kuantan","PHG"
"25200","Taman Setongkol Baru","Kuantan","PHG"
"25200","Taman Setongkol Jaya","Kuantan","PHG"
"25200","Taman Setongkol","Kuantan","PHG"
"25200","Taman Sinar","Kuantan","PHG"
"25200","Taman Singa Mas","Kuantan","PHG"
"25200","Taman Sri Setongkol","Kuantan","PHG"
"25200","Taman Stongkol Perdana","Kuantan","PHG"
"25200","Taman Sungai Charu","Kuantan","PHG"
"25200","Taman Sungai Karas","Kuantan","PHG"
"25200","Taman Tanjong Pasir","Kuantan","PHG"
"25200","Taman Tas Mahkota","Kuantan","PHG"
"25200","Taman Tunas Makmur","Kuantan","PHG"
"25200","Taman Utama","Kuantan","PHG"
"25250","Alor Akar A","Kuantan","PHG"
"25250","Belatuk","Kuantan","PHG"
"25250","Galing Besar","Kuantan","PHG"
"25250","Jalan Alor Akar","Kuantan","PHG"
"25250","Jalan Belatok","Kuantan","PHG"
"25250","Jalan Beserah","Kuantan","PHG"
"25250","Jalan Dato Bahaman","Kuantan","PHG"
"25250","Jalan Galing","Kuantan","PHG"
"25250","Jalan Kubang Buaya","Kuantan","PHG"
"25250","Jalan Murai","Kuantan","PHG"
"25250","Jalan Pandan","Kuantan","PHG"
"25250","Jalan Serai","Kuantan","PHG"
"25250","Jalan Survey Qts","Kuantan","PHG"
"25250","Lembaga Tembakau Negara","Kuantan","PHG"
"25250","Lorong Alor Akar 3","Kuantan","PHG"
"25250","Lorong Alor Akar 79","Kuantan","PHG"
"25250","Lorong Alur Akar 31","Kuantan","PHG"
"25250","Lorong Kubang Buaya 36","Kuantan","PHG"
"25250","Lorong Kubang Buaya","Kuantan","PHG"
"25250","Lorong Serai","Kuantan","PHG"
"25250","Lorong Seri Kuantan 15","Kuantan","PHG"
"25250","Lorong Seri Kuantan 80","Kuantan","PHG"
"25250","Lorong Seri Kuantan 82","Kuantan","PHG"
"25250","Perkampungan Alor Akar","Kuantan","PHG"
"25250","Perumahan Pasifik","Kuantan","PHG"
"25250","Seng Heng Garden","Kuantan","PHG"
"25250","Survey Quarters","Kuantan","PHG"
"25250","Taman Ah Heng","Kuantan","PHG"
"25250","Taman Alfa Indah","Kuantan","PHG"
"25250","Taman Alor Akar Indah","Kuantan","PHG"
"25250","Taman Alor Akar","Kuantan","PHG"
"25250","Taman Aman","Kuantan","PHG"
"25250","Taman Bahagia","Kuantan","PHG"
"25250","Taman Bak Siah","Kuantan","PHG"
"25250","Taman Baru (Jalan Taman Bee)","Kuantan","PHG"
"25250","Taman Bashah Jaya","Kuantan","PHG"
"25250","Taman Bee","Kuantan","PHG"
"25250","Taman Beserah Jaya","Kuantan","PHG"
"25250","Taman Bumi Raya","Kuantan","PHG"
"25250","Taman Bunga Raya","Kuantan","PHG"
"25250","Taman Damai","Kuantan","PHG"
"25250","Taman East Coast","Kuantan","PHG"
"25250","Taman East Dragon","Kuantan","PHG"
"25250","Taman Emerald","Kuantan","PHG"
"25250","Taman Fock Wah","Kuantan","PHG"
"25250","Taman Galing Park","Kuantan","PHG"
"25250","Taman Goh","Kuantan","PHG"
"25250","Taman Happy","Kuantan","PHG"
"25250","Taman Hasfa Tunas","Kuantan","PHG"
"25250","Taman Hasfa","Kuantan","PHG"
"25250","Taman Intan","Kuantan","PHG"
"25250","Taman Jalan Galing","Kuantan","PHG"
"25250","Taman Kuan San","Kuantan","PHG"
"25250","Taman Kuantan","Kuantan","PHG"
"25250","Taman Kubang Buaya","Kuantan","PHG"
"25250","Taman Kwong Sang","Kuantan","PHG"
"25250","Taman Lee Choon","Kuantan","PHG"
"25250","Taman Maju","Kuantan","PHG"
"25250","Taman Mariamah","Kuantan","PHG"
"25250","Taman Mas","Kuantan","PHG"
"25250","Taman Mayfair","Kuantan","PHG"
"25250","Taman Metro","Kuantan","PHG"
"25250","Taman Mewah","Kuantan","PHG"
"25250","Taman Midah","Kuantan","PHG"
"25250","Taman Mutiara","Kuantan","PHG"
"25250","Taman Onn Loke","Kuantan","PHG"
"25250","Taman Orkid","Kuantan","PHG"
"25250","Taman Paramount","Kuantan","PHG"
"25250","Taman Peng On","Kuantan","PHG"
"25250","Taman River View","Kuantan","PHG"
"25250","Taman Ruby","Kuantan","PHG"
"25250","Taman Saujana","Kuantan","PHG"
"25250","Taman Sea View","Kuantan","PHG"
"25250","Taman Seng Heng","Kuantan","PHG"
"25250","Taman Serai","Kuantan","PHG"
"25250","Taman Seri Kuantan","Kuantan","PHG"
"25250","Taman Seri Lempah","Kuantan","PHG"
"25250","Taman Sri Pelangi","Kuantan","PHG"
"25250","Taman Sun Foon","Kuantan","PHG"
"25250","Taman Sungai Karas","Kuantan","PHG"
"25250","Taman Suria","Kuantan","PHG"
"25250","Taman Timur","Kuantan","PHG"
"25250","Taman Tiong","Kuantan","PHG"
"25300","Alor Akar B","Kuantan","PHG"
"25300","Hutan Setali","Kuantan","PHG"
"25300","Jalan Air Putih (1 - 5)","Kuantan","PHG"
"25300","Jalan Beserah","Kuantan","PHG"
"25300","Jalan Chan Loon Compound","Kuantan","PHG"
"25300","Jalan Haji Ahmad (1 - 7)","Kuantan","PHG"
"25300","Jalan Haji Ahmad 10","Kuantan","PHG"
"25300","Jalan Hutan Setali","Kuantan","PHG"
"25300","Jalan Lim Hoe Lek 1","Kuantan","PHG"
"25300","Jalan Pelanduk","Kuantan","PHG"
"25300","Jalan Putra Square","Kuantan","PHG"
"25300","Jalan Tun Ismail 1","Kuantan","PHG"
"25300","Jalan Tun Ismail 10","Kuantan","PHG"
"25300","Kampung Air Puteh","Kuantan","PHG"
"25300","Kampung Alor Akar","Kuantan","PHG"
"25300","Kampung Cina","Kuantan","PHG"
"25300","Kampung Galing Besar","Kuantan","PHG"
"25300","Kampung Galing Camp","Kuantan","PHG"
"25300","Kampung Jalan Hutan Setali","Kuantan","PHG"
"25300","Kampung Lapang Besar","Kuantan","PHG"
"25300","Kampung Setali","Kuantan","PHG"
"25300","Lorong 1 - 8 (Taman Imbi)","Kuantan","PHG"
"25300","Lorong Air Putih (1 - 131)","Kuantan","PHG"
"25300","Lorong Air Putih 115","Kuantan","PHG"
"25300","Lorong Bayan 14","Kuantan","PHG"
"25300","Lorong Bayan 3","Kuantan","PHG"
"25300","Lorong Galing 23","Kuantan","PHG"
"25300","Lorong Galing 27","Kuantan","PHG"
"25300","Lorong Galing 29","Kuantan","PHG"
"25300","Lorong Galing 50","Kuantan","PHG"
"25300","Lorong Galing 9","Kuantan","PHG"
"25300","Lorong Galing","Kuantan","PHG"
"25300","Lorong Gemilang","Kuantan","PHG"
"25300","Lorong Haji Ahmad (1 - 2)","Kuantan","PHG"
"25300","Lorong Melor","Kuantan","PHG"
"25300","Lorong Puyu (1 - 11)","Kuantan","PHG"
"25300","Lorong Sekilau 63","Kuantan","PHG"
"25300","Lorong Sekilau","Kuantan","PHG"
"25300","Lorong Seri Setali 89","Kuantan","PHG"
"25300","Lorong Serindit (1 - 111)","Kuantan","PHG"
"25300","Lorong Tok Sira","Kuantan","PHG"
"25300","Lorong Tun Ismail (8 - 12)","Kuantan","PHG"
"25300","Markas Briged Tenggara PPH","Kuantan","PHG"
"25300","Perkampungan Air Putih","Kuantan","PHG"
"25300","Perkampungan Galing","Kuantan","PHG"
"25300","Perkampungan Sekilau","Kuantan","PHG"
"25300","Putra Square","Kuantan","PHG"
"25300","Taman Air Puteh Maju","Kuantan","PHG"
"25300","Taman Air Putih","Kuantan","PHG"
"25300","Taman Anda","Kuantan","PHG"
"25300","Taman Anggerik Desa","Kuantan","PHG"
"25300","Taman Angkasa","Kuantan","PHG"
"25300","Taman Angsa","Kuantan","PHG"
"25300","Taman Asia","Kuantan","PHG"
"25300","Taman Baru (Jalan Ayer Puteh)","Kuantan","PHG"
"25300","Taman Berjaya","Kuantan","PHG"
"25300","Taman Berlian","Kuantan","PHG"
"25300","Taman Bersekutu","Kuantan","PHG"
"25300","Taman Beserah","Kuantan","PHG"
"25300","Taman Cahaya (Bukit Galing)","Kuantan","PHG"
"25300","Taman Cahaya Timur","Kuantan","PHG"
"25300","Taman Chia","Kuantan","PHG"
"25300","Taman City","Kuantan","PHG"
"25300","Taman Desa Anggerik","Kuantan","PHG"
"25300","Taman Galing","Kuantan","PHG"
"25300","Taman Gaya","Kuantan","PHG"
"25300","Taman Gembira","Kuantan","PHG"
"25300","Taman Harapan","Kuantan","PHG"
"25300","Taman Hong Seng","Kuantan","PHG"
"25300","Taman Imbi","Kuantan","PHG"
"25300","Taman Indah","Kuantan","PHG"
"25300","Taman Indera","Kuantan","PHG"
"25300","Taman Ipoh","Kuantan","PHG"
"25300","Taman Jubli","Kuantan","PHG"
"25300","Taman Kim Leng","Kuantan","PHG"
"25300","Taman Klasik","Kuantan","PHG"
"25300","Taman Kuantan Jaya","Kuantan","PHG"
"25300","Taman Kurnia","Kuantan","PHG"
"25300","Taman LKNP (Jalan Beserah)","Kuantan","PHG"
"25300","Taman MCA Satu","Kuantan","PHG"
"25300","Taman MCA","Kuantan","PHG"
"25300","Taman Mahawangsa","Kuantan","PHG"
"25300","Taman Megah Jaya","Kuantan","PHG"
"25300","Taman Megah Ria","Kuantan","PHG"
"25300","Taman Mirama","Kuantan","PHG"
"25300","Taman Multiplier","Kuantan","PHG"
"25300","Taman Pacific","Kuantan","PHG"
"25300","Taman Pauline","Kuantan","PHG"
"25300","Taman Peninsular Court","Kuantan","PHG"
"25300","Taman Peninsular Jaya","Kuantan","PHG"
"25300","Taman Peninsular","Kuantan","PHG"
"25300","Taman Pertama","Kuantan","PHG"
"25300","Taman Puyu","Kuantan","PHG"
"25300","Taman Rasa Sayang","Kuantan","PHG"
"25300","Taman Seri Galing","Kuantan","PHG"
"25300","Taman Seri Pelandok","Kuantan","PHG"
"25300","Taman Seri Tahan","Kuantan","PHG"
"25300","Taman Serindit","Kuantan","PHG"
"25300","Taman Setali Indah","Kuantan","PHG"
"25300","Taman Setali Maju","Kuantan","PHG"
"25300","Taman Setali Wangsa","Kuantan","PHG"
"25300","Taman Setali","Kuantan","PHG"
"25300","Taman Siok Thong","Kuantan","PHG"
"25300","Taman Sumber Mewah","Kuantan","PHG"
"25300","Taman Suraya","Kuantan","PHG"
"25300","Taman Tab","Kuantan","PHG"
"25300","Taman Tahan","Kuantan","PHG"
"25300","Taman Tunas Jaya","Kuantan","PHG"
"25300","Taman Tunas","Kuantan","PHG"
"25300","Taman Union","Kuantan","PHG"
"25350","Estate Semambu","Kuantan","PHG"
"25350","Jalan Air Putih","Kuantan","PHG"
"25350","Jalan Industri Semambu","Kuantan","PHG"
"25350","Jalan Jabor","Kuantan","PHG"
"25350","Jalan Pelindung Beserah","Kuantan","PHG"
"25350","Jalan Semambu","Kuantan","PHG"
"25350","Jalan Sri Setali","Kuantan","PHG"
"25350","Kampung Cina Semambu","Kuantan","PHG"
"25350","Kampung Semambu","Kuantan","PHG"
"25350","Kawasan Perusahaan Semambu","Kuantan","PHG"
"25350","Loji Air Semambu","Kuantan","PHG"
"25350","Lorong Air Putih (115 - 119)","Kuantan","PHG"
"25350","Lorong Air Putih 100","Kuantan","PHG"
"25350","Lorong Dato rashid","Kuantan","PHG"
"25350","Lorong Galing (129 - 148)","Kuantan","PHG"
"25350","Lorong Industri","Kuantan","PHG"
"25350","Lorong Semambu Baru","Kuantan","PHG"
"25350","Lorong Setaling (114 - 121)","Kuantan","PHG"
"25350","Lorong Sri Setali","Kuantan","PHG"
"25350","Maktab Perguruan Tengku Ampuan Afzan","Kuantan","PHG"
"25350","Perkampungan Air Putih","Kuantan","PHG"
"25350","Perkampungan Semambu Baru","Kuantan","PHG"
"25350","Perumahan Murah Semambu","Kuantan","PHG"
"25350","Politeknik Kuantan","Kuantan","PHG"
"25350","Politeknik Sultan Ahmad Shah (Polisas)","Kuantan","PHG"
"25350","Semambu","Kuantan","PHG"
"25350","Taman Aneka Jaya (Semambu)","Kuantan","PHG"
"25350","Taman Bersatu","Kuantan","PHG"
"25350","Taman Cempaka","Kuantan","PHG"
"25350","Taman Dato Rashid","Kuantan","PHG"
"25350","Taman Desa","Kuantan","PHG"
"25350","Taman Fong Seong","Kuantan","PHG"
"25350","Taman Jalan Semambu","Kuantan","PHG"
"25350","Taman LKNP Semambu PT I","Kuantan","PHG"
"25350","Taman Paka","Kuantan","PHG"
"25350","Taman Rimau","Kuantan","PHG"
"25350","Taman Sekilau Maju (Jalan Air Puteh)","Kuantan","PHG"
"25350","Taman Semambu","Kuantan","PHG"
"25350","Taman Sentosa Baru","Kuantan","PHG"
"25350","Taman Sentosa","Kuantan","PHG"
"25350","Taman Serukun","Kuantan","PHG"
"25350","Taman Skyline","Kuantan","PHG"
"25350","Taman Sri Raya","Kuantan","PHG"
"25350","Taman Timur Raya","Kuantan","PHG"
"25350","Taman Tunas Jaya (PT 3)","Kuantan","PHG"
"25350","Taman Tunas Jaya (PT 5)","Kuantan","PHG"
"25350","Taman Tunas Manja","Kuantan","PHG"
"25350","Taman Union (1 - 2)","Kuantan","PHG"
"25350","Taman Wawasan","Kuantan","PHG"
"25500","DYMM Sultan Pahang","Kuantan","PHG"
"25502","YAB Menteri Besar Pahang","Kuantan","PHG"
"25503","Setiausaha Kerajaan Negeri","Kuantan","PHG"
"25504","Biro Bantuan Guaman","Kuantan","PHG"
"25505","Biro Pengaduan Awam","Kuantan","PHG"
"25506","Mahkamah Tinggi","Kuantan","PHG"
"25508","Amanah Raya Berhad","Kuantan","PHG"
"25509","Pegawai Kemajuan Negeri","Kuantan","PHG"
"25512","Penasihat Undang-Undang Negeri","Kuantan","PHG"
"25514","Jabatan Perangkaan","Kuantan","PHG"
"25516","Jabatan Pemegang Harta","Kuantan","PHG"
"25517","Jabatan Perpaduan Negara","Kuantan","PHG"
"25518","Ketua Audit Negeri","Kuantan","PHG"
"25520","Suruhanjaya Perkhidmatan Awam","Kuantan","PHG"
"25524","Setiausaha Keselamatan Negeri","Kuantan","PHG"
"25529","Unit Penyelidikan Sosio Ekonomi","Kuantan","PHG"
"25532","Jabatan Sumber Manusia","Kuantan","PHG"
"25534","Jabatan Kilang & Jentera","Kuantan","PHG"
"25536","Jabatan Perhubungan Perusahaan","Kuantan","PHG"
"25538","Jabatan Keselamatan Sosial (Perkeso)","Kuantan","PHG"
"25540","Jabatan Tenaga Rakyat","Kuantan","PHG"
"25546","Pejabat Rela Negeri","Kuantan","PHG"
"25548","Jabatan Hal Ehwal Orang Asli","Kuantan","PHG"
"25550","Jabatan Imigresen","Kuantan","PHG"
"25551","Jabatan Pendaftaran Negara","Kuantan","PHG"
"25552","Jabatan Pendaftar Pertubuhan","Kuantan","PHG"
"25556","Jabatan Pertahanan Awam","Kuantan","PHG"
"25558","Jabatan Penjara","Kuantan","PHG"
"25560","Ketua Polis Negeri","Kuantan","PHG"
"25564","Jabatan Kebajikan Masyarakat","Kuantan","PHG"
"25570","Jabatan Belia & Sukan","Kuantan","PHG"
"25576","Jabatan Tanah & Galian","Kuantan","PHG"
"25578","Jabatan Ukur & Pemetaan","Kuantan","PHG"
"25582","Jabatan Kerja Raya","Kuantan","PHG"
"25584","Jabatan Kawalan Penyakit","Kuantan","PHG"
"25586","Hospital Kuantan","Kuantan","PHG"
"25590","Jabatan Kesihatan","Kuantan","PHG"
"25592","Jabatan Penilaian Harta","Kuantan","PHG"
"25592","Pegawai Kewangan Negeri","Kuantan","PHG"
"25594","Akauntan Negeri","Kuantan","PHG"
"25596","Jabatan Kastam & Eksais Di Raja","Kuantan","PHG"
"25598","Kumpulan Wang Simpanan Pekerja","Kuantan","PHG"
"25600","Lembaga Hasil Dalam Negeri","Kuantan","PHG"
"25604","Jabatan Pendidikan","Kuantan","PHG"
"25604","Jemaah Nazir Sekolah","Kuantan","PHG"
"25606","Jabatan Kemajuan Masyarakat (Kemas)","Kuantan","PHG"
"25608","Jabatan Pembangunan Koperasi","Kuantan","PHG"
"25609","Pejabat Mara Negeri","Kuantan","PHG"
"25610","Bahagian Pelesenan - Kementerian Penerangan","Kuantan","PHG"
"25612","Jabatan Penerangan","Kuantan","PHG"
"25614","Jabatan Penyiaran","Kuantan","PHG"
"25620","Jabatan Pengangkutan Jalan","Kuantan","PHG"
"25622","Jabatan Pendaftar Perniagaan","Kuantan","PHG"
"25622","Pejabat Unit Matrik","Kuantan","PHG"
"25622","Penguatkuasa Kem Perdagangan Dalam Negeri","Kuantan","PHG"
"25626","Jabatan Pengairan & Saliran","Kuantan","PHG"
"25628","Jabatan Perikanan","Kuantan","PHG"
"25630","Jabatan Haiwan","Kuantan","PHG"
"25632","Jabatan Pertanian","Kuantan","PHG"
"25644","Majlis Perbandaran Kuantan","Kuantan","PHG"
"25646","Jabatan Perancang Bandar & Desa","Kuantan","PHG"
"25648","Jabatan Bomba & Penyelamat","Kuantan","PHG"
"25656","Jabatan Galian Wilayah Timur","Kuantan","PHG"
"25660","Jabatan Perhutanan","Kuantan","PHG"
"25661","Padi & Beras Nasional (Bernas)","Kuantan","PHG"
"25662","Jabatan Alam Sekitar Wilayah Timur","Kuantan","PHG"
"25662","Jabatan Kajicuaca","Kuantan","PHG"
"25662","Jabatan Kimia","Kuantan","PHG"
"25670","Pos Malaysia Berhad","Kuantan","PHG"
"25672","Telekom Malaysia Berhad","Kuantan","PHG"
"25673","Tenaga Nasional Berhad","Kuantan","PHG"
"25674","Perbadanan Kemajuan Negeri Pahang","Kuantan","PHG"
"25676","Jabatan Agama Islam Pahang","Kuantan","PHG"
"25690","Suruhanjaya Pilihanraya Negeri","Kuantan","PHG"
"25700","Kuantan - Peti surat 1 - 80","Kuantan","PHG"
"25710","Kuantan - Peti surat 81 - 160","Kuantan","PHG"
"25720","Kuantan - Peti surat 161 - 240","Kuantan","PHG"
"25730","Kuantan - Peti surat 241 - 320","Kuantan","PHG"
"25740","Kuantan - Peti surat 321 - 400","Kuantan","PHG"
"25750","Kuantan - Peti surat 401 & ke atas","Kuantan","PHG"
"25990","Badan Pencegah Rasuah","Kuantan","PHG"
"25990","Kuantan - Beg berkunci","Kuantan","PHG"
"25990","Markas Divisyen Kem Batu 10","Kuantan","PHG"
"26010","Markas Wilayah Laut (TLDM)","Kuantan","PHG"
"26010","Sungai Panching Selatan","Kuantan","PHG"
"26040","Felda Panching Timur","Kuantan","PHG"
"26040","Sungai Panching Timur","Kuantan","PHG"
"26050","Bukit Goh Perdana (1 - 12)","Bukit Goh","PHG"
"26050","Bukit Goh","Bukit Goh","PHG"
"26050","Bukit Sagu 1","Bukit Goh","PHG"
"26050","Jalan Aman","Bukit Goh","PHG"
"26050","Jalan Cempaka","Bukit Goh","PHG"
"26050","Jalan Cengal","Bukit Goh","PHG"
"26050","Jalan Damai","Bukit Goh","PHG"
"26050","Jalan Kektus","Bukit Goh","PHG"
"26050","Jalan Kekwa","Bukit Goh","PHG"
"26050","Jalan Kenanga","Bukit Goh","PHG"
"26050","Jalan Kubur","Bukit Goh","PHG"
"26050","Jalan Masjid","Bukit Goh","PHG"
"26050","Jalan Mawar","Bukit Goh","PHG"
"26050","Jalan Melor","Bukit Goh","PHG"
"26050","Jalan Murai","Bukit Goh","PHG"
"26050","Jalan Ros","Bukit Goh","PHG"
"26050","Jalan Sega","Bukit Goh","PHG"
"26050","Jalan Serai","Bukit Goh","PHG"
"26050","Jalan Seroja","Bukit Goh","PHG"
"26050","Jalan Teratai","Bukit Goh","PHG"
"26050","Jalan Tok Janggut","Bukit Goh","PHG"
"26050","Lorong Muhamad","Bukit Goh","PHG"
"26050","Perk. RTP Bukit Goh","Bukit Goh","PHG"
"26050","Perkampungan Tanah Pemuda","Bukit Goh","PHG"
"26050","Pertanian Komuniti","Bukit Goh","PHG"
"26050","Perumahan Bukit Goh Perdana","Bukit Goh","PHG"
"26050","Simpang 3 RTP","Bukit Goh","PHG"
"26060","Astaka Village","Kuantan","PHG"
"26060","Bandar Kuantan Putri","Kuantan","PHG"
"26060","Bandar Putra Peramu","Kuantan","PHG"
"26060","Jalan Haji Wok (Tanjung Lumpur)","Kuantan","PHG"
"26060","Jalan Kempadang - Soi","Kuantan","PHG"
"26060","Jalan Masjid (Tanjung Lumpur)","Kuantan","PHG"
"26060","Jalan Razali (Tanjung Lumpur)","Kuantan","PHG"
"26060","Jalan Tanjong Lumpur","Kuantan","PHG"
"26060","Jalan Teluk Baharu 2","Kuantan","PHG"
"26060","Jalan Tok Guru (Tanjung Lumpur)","Kuantan","PHG"
"26060","Kampung Anak Air","Kuantan","PHG"
"26060","Kampung Baharu Tanjung Lumpur","Kuantan","PHG"
"26060","Kampung Banjir","Kuantan","PHG"
"26060","Kampung Chempaka (Kuala Penor)","Kuantan","PHG"
"26060","Kampung Kempadang","Kuantan","PHG"
"26060","Kampung Kuala Penor","Kuantan","PHG"
"26060","Kampung Nelayan","Kuantan","PHG"
"26060","Kampung Orang Asli (Batu 9 Jalan Pekan)","Kuantan","PHG"
"26060","Kampung Pahang Sol","Kuantan","PHG"
"26060","Kampung Pahang","Kuantan","PHG"
"26060","Kampung Pak Mahat","Kuantan","PHG"
"26060","Kampung Penor","Kuantan","PHG"
"26060","Kampung Peramu Hilir","Kuantan","PHG"
"26060","Kampung Peramu Hulu","Kuantan","PHG"
"26060","Kampung Peramu","Kuantan","PHG"
"26060","Kampung Sepat","Kuantan","PHG"
"26060","Kampung Seri Melati","Kuantan","PHG"
"26060","Kampung Sri Melati","Kuantan","PHG"
"26060","Kampung Sungai Derhaka","Kuantan","PHG"
"26060","Kampung Sungai Dua","Kuantan","PHG"
"26060","Kampung Sungai Soi","Kuantan","PHG"
"26060","Kampung Tanjong Lumpor","Kuantan","PHG"
"26060","Kampung Telok Baharu","Kuantan","PHG"
"26060","Lorong Alor Gajah (1 - 2)","Kuantan","PHG"
"26060","Lorong Alor Kangkong","Kuantan","PHG"
"26060","Lorong BKP 26","Kuantan","PHG"
"26060","Lorong Berjaya Permai 1","Kuantan","PHG"
"26060","Lorong Cempaka (1 - 6)","Kuantan","PHG"
"26060","Lorong Cempaka 4/9","Kuantan","PHG"
"26060","Lorong Haji Ariffin","Kuantan","PHG"
"26060","Lorong I S 44","Kuantan","PHG"
"26060","Lorong Kampung Sungai Deraka 4","Kuantan","PHG"
"26060","Lorong Kempadang Aman (83 - 85)","Kuantan","PHG"
"26060","Lorong Kempadang Jaya 1/2","Kuantan","PHG"
"26060","Lorong Kempadang Jaya 3","Kuantan","PHG"
"26060","Lorong Kempadang Maju 11","Kuantan","PHG"
"26060","Lorong Kempadang Maju 3","Kuantan","PHG"
"26060","Lorong Kempadang Makmur 1/17","Kuantan","PHG"
"26060","Lorong Kempadang Makmur 62","Kuantan","PHG"
"26060","Lorong Kempadang Perdana 23","Kuantan","PHG"
"26060","Lorong Kempadang Perdana 3/1","Kuantan","PHG"
"26060","Lorong Kempadang Setia 4","Kuantan","PHG"
"26060","Lorong Melor (Kampung Kempadang)","Kuantan","PHG"
"26060","Lorong Meranti","Kuantan","PHG"
"26060","Lorong Pak Mahat","Kuantan","PHG"
"26060","Lorong Penor Aman","Kuantan","PHG"
"26060","Lorong Peramu Baru","Kuantan","PHG"
"26060","Lorong Peramu Maju (1 - 12)","Kuantan","PHG"
"26060","Lorong Permai 1","Kuantan","PHG"
"26060","Lorong Permatang Cengal (Sungai Soi)","Kuantan","PHG"
"26060","Lorong Permatang Gaharu Baru 1","Kuantan","PHG"
"26060","Lorong Permatang Gharu (Kampung Kem)","Kuantan","PHG"
"26060","Lorong Permatang Limau (Sungai Soi)","Kuantan","PHG"
"26060","Lorong Permatang Peria (Sungai Soi)","Kuantan","PHG"
"26060","Lorong Permatang Ubi (Sungai Soi)","Kuantan","PHG"
"26060","Lorong Rusa (Kampung Kempadang)","Kuantan","PHG"
"26060","Lorong Sri Inderapura 60","Kuantan","PHG"
"26060","Lorong Sungai Soi Baru 17","Kuantan","PHG"
"26060","Lorong Sungai Soi Baru 21","Kuantan","PHG"
"26060","Lorong Sungai Soi Baru 6","Kuantan","PHG"
"26060","Lorong Sungai Soi Jaya 10","Kuantan","PHG"
"26060","Lorong Sungai Soi Jaya 18","Kuantan","PHG"
"26060","Lorong Sungai Soi Jaya 2","Kuantan","PHG"
"26060","PerKampungan Orang Asli","Kuantan","PHG"
"26060","Peramu Hilir","Kuantan","PHG"
"26060","Peramu Maju","Kuantan","PHG"
"26060","Perkampungan Cempaka","Kuantan","PHG"
"26060","Perkampungan Kempadang Aman","Kuantan","SGR"
"26060","Perkampungan Kempadang Maju","Kuantan","PHG"
"26060","Perkampungan Kempadang Makmur","Kuantan","PHG"
"26060","Perkampungan Kempadang Perdana","Kuantan","PHG"
"26060","Perkampungan Kempadang Utama 1","Kuantan","PHG"
"26060","Perkampungan Penor Aman","Kuantan","PHG"
"26060","Perkampungan Soi Baru","Kuantan","PHG"
"26060","Perkampungan Sungai Deraka","Kuantan","PHG"
"26060","Perkampungan Sungai Soi Baru","Kuantan","PHG"
"26060","Perkampungan Sungai Soi Jaya","Kuantan","PHG"
"26060","Permatang Gaharu","Kuantan","PHG"
"26060","Perumahan Kempadang Jaya","Kuantan","PHG"
"26060","Taman Ashikan Bayu","Kuantan","PHG"
"26060","Taman Astaka Village","Kuantan","PHG"
"26060","Taman Berjaya Permai","Kuantan","PHG"
"26060","Taman Desa Bistari","Kuantan","PHG"
"26060","Taman Kempadang Jaya","Kuantan","PHG"
"26060","Taman Padang Sungai Soi","Kuantan","PHG"
"26060","Taman Penor Jaya","Kuantan","PHG"
"26060","Taman Prima Bayu","Kuantan","PHG"
"26060","Taman Prima Jaya","Kuantan","PHG"
"26060","Taman RRM Kempadang Perdana","Kuantan","PHG"
"26060","Taman RRM Peramu","Kuantan","PHG"
"26060","Taman bandar Putri","Kuantan","PHG"
"26060","Tanjung Lumpor","Kuantan","PHG"
"26060","Yayasan Pahang","Kuantan","PHG"
"26070","Jaya Gading","Kuantan","PHG"
"26070","Kampung Batu 11","Kuantan","PHG"
"26070","Kampung Cina (Kuantan)","Kuantan","PHG"
"26070","Kampung Jaya Gading","Kuantan","PHG"
"26070","Kampung Mahkota","Kuantan","PHG"
"26070","Kampung Pandan Dua","Kuantan","PHG"
"26070","Kampung Pandan Perdana 1","Kuantan","PHG"
"26070","Kampung Pandan Satu","Kuantan","PHG"
"26070","Kampung Seri Damai","Kuantan","PHG"
"26070","Kampung Sri Damai","Kuantan","PHG"
"26070","Lorong Melor","Kuantan","PHG"
"26070","Lorong Pandan Perdana 1","Kuantan","PHG"
"26070","Lorong Pandan Perdana 1/10","Kuantan","PHG"
"26070","Lorong Pandan Perdana 1/23","Kuantan","PHG"
"26070","Lorong Pandan Perdana 4","Kuantan","PHG"
"26070","Lorong Pandan Perdana 6/3","Kuantan","PHG"
"26070","Lorong Pandan Sejahtera 2/1","Kuantan","PHG"
"26070","Lorong Pandan Sejahtera 2/4","Kuantan","PHG"
"26070","Lorong Seri Mahkota Aman 32","Kuantan","PHG"
"26070","Lorong Seri Mahkota Permai","Kuantan","PHG"
"26070","Lorong Seri Mahkota Ria 1","Kuantan","PHG"
"26070","Perkampungan Pandan Indah","Kuantan","PHG"
"26070","Perkampungan Pandan Jaya","Kuantan","PHG"
"26070","Perkampungan Pandan Perdana","Kuantan","PHG"
"26070","Perkampungan Pandan Sejahtera","Kuantan","PHG"
"26070","Perkampungan Seri Mahkota Aman","Kuantan","PHG"
"26070","Perkampungan Seri Mahkota Permai","Kuantan","PHG"
"26070","Perumahan Pandan Aman","Kuantan","PHG"
"26070","Perumahan Pandan Perdana","Kuantan","PHG"
"26070","Taman Aneka Jaya","Kuantan","PHG"
"26070","Taman Mahkota Aman","Kuantan","PHG"
"26070","Taman Mahkota Jaya","Kuantan","PHG"
"26070","Taman Mahkota Makmur","Kuantan","PHG"
"26070","Taman Mahkota Permai","Kuantan","PHG"
"26070","Taman Pandan Damai 1","Kuantan","PHG"
"26070","Taman Pandan Perdana 2","Kuantan","PHG"
"26070","Taman Pandan Sejahtera 1","Kuantan","PHG"
"26070","Taman Perdana","Kuantan","PHG"
"26070","Taman Sri Gading","Kuantan","PHG"
"26070","Taman Sri Ku","Kuantan","PHG"
"26070","Taman Sri Mahkota","Kuantan","PHG"
"26070","Telok Baru","Kuantan","PHG"
"26080","Balok Perdana","Balok","PHG"
"26080","Balok","Balok","PHG"
"26080","Bandar Baru Gebeng","Balok","PHG"
"26080","Cherating","Balok","PHG"
"26080","Jalan Aspa","Balok","PHG"
"26080","Jalan Balok Baru","Balok","PHG"
"26080","Jalan Gebeng 1/24","Balok","PHG"
"26080","Jalan Kuantan - By Pass","Balok","PHG"
"26080","Jalan Kuantan - Kemaman","Balok","PHG"
"26080","Kampung Baging","Balok","PHG"
"26080","Kampung Baharu Sungai Ular","Balok","PHG"
"26080","Kampung Baru Cherating","Balok","PHG"
"26080","Kampung Batu 20","Balok","PHG"
"26080","Kampung Batu Palas","Balok","PHG"
"26080","Kampung Chengal Lempong","Balok","PHG"
"26080","Kampung Cherating","Balok","PHG"
"26080","Kampung Darat Sungai Ular","Balok","PHG"
"26080","Kampung Kubang Ikan","Balok","PHG"
"26080","Kampung Melayu (Jabor)","Balok","PHG"
"26080","Kampung Seberang Sungai Ular","Balok","PHG"
"26080","Kampung Selamat","Balok","PHG"
"26080","Kampung Sungai Baging","Balok","PHG"
"26080","Kampung Sungai Ular","Balok","PHG"
"26080","Kawasan Perindustrian Gebeng","Balok","PHG"
"26080","Lorong Balok Baru","Balok","PHG"
"26080","Lorong Balok Makmur","Balok","PHG"
"26080","Lorong Balok Perdana 3/4","Balok","PHG"
"26080","Lorong Balok Perdana 4/1","Balok","PHG"
"26080","Lorong Chendur Baru 4","Balok","PHG"
"26080","Lorong Chendur Makmur","Balok","PHG"
"26080","Lorong Seberang Balok 3/2","Kuantan","PHG"
"26080","Pelabuhan Kuantan","Balok","PHG"
"26080","Perkampungan Balok Makmur","Balok","PHG"
"26080","Perkampungan Balok Perdana 4","Balok","PHG"
"26080","Perkampungan Balok Samudera","Balok","PHG"
"26080","Perkampungan Chendor Aman","Balok","PHG"
"26080","Perkampungan Seberang Balok","Balok","PHG"
"26080","Perkampungan Sungai Ular Damai","Balok","PHG"
"26080","Perkampungan Sungai Ular Jaya","Balok","PHG"
"26080","Perkampungan Sungai Ular Perdana","Balok","PHG"
"26080","Sungai Ular","Balok","PHG"
"26080","Taman Balok Aman","Balok","PHG"
"26080","Taman Balok Baru","Balok","PHG"
"26080","Taman Balok Makmur","Balok","PHG"
"26080","Taman Balok Ria","Balok","PHG"
"26080","Taman Chendor Baru","Balok","PHG"
"26080","Taman Desa Aspa","Balok","PHG"
"26080","Taman Samudera","Balok","PHG"
"26080","Taman Seberang Balok","Kuantan","PHG"
"26090","Kampung Baru Ah Tong","Bukit Goh","PHG"
"26090","Kampung Bukit Batu","Bukit Goh","PHG"
"26090","Kampung Bukit Danau","Bukit Goh","PHG"
"26090","Kampung Charas","Bukit Goh","PHG"
"26090","Kampung Danang","Bukit Goh","PHG"
"26090","Kampung Gajah Mati","Bukit Goh","PHG"
"26090","Kampung Kolek","Bukit Goh","PHG"
"26090","Kampung Kuala Reman","Bukit Goh","PHG"
"26090","Kampung Machang","Bukit Goh","PHG"
"26090","Kampung Panching","Bukit Goh","PHG"
"26090","Kampung Pasir Kemudi","Bukit Goh","PHG"
"26090","Kampung Sungai Batu","Bukit Goh","PHG"
"26090","Kampung Sungai Durian","Bukit Goh","PHG"
"26090","Kampung Tanjung Pasir","Bukit Goh","PHG"
"26090","Lorong Belida","Bukit Goh","PHG"
"26090","Lorong Jelawat","Bukit Goh","PHG"
"26090","Lorong Kelah","Bukit Goh","PHG"
"26090","Lorong Kelisa","Bukit Goh","PHG"
"26090","Lorong Sebarau","Bukit Goh","PHG"
"26090","Panching","Bukit Goh","PHG"
"26090","Pasir Kemudi","Bukit Goh","PHG"
"26090","R.R.M Panching","Bukit Goh","PHG"
"26090","R.T.P Bukit Mabuk","Bukit Goh","PHG"
"26090","Simpang Koran Panching","Bukit Goh","PHG"
"26090","Simpang Tiga Bukit Goh","Bukit Goh","PHG"
"26090","Taman TLDM","Bukit Goh","PHG"
"26100","Batu Hitam Beserah","Balok","PHG"
"26100","Beserah","Kuantan","PHG"
"26100","Bukit Kuin Dua","Kuantan","PHG"
"26100","Jalan Balok Jaya","Balok","PHG"
"26100","Jalan Bandar Damansara","Kuantan","PHG"
"26100","Jalan Kampung Alor Ladang","Kuantan","PHG"
"26100","Jalan Kuantan - Kemaman","Kuantan","PHG"
"26100","Jalan Pantai Batu Hitam","Kuantan","PHG"
"26100","Jalan Pelindung Bayu","Kuantan","PHG"
"26100","Jalan Pelindung Maju 1","Kuantan","PHG"
"26100","Kampung Alor Ladang","Kuantan","PHG"
"26100","Kampung Alor Tuan Haji","Kuantan","PHG"
"26100","Kampung Balok","Balok","PHG"
"26100","Kampung Baru, Beserah","Kuantan","PHG"
"26100","Kampung Batu Hitam","Kuantan","PHG"
"26100","Kampung Bugis","Kuantan","PHG"
"26100","Kampung Bukit Gelugur","Kuantan","PHG"
"26100","Kampung Chendor","Kuantan","PHG"
"26100","Kampung Chetty","Kuantan","PHG"
"26100","Kampung Darat Sekolah","Kuantan","PHG"
"26100","Kampung Darat","Kuantan","PHG"
"26100","Kampung Jambu","Kuantan","PHG"
"26100","Kampung Jeram","Kuantan","PHG"
"26100","Kampung Kubor","Kuantan","PHG"
"26100","Kampung Masjid","Kuantan","PHG"
"26100","Kampung Pantai Sungai Karang","Kuantan","PHG"
"26100","Kampung Pantai","Kuantan","PHG"
"26100","Kampung Pasir Garam","Kuantan","PHG"
"26100","Kampung Pelindong Tasik","Kuantan","PHG"
"26100","Kampung Pelindong","Kuantan","PHG"
"26100","Kampung Rumbia","Kuantan","PHG"
"26100","Kampung Simpang Kemaman","Kuantan","PHG"
"26100","Kampung Tuan","Kuantan","PHG"
"26100","Lorong Alor Ladang 41","Kuantan","PHG"
"26100","Lorong Balok Jaya","Balok","PHG"
"26100","Lorong Balok Permai 6","Balok","PHG"
"26100","Lorong Balok Sejahtera","Balok","PHG"
"26100","Lorong Bandar Damansara","Balok","PHG"
"26100","Lorong Batu Hitam 58","Kuantan","PHG"
"26100","Lorong Beserah Ria 43","Kuantan","PHG"
"26100","Lorong Bukit Gelugor 9","Kuantan","PHG"
"26100","Lorong Bukit Gelugur 13","Kuantan","PHG"
"26100","Lorong Chengal Lempong","Kuantan","PHG"
"26100","Lorong Chengal lempong Baru 28","Balok","PHG"
"26100","Lorong Kampung Bugis","Kuantan","PHG"
"26100","Lorong Kampung Jeram 3","Kuantan","PHG"
"26100","Lorong Kampung Sungai Deraka 4","Kuantan","PHG"
"26100","Lorong Pelindung Damai 30","Kuantan","PHG"
"26100","Lorong Pelindung Maju","Kuantan","PHG"
"26100","Lorong Pelindung Perdana 7","Kuantan","PHG"
"26100","Lorong Sungai Karang Damai (90 - 93)","Balok","PHG"
"26100","Lorong Sungai Karang Damai 34","Balok","PHG"
"26100","Lorong Sungai Karang Darat (9 - 10)","Balok","PHG"
"26100","Lorong Sungai Karang Darat 105","Balok","PHG"
"26100","Lorong Sungai Karang Darat 51","Balok","PHG"
"26100","Lorong Sungai Karang Darat Jaya 9","Balok","PHG"
"26100","Lorong Sungai Karang Darat","Balok","PHG"
"26100","Lorong Sungai Karang Jaya 7","Balok","PHG"
"26100","Lorong Sungai Karang Jaya 8","Balok","PHG"
"26100","Lorong Sungai Karang Maju 6","Balok","PHG"
"26100","Perkampungan Balok Permai","Balok","PHG"
"26100","Perkampungan Batu Hitam","Kuantan","PHG"
"26100","Perkampungan Beserah Ria","Kuantan","PHG"
"26100","Perkampungan Cengal Lempong","Kuantan","PHG"
"26100","Perkampungan Chengal Lempong Baru","Balok","PHG"
"26100","Perkampungan Pelindung Damai","Kuantan","PHG"
"26100","Perkampungan Pelindung Maju","Kuantan","PHG"
"26100","Perkampungan Pelindung Perdana","Kuantan","PHG"
"26100","Perkampungan Sungai Karang Damai","Balok","PHG"
"26100","Perkampungan Sungai Karang Darat Jaya","Balok","PHG"
"26100","Perkampungan Sungai Karang Darat","Balok","PHG"
"26100","Perkampungan Sungai Karang Jaya","Balok","PHG"
"26100","Perkampungan Sungai Karang Mesra","Balok","PHG"
"26100","RRM Batu Hitam (Beserah)","Kuantan","PHG"
"26100","Sungai Karang Batu 9","Kuantan","PHG"
"26100","Sungai Karang Darat","Balok","PHG"
"26100","Sungai Karang Pantai","Balok","PHG"
"26100","Taman Balok Cahaya","Balok","PHG"
"26100","Taman Balok Darat","Balok","PHG"
"26100","Taman Balok Fajar","Balok","PHG"
"26100","Taman Balok Jaya 1 & 2","Balok","PHG"
"26100","Taman Balok Maju","Balok","PHG"
"26100","Taman Balok Permai","Balok","PHG"
"26100","Taman Balok Sejahtera","Kuantan","PHG"
"26100","Taman Batu Hitam","Balok","PHG"
"26100","Taman Beserah Permai","Kuantan","PHG"
"26100","Taman Chendor Perdana","Balok","PHG"
"26100","Taman Chengal Lempong Damai","Balok","PHG"
"26100","Taman Gelugor 10","Balok","PHG"
"26100","Taman Jariah","Balok","PHG"
"26100","Taman Mutiara Perdana","Balok","PHG"
"26100","Taman Pelindong Bayu","Kuantan","PHG"
"26100","Taman Pelindong Damai","Kuantan","PHG"
"26100","Taman Pelindong Indah","Kuantan","PHG"
"26100","Taman Sungai Karang Maju","Balok","PHG"
"26100","Taman Sungai Ular Jaya","Balok","PHG"
"26140","Bukit Kuantan","Kuantan","PHG"
"26150","Jabor","Balok","PHG"
"26150","Kampung Alor Batu","Balok","PHG"
"26180","Bukit Kuin Satu","Kuantan","PHG"
"26190","Cherating","Balok","PHG"
"26190","Kampung Bahagia","Balok","PHG"
"26200","Batu Enam","Sungai Lembing","PHG"
"26200","Bukit Pos","Sungai Lembing","PHG"
"26200","Jelihang","Sungai Lembing","PHG"
"26200","Jeram Batang","Sungai Lembing","PHG"
"26200","Jeram Tekar","Sungai Lembing","PHG"
"26200","Kampung 'Nyah","Sungai Lembing","PHG"
"26200","Kampung Batu 4 1/2","Sungai Lembing","PHG"
"26200","Kampung Batu 6","Sungai Lembing","PHG"
"26200","Kampung Kawah","Sungai Lembing","PHG"
"26200","Kampung Kolong Pahat","Sungai Lembing","PHG"
"26200","Kampung Kuala Nadak","Sungai Lembing","PHG"
"26200","Kampung Kuala Perong","Sungai Lembing","PHG"
"26200","Kampung Melayu","Sungai Lembing","PHG"
"26200","Kampung Sungai Mas","Sungai Lembing","PHG"
"26200","Kampung Tengah","Sungai Lembing","PHG"
"26200","Kolek","Sungai Lembing","PHG"
"26200","Kuala Kenau","Sungai Lembing","PHG"
"26200","Ladang Enam","Sungai Lembing","PHG"
"26200","Paddock Creek","Sungai Lembing","PHG"
"26200","Samaliang","Sungai Lembing","PHG"
"26200","Seberang","Sungai Lembing","PHG"
"26200","Sungai Arang","Sungai Lembing","PHG"
"26200","Sungai Blat","Sungai Lembing","PHG"
"26200","Sungai Lembing","Sungai Lembing","PHG"
"26200","Sungai Rimau","Sungai Lembing","PHG"
"26250","Kampung Sungai Pelandok","Jaya Gading","PHG"
"26300","Bandar Gambang","Gambang","PHG"
"26300","Jalan Bandar Gambang 24","Gambang","PHG"
"26300","Jalan Bandar Gambang 25","Gambang","PHG"
"26300","Jalan Besar Gambang","Gambang","PHG"
"26300","Jalan Gambang Makmur","Gambang","PHG"
"26300","Pusat Komersial Bandar Gambang","Gambang","PHG"
"26300","Sek 7 Bandar Gambang","Gambang","PHG"
"26300","Sungai Panching Utara","Gambang","PHG"
"26300","Taman Gambang Makmur","Gambang","PHG"
"26310","Gambang","Gambang","PHG"
"26310","Jalan Gambang Damai (1 - 2)","Gambang","PHG"
"26310","Jalan Gambang Damai","Gambang","PHG"
"26310","Lorong Gambang Damai (1 - 20)","Gambang","PHG"
"26310","Perkampungan Gambang Damai","Gambang","PHG"
"26320","Lepar Hilir","Gambang","PHG"
"26330","Felda Lepar Hilir 2","Gambang","PHG"
"26340","Felda Lepar Hilir 3","Gambang","PHG"
"26350","Felda Lepar Hilir 4","Gambang","PHG"
"26360","Felda Lepar Hilir 5","Gambang","PHG"
"26370","Felda Lepar Hilir 6","Gambang","PHG"
"26400","Bandar Pusat Jengka","Bandar Pusat Jengka","PHG"
"26400","Felda Kesidang Jengka 8","Bandar Pusat Jengka","PHG"
"26400","Felda Lepar Hilir 7","Bandar Pusat Jengka","PHG"
"26400","Felda Mawar Jengka 10","Bandar Pusat Jengka","PHG"
"26400","Felda Melati Jengka 11","Bandar Pusat Jengka","PHG"
"26400","Felda Raya Jengka 14","Bandar Pusat Jengka","PHG"
"26400","Felda Semarak Jengka 15","Bandar Pusat Jengka","PHG"
"26400","Felda Sena Jengka 16","Bandar Pusat Jengka","PHG"
"26400","Felda Seri Pagi Jengka 17","Bandar Pusat Jengka","PHG"
"26400","Felda Seroja Jengka 18","Bandar Pusat Jengka","PHG"
"26400","Felda Siantan Jengka 19","Bandar Pusat Jengka","PHG"
"26400","Felda Tanjung Jengka 20","Bandar Pusat Jengka","PHG"
"26400","Felda Teratai Jengka 21","Bandar Pusat Jengka","PHG"
"26400","Jalan Besar (Matau)","Bandar Pusat Jengka","PHG"
"26400","Kampung Paya Pamun","Bandar Pusat Jengka","PHG"
"26400","Kawasan Perindustrian","Bandar Pusat Jengka","PHG"
"26400","Ladang Chenor","Bandar Pusat Jengka","PHG"
"26400","Lintasan Semarak","Bandar Pusat Jengka","PHG"
"26400","Nadi Kota (Bandar)","Bandar Pusat Jengka","PHG"
"26400","PPTR Sungai Tekam","Bandar Pusat Jengka","PHG"
"26400","Perumahan Guru Jalan Ketengah","Bandar Pusat Jengka","PHG"
"26400","Pusat Penyelidikan Sungai Tekam","Bandar Pusat Jengka","PHG"
"26400","Rantau Perintis","Bandar Pusat Jengka","PHG"
"26400","Sungai Tekam","Bandar Pusat Jengka","PHG"
"26400","Taman Desa Jaya 1","Bandar Pusat Jengka","PHG"
"26400","Taman Desa Jaya 2","Bandar Pusat Jengka","PHG"
"26400","Taman Impian Jalan Kilang","Bandar Pusat Jengka","PHG"
"26400","UITM Cawangan Pahang","Bandar Pusat Jengka","PHG"
"26410","Felda Keembong Jengka 6","Bandar Pusat Jengka","PHG"
"26420","Felda Kenanga Jengka 7","Bandar Pusat Jengka","PHG"
"26420","Felda Melor Jengka 12","Bandar Pusat Jengka","PHG"
"26430","Felda Anggerik Jengka 1","Bandar Pusat Jengka","PHG"
"26430","Felda Chempaka Jengka 2","Bandar Pusat Jengka","PHG"
"26430","Felda Lepar Utara 4 & 5","Bandar Pusat Jengka","PHG"
"26430","Felda Puteri Malu Jengka 13","Bandar Pusat Jengka","PHG"
"26430","Felda Ulu Jempol","Bandar Pusat Jengka","PHG"
"26430","Kampung Sungai Jerik","Bandar Pusat Jengka","PHG"
"26430","Sungai Jerik","Bandar Pusat Jengka","PHG"
"26440","Felda Dahlia Jengka 3","Bandar Pusat Jengka","PHG"
"26450","Felda Jengka 24","Bandar Pusat Jengka","PHG"
"26450","Felda Terkis Jengka 22","Bandar Pusat Jengka","PHG"
"26450","Felda Tongkin Jengka 23","Bandar Pusat Jengka","PHG"
"26460","Felda Jengka 25","Bandar Pusat Jengka","PHG"
"26460","Felda Lepar Utara 1 & 2","Bandar Pusat Jengka","PHG"
"26485","Felda Lepar Utara 10 & 12","Bandar Pusat Jengka","PHG"
"26485","Peti Surat 10","Bandar Pusat Jengka","PHG"
"26485","Peti Surat 12","Bandar Pusat Jengka","PHG"
"26485","Peti Surat 20","Bandar Pusat Jengka","PHG"
"26485","Peti Surat 50","Bandar Pusat Jengka","PHG"
"26485","Peti Surat 55","Bandar Pusat Jengka","PHG"
"26485","Peti Surat 61","Bandar Pusat Jengka","PHG"
"26485","Peti Surat 65","Bandar Pusat Jengka","PHG"
"26485","Peti Surat 66","Bandar Pusat Jengka","PHG"
"26485","Peti Surat 69","Bandar Pusat Jengka","PHG"
"26485","Peti Surat 7","Bandar Pusat Jengka","PHG"
"26490","Peti Surat 74","Bandar Pusat Jengka","PHG"
"26500","Aur Gading","Maran","PHG"
"26500","Belimbing","Maran","PHG"
"26500","Bukit Tajau","Maran","PHG"
"26500","Jengka 4","Maran","PHG"
"26500","Jengka 5","Maran","PHG"
"26500","Kampung Aur Gading","Maran","PHG"
"26500","Kampung Bakapor","Maran","PHG"
"26500","Kampung Baru Jara","Maran","PHG"
"26500","Kampung Berkat","Maran","PHG"
"26500","Kampung Gelugor","Maran","PHG"
"26500","Kampung Kuala Sentul","Maran","PHG"
"26500","Kampung Lembing","Maran","PHG"
"26500","Kampung Lubok Paku","Maran","PHG"
"26500","Kampung Megat","Maran","PHG"
"26500","Kampung New Zealand","Maran","PHG"
"26500","Kampung Paya Bungor","Maran","PHG"
"26500","Kampung Paya Mengkuang","Maran","PHG"
"26500","Kampung Paya Merbau","Maran","PHG"
"26500","Kampung Paya Pasir","Maran","PHG"
"26500","Kampung Paya Rambutan","Maran","PHG"
"26500","Kampung Semangat","Maran","PHG"
"26500","Kampung Senggora","Maran","PHG"
"26500","Kampung Sentosa","Maran","PHG"
"26500","Kampung Serangkam","Maran","PHG"
"26500","Kampung Seri Jaya","Maran","PHG"
"26500","Kampung Seri Makmur","Maran","PHG"
"26500","Kampung Sungai Bekelah","Maran","PHG"
"26500","Kampung Sungai Kertam","Maran","PHG"
"26500","Kampung Sungai Lepar","Maran","PHG"
"26500","Kampung Teras","Maran","PHG"
"26500","Kampung Ulu Luit","Maran","PHG"
"26500","Karung Berkunci","Maran","PHG"
"26500","Lengkor","Maran","PHG"
"26500","Maran","Maran","PHG"
"26500","Paya Bungor","Maran","PHG"
"26500","Paya Rambutan","Maran","PHG"
"26500","Perumahan Guru Berkat","Maran","PHG"
"26500","Perumahan Guru Sri Cendong","Maran","PHG"
"26500","RKT Bukit Tajau","Maran","PHG"
"26500","Seri Jaya","Maran","PHG"
"26500","Seri Makmur","Maran","PHG"
"26500","Simpang Chenor","Bandar Pusat Jengka","PHG"
"26500","Sungai Kertam","Maran","PHG"
"26500","Taman Emas Sri Jaya","Maran","PHG"
"26500","Taman Hock Chu Sri Jaya","Maran","PHG"
"26500","Taman Maran Damai","Maran","PHG"
"26500","Taman Maran Impian","Maran","PHG"
"26500","Taman Maran Jaya","Maran","PHG"
"26500","Taman Sri Desa","Maran","PHG"
"26500","Taman Sri Jaya Indah","Maran","PHG"
"26600","Bandar Baru Peramu","Pekan","PHG"
"26600","Jalan Ahmad","Pekan","PHG"
"26600","Jalan Engku Muda Mansor","Pekan","PHG"
"26600","Jalan Haji Arshah","Pekan","PHG"
"26600","Jalan Haji Mandak","Pekan","PHG"
"26600","Jalan Halimi","Pekan","PHG"
"26600","Jalan Istana Abu Bakar","Pekan","PHG"
"26600","Jalan Istana Permai","Pekan","PHG"
"26600","Jalan Jambatan Padang Tembak","Pekan","PHG"
"26600","Jalan Mahmud","Pekan","PHG"
"26600","Jalan Masjid Abdullah","Pekan","PHG"
"26600","Jalan Padang Tembak","Pekan","PHG"
"26600","Jalan Sultan Abu Bakar","Pekan","PHG"
"26600","Jalan Teng Que","Pekan","PHG"
"26600","Jalan Tengku Arif Bendahara","Pekan","PHG"
"26600","Jalan Tengku Besar Sulaiman","Pekan","PHG"
"26600","Jalan Tok Tuan","Pekan","PHG"
"26600","Kampung Alor Ara","Pekan","PHG"
"26600","Kampung Baru Permatang Pauh","Pekan","PHG"
"26600","Kampung Baru Tanah Puteh","Pekan","PHG"
"26600","Kampung Batu 1 (Pekan Kuantan)","Pekan","PHG"
"26600","Kampung Batu 9 (Pekan NenasI)","Pekan","PHG"
"26600","Kampung Durian Sebatang","Pekan","PHG"
"26600","Kampung Geylang","Pekan","PHG"
"26600","Kampung Jalan Rompin Lama","Pekan","PHG"
"26600","Kampung Kelat Rendang","Pekan","PHG"
"26600","Kampung Ketapang Hilir","Pekan","PHG"
"26600","Kampung Ketapang Tengah","Pekan","PHG"
"26600","Kampung Kolam Puteri","Pekan","PHG"
"26600","Kampung Lepar Baru Tanah Puteh","Pekan","PHG"
"26600","Kampung Maulana","Pekan","PHG"
"26600","Kampung Mengkasar","Pekan","PHG"
"26600","Kampung Padang Buloh","Pekan","PHG"
"26600","Kampung Padang Manggis","Pekan","PHG"
"26600","Kampung Padang Polo","Pekan","PHG"
"26600","Kampung Panchor","Pekan","PHG"
"26600","Kampung Parit Tengah","Pekan","PHG"
"26600","Kampung Pasir Panjang","Pekan","PHG"
"26600","Kampung Pelangkah","Pekan","PHG"
"26600","Kampung Penadah","Pekan","PHG"
"26600","Kampung Peramu Jaya","Pekan","PHG"
"26600","Kampung Peramu","Pekan","PHG"
"26600","Kampung Permatang Berangan","Pekan","PHG"
"26600","Kampung Permatang Kledang","Pekan","PHG"
"26600","Kampung Permatang Lembing","Pekan","PHG"
"26600","Kampung Permatang Pauh","Pekan","PHG"
"26600","Kampung Permatang Perawan","Pekan","PHG"
"26600","Kampung Pulau Engku Muda","Pekan","PHG"
"26600","Kampung Pulau Injin","Pekan","PHG"
"26600","Kampung Pulau Jawa","Pekan","PHG"
"26600","Kampung Pulau Keladi","Pekan","PHG"
"26600","Kampung Pulau Serai","Pekan","PHG"
"26600","Kampung Pulau Tambun","Pekan","PHG"
"26600","Kampung Sekor","Pekan","PHG"
"26600","Kampung Sekukoh","Pekan","PHG"
"26600","Kampung Semantan Ulu","Pekan","PHG"
"26600","Kampung Sungai Kalong","Pekan","PHG"
"26600","Kampung Sungai Mat Dulang","Pekan","PHG"
"26600","Kampung Sungai Miang","Pekan","PHG"
"26600","Kampung Tanah Puteh","Pekan","PHG"
"26600","Kampung Tanjong Agas","Pekan","PHG"
"26600","Kampung Tanjong Medang","Pekan","PHG"
"26600","Kampung Tanjung Agas","Pekan","PHG"
"26600","Ketapang Hilir","Pekan","PHG"
"26600","Majlis Agama Islam Pahang","Pekan","PHG"
"26600","Pasir Panjang","Pekan","PHG"
"26600","Pekan Lama","Pekan","PHG"
"26600","Pekan","Pekan","PHG"
"26600","Peramu Jaya","Pekan","PHG"
"26600","Peramu","Pekan","PHG"
"26600","Permatang Pasir","Pekan","PHG"
"26600","Perumahan Shahbandar","Pekan","PHG"
"26600","Pulau Jawa","Pekan","PHG"
"26600","Pulau Keladi","Pekan","PHG"
"26600","Pulau Tambun","Pekan","PHG"
"26600","Taman LKNP Peramu","Pekan","PHG"
"26600","Taman Maulana","Pekan","PHG"
"26600","Taman Mentiga Jaya","Pekan","PHG"
"26600","Taman Perdana Jaya","Pekan","PHG"
"26600","Taman Pertama","Pekan","PHG"
"26600","Taman Seri Aman","Pekan","PHG"
"26600","Taman Seri Maulana","Pekan","PHG"
"26600","Taman Seri Pekan","Pekan","PHG"
"26600","Tanah Puteh","Pekan","PHG"
"26600","Tanjong Medang","Pekan","PHG"
"26607","Pekan - Peti surat","Pekan","PHG"
"26609","Pekan - Beg berkunci","Pekan","PHG"
"26610","Kampung Baharu Ubai","Pekan","PHG"
"26610","Kampung Cherok Paloh","Pekan","PHG"
"26610","Kampung Hijrah","Pekan","PHG"
"26610","Kampung Permatang Che Hamid","Pekan","PHG"
"26610","Kampung Permatang Gelugor","Pekan","PHG"
"26610","Kampung Permatang Merbau","Pekan","PHG"
"26610","Kampung Permatang Setongkol","Pekan","PHG"
"26610","Kampung Tebing Tinggi","Pekan","PHG"
"26610","Kampung Ubai","Pekan","PHG"
"26610","Merbau","Pekan","PHG"
"26610","Permatang Merbau","Pekan","PHG"
"26610","Permatang Redan","Pekan","PHG"
"26610","Tebing Tinggi","Pekan","PHG"
"26620","Kampung Benta","Pekan","PHG"
"26620","Kampung Jambu Langgar","Pekan","PHG"
"26620","Kampung Kerayong","Pekan","PHG"
"26620","Kampung Lamir","Pekan","PHG"
"26620","Kampung Langgar","Pekan","PHG"
"26620","Kampung Pahang Tua","Pekan","PHG"
"26620","Taman Seri Jambu","Pekan","PHG"
"26620","Ubai Baru","Pekan","PHG"
"26630","Kampung Ayer Lian","Pekan","PHG"
"26630","Kampung Dato Keramat (Gancong)","Pekan","PHG"
"26630","Kampung Ganchong Tengah","Pekan","PHG"
"26630","Kampung Ganchong Ulu","Pekan","PHG"
"26630","Kampung Ganchong","Pekan","PHG"
"26630","Kampung Gancong Tengah","Pekan","PHG"
"26630","Kampung Kiambang Gancong","Pekan","PHG"
"26630","Kampung Kiambang","Pekan","PHG"
"26630","Kampung Permatang Sileh","Pekan","PHG"
"26630","Kampung Pulau Rusa","Pekan","PHG"
"26630","Kampung Sawah","Pekan","PHG"
"26630","Kampung Tanjong Batu","Pekan","PHG"
"26630","Kampung Tanjong Rengas","Pekan","PHG"
"26630","Kampung Telok Hilir","Pekan","PHG"
"26630","Kampung Telok","Pekan","PHG"
"26630","Permatang Lanjut","Pekan","PHG"
"26630","Pulau Manis","Pekan","PHG"
"26630","Pulau Rusa","Pekan","PHG"
"26630","Tanjong Batu Gancong","Pekan","PHG"
"26640","GanChong (Temai)","Pekan","PHG"
"26640","Kampung Acheh","Pekan","PHG"
"26640","Kampung Jarau","Pekan","PHG"
"26640","Kampung Padang Rumbia","Pekan","PHG"
"26640","Kampung Permatang Siput","Pekan","PHG"
"26640","Kampung Pulau Manis","Pekan","PHG"
"26640","Kampung Pulau Rumput","Pekan","PHG"
"26640","Kampung Riti","Pekan","PHG"
"26640","Kampung Tanjong Penyengat","Pekan","PHG"
"26640","Kampung Temai Hilir","Pekan","PHG"
"26640","Kampung Temai Hulu","Pekan","PHG"
"26640","Kampung Temai Tengah","Pekan","PHG"
"26640","Kampung Temai","Pekan","PHG"
"26640","Sungai Ganchong (Batu 10)","Pekan","PHG"
"26650","Ayer Hitam","Pekan","PHG"
"26650","Batu Sawar","Pekan","PHG"
"26650","Benut","Pekan","PHG"
"26650","Kampung Batu Balik","Pekan","PHG"
"26650","Kampung Bunut","Pekan","PHG"
"26650","Kampung Kuala Lepar","Pekan","PHG"
"26650","Kampung Mambang","Pekan","PHG"
"26650","Kampung Melayu Sungai Duri","Pekan","PHG"
"26650","Kampung Serambi","Pekan","PHG"
"26650","Kampung Sungai Duri","Pekan","PHG"
"26650","Kampung Tanjong Paloh Hinai","Pekan","PHG"
"26650","Kampung Tebat","Pekan","PHG"
"26650","Kampung Terlang","Pekan","PHG"
"26650","Kuala Lepar","Pekan","PHG"
"26650","Kuala Mentega","Pekan","PHG"
"26650","Mencapu","Pekan","PHG"
"26650","Paloh Hinai Bandar 2","Pekan","PHG"
"26650","Paloh Hinai","Pekan","PHG"
"26650","Pelak","Pekan","PHG"
"26660","Kampung Air Leleh","Pekan","PHG"
"26660","Kampung Baru Kuala Pahang","Pekan","PHG"
"26660","Kampung Bentam","Pekan","PHG"
"26660","Kampung Bentan","Pekan","PHG"
"26660","Kampung Beruas Darat Sam","Pekan","PHG"
"26660","Kampung Beruas","Pekan","PHG"
"26660","Kampung Contoh Kuala Pahang","Pekan","PHG"
"26660","Kampung Darat Serandu","Pekan","PHG"
"26660","Kampung Jalan Tegak","Pekan","PHG"
"26660","Kampung Makam","Pekan","PHG"
"26660","Kampung Marhum","Pekan","PHG"
"26660","Kampung Masjid","Pekan","PHG"
"26660","Kampung Nyor Manis","Pekan","PHG"
"26660","Kampung Pantai","Pekan","PHG"
"26660","Kampung Permatang Nangka","Pekan","PHG"
"26660","Kampung Serandu Pantai","Pekan","PHG"
"26660","Kampung Serandu","Pekan","PHG"
"26660","Kampung Siong","Pekan","PHG"
"26660","Kampung Spook","Pekan","PHG"
"26660","Kampung Tanjong Pulai","Pekan","PHG"
"26660","Kampung Tanjong Selangor","Pekan","PHG"
"26660","Kuala Pahang","Pekan","PHG"
"26660","Permatang Arang","Pekan","PHG"
"26660","Serambi","Pekan","PHG"
"26660","Taman Perumahan Mawar","Pekan","PHG"
"26660","Taman RRM (Kuala Pahang)","Pekan","PHG"
"26680","Kampung Badong","Pekan","PHG"
"26680","Kampung Beluru","Pekan","PHG"
"26680","Kampung Block","Pekan","PHG"
"26680","Kampung Bok Udang","Pekan","PHG"
"26680","Kampung Che Limah","Pekan","PHG"
"26680","Kampung Jambu","Pekan","PHG"
"26680","Kampung Kajang","Pekan","PHG"
"26680","Kampung Melanda","Pekan","PHG"
"26680","Kampung Merchong","Pekan","PHG"
"26680","Kampung Nenasi","Pekan","PHG"
"26680","Kampung Pa'at","Pekan","PHG"
"26680","Kampung Palas","Pekan","PHG"
"26680","Kampung Pandan","Pekan","PHG"
"26680","Kampung Permatang Tengeling","Pekan","PHG"
"26680","Kampung Riong","Pekan","PHG"
"26680","Kampung Sepour","Pekan","PHG"
"26680","Kampung Serun","Pekan","PHG"
"26680","Kampung Singir","Pekan","PHG"
"26680","Kampung Tanjong Nenasi","Pekan","PHG"
"26680","Kampung Tanjung Batu Nenasi","Pekan","PHG"
"26680","Kampung Tengah","Pekan","PHG"
"26680","Kampung Tepong","Pekan","PHG"
"26680","Kampung Teriang","Pekan","PHG"
"26680","Kubang Sega","Pekan","PHG"
"26680","NenasI","Pekan","PHG"
"26680","Permatang Kelempang","Pekan","PHG"
"26680","Permatang Tebing Tinggi","Pekan","PHG"
"26690","Bandar 1","Chini","PHG"
"26690","Bandar Chini","Chini","PHG"
"26690","Chini","Chini","PHG"
"26690","Felda Chini (2, 3, 5)","Chini","PHG"
"26690","Felda Chini Timor (2 - 3)","Chini","PHG"
"26690","Tanjung Batu","Chini","PHG"
"26700","Bandar 14 Kota Bahagia","Muadzam Shah","PHG"
"26700","Bandar 19","Muadzam Shah","PHG"
"26700","Bandar 22","Muadzam Shah","PHG"
"26700","Bandar 8 (Kota Perdana)","Muadzam Shah","PHG"
"26700","Bandar Muadzam Shah","Muadzam Shah","PHG"
"26700","Bukit Ibam","Muadzam Shah","PHG"
"26700","Chenderawaseh","Muadzam Shah","PHG"
"26700","Chini Timur","Muadzam Shah","PHG"
"26700","Desa Anggerik","Muadzam Shah","PHG"
"26700","Desa Bidara","Muadzam Shah","PHG"
"26700","Desa Chempaka","Muadzam Shah","PHG"
"26700","Desa Dahlia","Muadzam Shah","PHG"
"26700","Desa Jati (1 - 2)","Muadzam Shah","PHG"
"26700","Desa Keranji","Muadzam Shah","PHG"
"26700","Desa Mawar 2","Muadzam Shah","PHG"
"26700","Desa Mawar","Muadzam Shah","PHG"
"26700","Desa Melor","Muadzam Shah","PHG"
"26700","Desa Tanjung","Muadzam Shah","PHG"
"26700","Desa Teratai","Muadzam Shah","PHG"
"26700","Felda Selancar 1 - 5","Muadzam Shah","PHG"
"26700","Kampung Alai","Muadzam Shah","PHG"
"26700","Kampung Aur","Muadzam Shah","PHG"
"26700","Kampung Bukit Serok","Muadzam Shah","PHG"
"26700","Kampung Lubok Batu","Muadzam Shah","PHG"
"26700","Kampung Meripoh","Muadzam Shah","PHG"
"26700","Kawasan Industri BMS","Muadzam Shah","PHG"
"26700","Kawasan Kilang Bukit Ibam","Muadzam Shah","PHG"
"26700","Kota Perdana","Muadzam Shah","PHG"
"26700","Muadzam Shah","Muadzam Shah","PHG"
"26700","Pinggir Gelanggi","Muadzam Shah","PHG"
"26700","Sekolah Kebangsaan Muadzam Jaya","Muadzam Shah","PHG"
"26700","Sekolah Kebangsaan Muadzam Shah","Muadzam Shah","PHG"
"26700","Sekolah Menengah Muadzam Jaya","Muadzam Shah","PHG"
"26700","Sekolah Menengah Muadzam Shah","Muadzam Shah","PHG"
"26700","Selancar Dua","Muadzam Shah","PHG"
"26700","Taman Uniten","Muadzam Shah","PHG"
"26800","Bandar Baru","Kuala Rompin","PHG"
"26800","Kampung Bahagia","Kuala Rompin","PHG"
"26800","Kampung Pantai Bruas","Kuala Rompin","PHG"
"26800","Kampung Pantai Hiburan","Kuala Rompin","PHG"
"26800","Kampung Pantai","Kuala Rompin","PHG"
"26800","Kampung Parit Raja","Kuala Rompin","PHG"
"26800","Kampung Parit","Kuala Rompin","PHG"
"26800","Kampung Pulau Lang","Kuala Rompin","PHG"
"26800","Kampung Sempayang","Kuala Rompin","PHG"
"26800","Kampung Sepakat","Kuala Rompin","PHG"
"26800","Kampung Sungai Putri","Kuala Rompin","PHG"
"26800","Kampung Tanjong Tengku","Kuala Rompin","PHG"
"26800","Kampung Tengah","Kuala Rompin","PHG"
"26800","Kuala Pontian","Kuala Rompin","PHG"
"26800","Kuala Rompin","Kuala Rompin","PHG"
"26800","Pulau Lang Kanan","Kuala Rompin","PHG"
"26800","Pulau Lang Kiri","Kuala Rompin","PHG"
"26810","Kampung Api Larat","Kuala Rompin","PHG"
"26810","Kampung Ayau","Kuala Rompin","PHG"
"26810","Kampung Bangkang","Kuala Rompin","PHG"
"26810","Kampung Bukit Payong","Kuala Rompin","PHG"
"26810","Kampung Feri Sabak","Kuala Rompin","PHG"
"26810","Kampung Feri","Kuala Rompin","PHG"
"26810","Kampung Gading","Kuala Rompin","PHG"
"26810","Kampung Lanjut","Kuala Rompin","PHG"
"26810","Kampung Leban Chondong","Kuala Rompin","PHG"
"26810","Kampung Pantai Bernas","Kuala Rompin","PHG"
"26810","Kampung Rantau Panjang","Kuala Rompin","PHG"
"26810","Simpang Sepayang","Kuala Rompin","PHG"
"26820","Kampung Batu 7 (Tanjung Gemok)","Kuala Rompin","PHG"
"26820","Kampung Janglau","Kuala Rompin","PHG"
"26820","Kampung Jawa","Kuala Rompin","PHG"
"26820","Kampung Kasing","Kuala Rompin","PHG"
"26820","Kampung Lantang","Kuala Rompin","PHG"
"26820","Kampung Lubok Gumbang","Kuala Rompin","PHG"
"26820","Kampung Menchali","Kuala Rompin","PHG"
"26820","Kampung Mentara","Kuala Rompin","PHG"
"26820","Kampung Orang Asli","Kuala Rompin","PHG"
"26820","Kampung Permatang Gorek","Kuala Rompin","PHG"
"26820","Kampung Pianggu","Kuala Rompin","PHG"
"26820","Kampung Sarang Tiong","Kuala Rompin","PHG"
"26820","Kampung Serinkin","Kuala Rompin","PHG"
"26820","Kampung Setajam","Kuala Rompin","PHG"
"26820","Kampung Setambang","Kuala Rompin","PHG"
"26820","Kampung Tambang","Kuala Rompin","PHG"
"26820","Kampung Tanjong Gemok","Kuala Rompin","PHG"
"26820","Kampung Tanjong Pahang","Kuala Rompin","PHG"
"26820","Kampung Tanjong Putus","Kuala Rompin","PHG"
"26820","Kampung Tengah (Tanjung Gemok)","Kuala Rompin","PHG"
"26820","Leban Chondong","Kuala Rompin","PHG"
"26820","Selanchar Darat","Kuala Rompin","PHG"
"26820","Selanchar Laut","Kuala Rompin","PHG"
"26820","Tanjung Gemok","Kuala Rompin","PHG"
"26900","Bandar 14 (Kota Bahagia)","Bandar Tun Abdul Razak","PHG"
"26900","Bandar Tun Abdul Razak","Bandar Tun Abdul Razak","PHG"
"26900","Kampung Alai","Bandar Tun Abdul Razak","PHG"
"26900","Kampung Bukit Serok","Bandar Tun Abdul Razak","PHG"
"26900","Kampung Lubok Batu","Bandar Tun Abdul Razak","PHG"
"26900","Kampung Maripoh","Bandar Tun Abdul Razak","PHG"
"27000","Bersungai Tembeling","Jerantut","PHG"
"27000","Jalan Sejahtera","Jerantut","PHG"
"27000","Jalan Teratai 2","Jerantut","PHG"
"27000","Jerantut","Jerantut","PHG"
"27000","Kampung Batu Embun","Jerantut","PHG"
"27000","Kampung Batu Kawah","Jerantut","PHG"
"27000","Kampung Besol","Jerantut","PHG"
"27000","Kampung Binjai","Jerantut","PHG"
"27000","Kampung Bukit Dinding","Jerantut","PHG"
"27000","Kampung Bukit Genting","Jerantut","PHG"
"27000","Kampung Bukit Ketupat","Jerantut","PHG"
"27000","Kampung Bukit Puas","Jerantut","PHG"
"27000","Kampung Buntut Pulau","Jerantut","PHG"
"27000","Kampung Gintong","Jerantut","PHG"
"27000","Kampung Jerangsang","Jerantut","PHG"
"27000","Kampung Jerangsong","Jerantut","PHG"
"27000","Kampung Kota GelangGI (1 & 2)","Jerantut","PHG"
"27000","Kampung Kuala Tahan","Jerantut","PHG"
"27000","Kampung Lata Kasah","Jerantut","PHG"
"27000","Kampung Mat Kilau","Jerantut","PHG"
"27000","Kampung Muhibbah","Jerantut","PHG"
"27000","Kampung Padang Piol","Jerantut","PHG"
"27000","Kampung Pamah Kuning","Jerantut","PHG"
"27000","Kampung Paya Garok","Jerantut","PHG"
"27000","Kampung Paya The","Jerantut","PHG"
"27000","Kampung Simpang Tebing Tinggi","Jerantut","PHG"
"27000","Kampung Sokti","Jerantut","PHG"
"27000","Kampung Sri Kool","Jerantut","PHG"
"27000","Kampung Sri Muda","Jerantut","PHG"
"27000","Kampung Sungai Badak","Jerantut","PHG"
"27000","Kampung Sungai Lekok","Jerantut","PHG"
"27000","Kampung Sungai Par Jerantut","Jerantut","PHG"
"27000","Kampung Tanjong Benta","Jerantut","PHG"
"27000","Kampung Tebing Tinggi","Jerantut","PHG"
"27000","Kampung Temin Hilir","Jerantut","PHG"
"27000","Kampung Temin Ulu","Jerantut","PHG"
"27000","Keratong (1 - 10)","Jerantut","PHG"
"27000","Km 2 Jalan Temerloh","Jerantut","PHG"
"27000","Kota Gelanggi 1 - 2","Jerantut","PHG"
"27000","Kuala Tahan","Jerantut","PHG"
"27000","Lorong Damai 6/3","Jerantut","SGR"
"27000","Lorong Embun Jaya 2","Jerantut","PHG"
"27000","Lorong SI 2","Jerantut","PHG"
"27000","Lorong Taman WJ","Jerantut","PHG"
"27000","Lorong Wawasan 1/1","Jerantut","PHG"
"27000","Mukim Pedah","Jerantut","PHG"
"27000","Perumahan Kos Rendah Kampung Jaya Jerantut","Jerantut","PHG"
"27000","RRM Bandar Baru","Jerantut","PHG"
"27000","Sungai Jan","Jerantut","PHG"
"27000","Taman Alamanda","Jerantut","PHG"
"27000","Taman Angsana","Jerantut","PHG"
"27000","Taman Berlian","Jerantut","PHG"
"27000","Taman Bukit Ketupat","Jerantut","PHG"
"27000","Taman Bukit Pedah","Jerantut","PHG"
"27000","Taman Bukit Permai","Jerantut","PHG"
"27000","Taman Cempaka","Jerantut","PHG"
"27000","Taman Damai Fasa 3","Jerantut","SGR"
"27000","Taman Damai","Jerantut","PHG"
"27000","Taman Desa Indah","Jerantut","PHG"
"27000","Taman Desa Jaya","Jerantut","PHG"
"27000","Taman Desa Wawasan","Jerantut","PHG"
"27000","Taman Gemilang","Jerantut","PHG"
"27000","Taman Impian","Jerantut","PHG"
"27000","Taman Inderapura","Jerantut","PHG"
"27000","Taman Jaya","Jerantut","PHG"
"27000","Taman Jerantut","Jerantut","PHG"
"27000","Taman Kelisa","Jerantut","PHG"
"27000","Taman Koperasi","Jerantut","PHG"
"27000","Taman LKNP 1 - 4","Jerantut","PHG"
"27000","Taman Mat Kilau","Jerantut","PHG"
"27000","Taman Mawar Murni","Jerantut","PHG"
"27000","Taman Mawar","Jerantut","PHG"
"27000","Taman Muhibbah","Jerantut","PHG"
"27000","Taman Mutiara","Jerantut","PHG"
"27000","Taman Pedah Jaya","Jerantut","PHG"
"27000","Taman Pelangi","Jerantut","PHG"
"27000","Taman Perdana","Jerantut","PHG"
"27000","Taman Pine","Jerantut","PHG"
"27000","Taman Raya Wira","Jerantut","PHG"
"27000","Taman Raya","Jerantut","PHG"
"27000","Taman Ria","Jerantut","PHG"
"27000","Taman Ruby","Jerantut","PHG"
"27000","Taman Saujana Idaman","Jerantut","PHG"
"27000","Taman Sejahtera","Jerantut","PHG"
"27000","Taman Sentosa","Jerantut","PHG"
"27000","Taman Sri Embun","Jerantut","PHG"
"27000","Taman Sri Makmur","Jerantut","PHG"
"27000","Taman Sri Tahan","Jerantut","PHG"
"27000","Taman Teratai","Jerantut","PHG"
"27000","Taman Tiow Soon","Jerantut","PHG"
"27000","Taman Woodland Jaya","Jerantut","PHG"
"27000","Ulu Tembeling Damak","Jerantut","PHG"
"27000","Ulu Tembeling","Jerantut","PHG"
"27010","Kampung Cheka","Jerantut","PHG"
"27010","Kampung Gading","Jerantut","PHG"
"27010","Kampung Gemunchor","Jerantut","PHG"
"27010","Kampung Jani","Jerantut","PHG"
"27010","Kampung Limau Purut","Jerantut","PHG"
"27010","Kampung Redan","Jerantut","PHG"
"27010","Kampung Sarak","Jerantut","PHG"
"27010","Kampung Selang Datok","Jerantut","PHG"
"27010","Kampung Serdang","Jerantut","PHG"
"27010","Kampung Serunai","Jerantut","PHG"
"27010","Mela Jerantut","Jerantut","PHG"
"27020","Kampung Kuala Retang","Jerantut","PHG"
"27020","Kampung Lahang","Jerantut","PHG"
"27020","Kampung Lalang","Jerantut","PHG"
"27020","Kampung Pamah Limau","Jerantut","PHG"
"27020","Kampung Sepail","Jerantut","PHG"
"27020","Kampung Sungai Yap","Jerantut","PHG"
"27020","Kampung Talus","Jerantut","PHG"
"27020","Kampung Tanjung Bungor","Jerantut","PHG"
"27020","Kuala Tembeling","Jerantut","PHG"
"27030","Batu Balai","Damak","PHG"
"27030","Bukit Chermin","Damak","PHG"
"27030","Damak","Damak","PHG"
"27030","Jalan Masjid Jamek","Damak","PHG"
"27030","Kampung Anak Gajah","Damak","PHG"
"27030","Kampung Balang","Damak","PHG"
"27030","Kampung Batu 35","Damak","PHG"
"27030","Kampung Batu 40","Damak","PHG"
"27030","Kampung Batu Balai Jambatan","Damak","PHG"
"27030","Kampung Batu Balai","Damak","PHG"
"27030","Kampung Bau","Damak","PHG"
"27030","Kampung Berau","Damak","PHG"
"27030","Kampung Berlukar","Damak","PHG"
"27030","Kampung Bukit Baru","Damak","PHG"
"27030","Kampung Bukit Batu","Damak","PHG"
"27030","Kampung Bukit Kor","Damak","PHG"
"27030","Kampung Cengkuak","Damak","PHG"
"27030","Kampung Chap","Damak","PHG"
"27030","Kampung Damak","Damak","PHG"
"27030","Kampung Jaya Putra","Damak","PHG"
"27030","Kampung Jelai","Damak","PHG"
"27030","Kampung Jeneris","Damak","PHG"
"27030","Kampung Jinggu","Damak","PHG"
"27030","Kampung Kaki Bukit","Damak","PHG"
"27030","Kampung Koi","Damak","PHG"
"27030","Kampung Konggo","Damak","PHG"
"27030","Kampung Peka Sari Ulu Chek","Damak","PHG"
"27030","Kampung Perlok","Damak","PHG"
"27030","Kampung Sempadan","Damak","PHG"
"27030","Kampung Som","Damak","PHG"
"27030","Kampung Sungai Balang","Damak","PHG"
"27030","Kampung Sungai Berjuang","Damak","PHG"
"27030","Kampung Tanjung Puteri","Damak","PHG"
"27030","Kampung Tengah","Damak","PHG"
"27030","Kampung Tepam","Damak","PHG"
"27030","Kampung Terlang","Damak","PHG"
"27030","Kampung Ulu Cheka","Jerantut","PHG"
"27030","Kawasan Pejabat","Damak","PHG"
"27030","Kuala Kenang","Damak","PHG"
"27030","Ladang Kingsmeat","Damak","PHG"
"27030","Rps Batu Balai","Damak","PHG"
"27030","Taman Damak","Damak","PHG"
"27030","Taman Sri Damak","Damak","PHG"
"27030","Ulu Cheka Damak","Damak","PHG"
"27040","Felda Sungai Retang","Jerantut","PHG"
"27040","Kampung Gajah Mati","Jerantut","PHG"
"27040","Kampung Hulu Retang","Jerantut","PHG"
"27040","Kampung Pasir Durian","Jerantut","PHG"
"27040","Kampung Sungai Putat","Jerantut","PHG"
"27040","Kampung Tanjung Betong","Jerantut","PHG"
"27040","Padang Piol","Jerantut","PHG"
"27050","Bukit Rang","Jerantut","PHG"
"27050","Burau","Jerantut","PHG"
"27050","Kampung Bandar","Jerantut","PHG"
"27050","Kampung Kedondong","Jerantut","PHG"
"27050","Kampung Kerayong","Jerantut","PHG"
"27050","Kampung Kubang Sekandal","Jerantut","PHG"
"27050","Kampung Masjid","Jerantut","PHG"
"27050","Kampung Pamah Keruing","Jerantut","PHG"
"27050","Kampung Perian","Jerantut","PHG"
"27050","Pulau Tawar","Jerantut","PHG"
"27050","Sungai Retang","Jerantut","PHG"
"27060","Sungai Tekam Utara","Jerantut","PHG"
"27070","Felda Sungai Tekam","Jerantut","PHG"
"27070","Sungai Kepong","Jerantut","PHG"
"27070","Sungai Tekam Jerantut","Jerantut","PHG"
"27090","Kampung Batu Leja","Jerantut","PHG"
"27090","Kampung Benta","Jerantut","PHG"
"27090","Kampung Bukit Nikmat","Jerantut","PHG"
"27090","Kampung Burau","Jerantut","PHG"
"27090","Kampung Durian Hijau","Jerantut","PHG"
"27090","Kampung Kelola","Jerantut","PHG"
"27090","Kampung Kepala Pulau","Jerantut","PHG"
"27090","Kampung Padang Sengkelau","Jerantut","PHG"
"27090","Kampung Tanjong Antam","Jerantut","PHG"
"27090","Kampung Tanjong Belanja","Jerantut","PHG"
"27100","Batu 16 Jalan Pagar Sasak","Padang Tengku","PHG"
"27100","Felda Chegar Perah (1 - 4)","Padang Tengku","PHG"
"27100","Felda Kechau (1 - 7)","Padang Tengku","PHG"
"27100","Kampung Balik Gua","Padang Tengku","PHG"
"27100","Kampung Baru","Padang Tengku","PHG"
"27100","Kampung Batu Burong","Padang Tengku","PHG"
"27100","Kampung Batu Nering","Padang Tengku","PHG"
"27100","Kampung Beralas","Padang Tengku","PHG"
"27100","Kampung Berchang","Padang Tengku","PHG"
"27100","Kampung Bukit","Padang Tengku","PHG"
"27100","Kampung Daling Hilir/Hulu","Padang Tengku","PHG"
"27100","Kampung Dusun","Padang Tengku","PHG"
"27100","Kampung Gelanggang","Padang Tengku","PHG"
"27100","Kampung Gua","Padang Tengku","PHG"
"27100","Kampung Kebal","Padang Tengku","PHG"
"27100","Kampung Kechor Tui","Padang Tengku","PHG"
"27100","Kampung Keramat","Padang Tengku","PHG"
"27100","Kampung Kuala Bedong","Padang Tengku","PHG"
"27100","Kampung Kuala Tebang","Padang Tengku","PHG"
"27100","Kampung Melaka","Padang Tengku","PHG"
"27100","Kampung Padang Lebak","Padang Tengku","PHG"
"27100","Kampung Pagar Sasak","Padang Tengku","PHG"
"27100","Kampung Pamah Jijak","Padang Tengku","PHG"
"27100","Kampung Pasir Sia","Padang Tengku","PHG"
"27100","Kampung Perlak","Padang Tengku","PHG"
"27100","Kampung Petola","Padang Tengku","PHG"
"27100","Kampung Rimau","Padang Tengku","PHG"
"27100","Kampung Seberang Jelai","Padang Tengku","PHG"
"27100","Kampung Selindang","Padang Tengku","PHG"
"27100","Kampung Sentang","Padang Tengku","PHG"
"27100","Kampung Sungai Mun","Padang Tengku","PHG"
"27100","Kampung Teha","Padang Tengku","PHG"
"27100","Kampung Telemin","Padang Tengku","PHG"
"27100","Kampung Tenggok","Padang Tengku","PHG"
"27100","LKTP Kecau 1","Padang Tengku","PHG"
"27100","Ladang Dura","Padang Tengku","PHG"
"27100","Ladang Selborne","Padang Tengku","PHG"
"27100","Lubok Kulit","Padang Tengku","PHG"
"27100","Padang Tengku","Padang Tengku","PHG"
"27100","Sungai Selancar","Padang Tengku","PHG"
"27150","Kampung Jerantut Feri","Jerantut","PHG"
"27150","Kampung Kelonding","Jerantut","PHG"
"27150","Kampung Kolam","Jerantut","PHG"
"27150","Kampung Lada","Jerantut","PHG"
"27150","Kampung Pamah Dusun","Jerantut","PHG"
"27150","Kampung Paya Gunong","Jerantut","PHG"
"27150","Kampung Pedah","Jerantut","PHG"
"27150","Kampung Sentosa","Jerantut","PHG"
"27150","Kampung Tanah Nyior","Jerantut","PHG"
"27150","Taman Sri Pedah","Jerantut","PHG"
"27200","Batu Sepuloh","Kuala Lipis","PHG"
"27200","Bukit Betong","Kuala Lipis","PHG"
"27200","Desa Aman","Kuala Lipis","PHG"
"27200","Desa Jeram Batu","Kuala Lipis","PHG"
"27200","Desa Kenari","Kuala Lipis","PHG"
"27200","Kampung Banja","Kuala Lipis","PHG"
"27200","Kampung Bapong","Kuala Lipis","PHG"
"27200","Kampung Baru Cina Penjom","Kuala Lipis","PHG"
"27200","Kampung Batu 3","Kuala Lipis","PHG"
"27200","Kampung Batu Kurap","Kuala Lipis","PHG"
"27200","Kampung Berang","Kuala Lipis","PHG"
"27200","Kampung Berembang","Kuala Lipis","PHG"
"27200","Kampung Binjai","Kuala Lipis","PHG"
"27200","Kampung Bukit Betong","Kuala Lipis","PHG"
"27200","Kampung Bukit Damar","Kuala Lipis","PHG"
"27200","Kampung Bukit Tualang","Kuala Lipis","PHG"
"27200","Kampung Dala","Kuala Lipis","PHG"
"27200","Kampung Genting","Kuala Lipis","PHG"
"27200","Kampung Jeram Bongor","Kuala Lipis","PHG"
"27200","Kampung Jeram Landak","Kuala Lipis","PHG"
"27200","Kampung Kechau","Kuala Lipis","PHG"
"27200","Kampung Keledek","Kuala Lipis","PHG"
"27200","Kampung Kuala Kechau","Kuala Lipis","PHG"
"27200","Kampung Lalang","Kuala Lipis","PHG"
"27200","Kampung Lanar","Kuala Lipis","PHG"
"27200","Kampung Lubok Kulit","Kuala Lipis","PHG"
"27200","Kampung Pagar","Kuala Lipis","PHG"
"27200","Kampung Relong","Kuala Lipis","PHG"
"27200","Kampung Rengai","Kuala Lipis","PHG"
"27200","Kampung Rusa","Kuala Lipis","PHG"
"27200","Kampung Salang","Kuala Lipis","PHG"
"27200","Kampung Sentang","Kuala Lipis","PHG"
"27200","Kampung Sibar","Kuala Lipis","PHG"
"27200","Kampung Sungkai","Kuala Lipis","PHG"
"27200","Kampung Tanah Rom","Kuala Lipis","PHG"
"27200","Kampung Tanjong Lipis","Kuala Lipis","PHG"
"27200","Kampung Tanjong Rambai","Kuala Lipis","PHG"
"27200","Kampung Temperah","Kuala Lipis","PHG"
"27200","Kampung Tempoyang","Kuala Lipis","PHG"
"27200","Kampung Ulu Teris","Kuala Lipis","PHG"
"27200","Kem Bina Negara","Kuala Lipis","PHG"
"27200","Kerambit","Kuala Lipis","PHG"
"27200","Krambit","Kuala Lipis","PHG"
"27200","Kuala Lipis","Kuala Lipis","PHG"
"27200","MRSM Kuala Lipis","Kuala Lipis","PHG"
"27200","Penjom","Kuala Lipis","PHG"
"27200","RTP Sungai Ular","Kuala Lipis","PHG"
"27200","Rumah Kilat","Kuala Lipis","PHG"
"27200","Rumah Murah Sungai Kerpan","Kuala Lipis","PHG"
"27200","Rumah Murah","Kuala Lipis","PHG"
"27200","Sekolah Kebangsaan Sri Lipis","Kuala Lipis","PHG"
"27200","Sekolah Menegah Kuala Lanar","Kuala Lipis","PHG"
"27200","Sekolah Menegah Sri Lipis","Kuala Lipis","PHG"
"27200","Taman Cahaya","Kuala Lipis","PHG"
"27200","Taman Damai","Kuala Lipis","PHG"
"27200","Taman Desa Chuan","Kuala Lipis","PHG"
"27200","Taman Jelai","Kuala Lipis","PHG"
"27200","Taman KSM","Kuala Lipis","PHG"
"27200","Taman LKNP","Kuala Lipis","PHG"
"27200","Taman Lipis","Kuala Lipis","PHG"
"27200","Taman Muhibbah","Kuala Lipis","PHG"
"27200","Taman Penjom Jaya","Kuala Lipis","PHG"
"27200","Taman Permai Sejahtera","Kuala Lipis","PHG"
"27200","Taman Permai","Kuala Lipis","PHG"
"27200","Taman Pertama","Kuala Lipis","PHG"
"27200","Taman SPPK","Kuala Lipis","PHG"
"27200","Taman Setia Jaya","Kuala Lipis","PHG"
"27200","Taman Sri Tempoyang","Kuala Lipis","PHG"
"27200","Tanjung Jati","Kuala Lipis","PHG"
"27207","Kuala Lipis - Peti surat","Kuala Lipis","PHG"
"27209","Kuala Lipis - Beg berkunci","Kuala Lipis","PHG"
"27210","Kampung Gua Kalong","Kuala Lipis","PHG"
"27210","Kampung Gua Layang","Kuala Lipis","PHG"
"27210","Kampung Kuala Salak","Kuala Lipis","PHG"
"27210","Kampung Kumbang Hilir","Kuala Lipis","PHG"
"27210","Kampung Kumbang Hulu","Kuala Lipis","PHG"
"27210","Kampung Kumbang Tengah","Kuala Lipis","PHG"
"27210","Kampung Merapoh","Kuala Lipis","PHG"
"27210","Kampung Merhamah","Kuala Lipis","PHG"
"27210","Kampung Persit","Kuala Lipis","PHG"
"27210","Kampung Tanggang","Kuala Lipis","PHG"
"27300","Benta","Benta","PHG"
"27300","JPJ Batu 11 Jalan Kuala Lipis","Benta","PHG"
"27300","Kampung Atong","Benta","PHG"
"27300","Kampung Batu Buaya","Benta","PHG"
"27300","Kampung Kadok","Benta","PHG"
"27300","Kampung Kemahang","Benta","PHG"
"27300","Kampung Melayu","Benta","PHG"
"27300","Kampung Peruang","Benta","PHG"
"27300","Kampung Sama","Benta","PHG"
"27300","Kampung Tanjong Besar","Benta","PHG"
"27300","Kampung Terap","Benta","PHG"
"27300","Ladang Benta","Benta","PHG"
"27300","Ladang Budu","Benta","PHG"
"27300","Perhentian Benta","Benta","PHG"
"27300","Persit","Benta","PHG"
"27300","Taman Dato Lam Kam Sang","Benta","PHG"
"27300","Taman Teratai","Benta","PHG"
"27300","Ulu Nabun","Benta","PHG"
"27310","Batu 22 Kemahang","Benta","PHG"
"27310","Jeransang","Benta","PHG"
"27310","KM 43 Kampung Terap","Benta","PHG"
"27310","Kampung Badong","Benta","PHG"
"27310","Kampung Baru","Benta","PHG"
"27310","Kampung Batu 30","Benta","PHG"
"27310","Kampung Batu 31","Benta","PHG"
"27310","Kampung Belimbing","Benta","PHG"
"27310","Kampung Beluan","Benta","PHG"
"27310","Kampung Bsol","Benta","PHG"
"27310","Kampung Budu","Benta","PHG"
"27310","Kampung Bukit Belau","Benta","PHG"
"27310","Kampung Bukit Kolam","Benta","PHG"
"27310","Kampung Bukit Machang","Benta","PHG"
"27310","Kampung Bukit Perangkap","Benta","PHG"
"27310","Kampung Bukit Tuba","Benta","PHG"
"27310","Kampung Chat Bawah","Benta","PHG"
"27310","Kampung Chat","Benta","PHG"
"27310","Kampung Cherang","Benta","PHG"
"27310","Kampung Durian Rendang","Benta","PHG"
"27310","Kampung Empau","Benta","PHG"
"27310","Kampung Gong","Benta","PHG"
"27310","Kampung Jemeru","Benta","PHG"
"27310","Kampung Jerangsang Hilir","Benta","PHG"
"27310","Kampung Jerangsang Hulu","Benta","PHG"
"27310","Kampung Jerangsang","Benta","PHG"
"27310","Kampung Jerning","Benta","PHG"
"27310","Kampung Kemahang Hilir","Benta","PHG"
"27310","Kampung Kemensar","Benta","PHG"
"27310","Kampung Lechir","Benta","PHG"
"27310","Kampung Lechor","Benta","PHG"
"27310","Kampung Lonjong","Benta","PHG"
"27310","Kampung Lubuk Gayung","Benta","PHG"
"27310","Kampung Masjid","Benta","PHG"
"27310","Kampung Napal","Benta","PHG"
"27310","Kampung Pekan Sahari","Benta","PHG"
"27310","Kampung Perlong","Benta","PHG"
"27310","Kampung Peruang Lama","Benta","PHG"
"27310","Kampung Pjoh","Benta","PHG"
"27310","Kampung Puchuk","Benta","PHG"
"27310","Kampung Pulau Kabong","Benta","PHG"
"27310","Kampung Rachap","Benta","PHG"
"27310","Kampung Rengai Tanjung Besar","Benta","PHG"
"27310","Kampung Seberang Paya","Benta","PHG"
"27310","Kampung Seberang Teka","Benta","PHG"
"27310","Kampung Sungai Damak","Benta","PHG"
"27310","Kampung Tampin Chat","Benta","PHG"
"27310","Kampung Tampin Tanjung Besar","Benta","PHG"
"27310","Kampung Tanjong Lalang","Benta","PHG"
"27310","Kampung Tekeong","Benta","PHG"
"27310","Kampung Terap Budu","Benta","PHG"
"27310","Kampung Tua Batu 21","Benta","PHG"
"27310","Kampung Tulang Padang","Benta","PHG"
"27310","Mini Estate Kampung Terap","Benta","PHG"
"27310","PPMS Peruang","Benta","PHG"
"27310","PPRT Peruang","Benta","PHG"
"27310","RPS Peruang","Benta","PHG"
"27310","Taman Benta Jaya","Benta","PHG"
"27400","Bukit Kemuning Dong","Dong","PHG"
"27400","Dong Jaya","Dong","PHG"
"27400","Dong","Dong","PHG"
"27400","Kampung Ajai Baru","Dong","PHG"
"27400","Kampung Ajai","Dong","PHG"
"27400","Kampung Bedu","Dong","PHG"
"27400","Kampung Bukit Kemuning","Dong","PHG"
"27400","Kampung Bukit Pampon","Dong","PHG"
"27400","Kampung Chendera","Dong","PHG"
"27400","Kampung Chincin","Dong","PHG"
"27400","Kampung Durian Sebatang","Dong","PHG"
"27400","Kampung Gali Hilir","Dong","PHG"
"27400","Kampung Gali Tengah","Dong","PHG"
"27400","Kampung Gali","Dong","PHG"
"27400","Kampung Gersing","Dong","PHG"
"27400","Kampung Jalan Jelu","Dong","PHG"
"27400","Kampung Jelu","Dong","PHG"
"27400","Kampung Kuala Dong","Dong","PHG"
"27400","Kampung Kuala Gali","Dong","PHG"
"27400","Kampung Kuala Jelu","Dong","PHG"
"27400","Kampung Kuala Keloi","Dong","PHG"
"27400","Kampung Lechar","Dong","PHG"
"27400","Kampung Lepar","Dong","PHG"
"27400","Kampung Padang Pree","Dong","PHG"
"27400","Kampung Pamah Kulat","Dong","PHG"
"27400","Kampung Pamah Rawas","Dong","PHG"
"27400","Kampung Panchur","Dong","PHG"
"27400","Kampung Pasir Bayam","Dong","PHG"
"27400","Kampung Peruas","Dong","PHG"
"27400","Kampung Sengkala","Dong","PHG"
"27400","Kampung Sol","Dong","PHG"
"27400","Kampung Sungai Jahit","Dong","PHG"
"27400","Kampung Sungai Lar","Dong","PHG"
"27400","Kampung Sungai Pasu","Dong","PHG"
"27400","Kampung Tamaliang","Dong","PHG"
"27400","Kampung Tanah Bercangkul","Dong","PHG"
"27400","Kampung Tanjong Manggis","Dong","PHG"
"27400","Kampung Tanjong Raja","Dong","PHG"
"27400","Kampung Tanjung Putus","Dong","PHG"
"27400","Kampung Temau Ulu","Dong","PHG"
"27400","Kampung Temau","Dong","PHG"
"27400","Kampung Ulu Jelu","Dong","PHG"
"27400","Pekan Dong","Dong","PHG"
"27400","Rumah Murah Dong Jaya","Dong","PHG"
"27400","Rumah Murah Dong","Dong","PHG"
"27400","Tanjung Besar","Dong","PHG"
"27400","Ulu Dong","Dong","PHG"
"27600","Bandar Tras","Raub","PHG"
"27600","Felda Krau 1","Raub","PHG"
"27600","Happy Valley","Raub","PHG"
"27600","Kampung Bacap","Raub","PHG"
"27600","Kampung Baharu","Raub","PHG"
"27600","Kampung Baru Bukit Koman","Raub","PHG"
"27600","Kampung Baru Sempalit","Raub","PHG"
"27600","Kampung Baru Tras","Raub","PHG"
"27600","Kampung Batu Talam","Raub","PHG"
"27600","Kampung Benggali","Raub","PHG"
"27600","Kampung Bukit Koman","Raub","PHG"
"27600","Kampung Hajjah Esah","Raub","PHG"
"27600","Kampung KC","Raub","PHG"
"27600","Kampung Kelek","Raub","PHG"
"27600","Kampung Lanar","Raub","PHG"
"27600","Kampung Lenggeng","Raub","PHG"
"27600","Kampung Melayu Sempalit","Raub","PHG"
"27600","Kampung Pecah Batu","Raub","PHG"
"27600","Kampung Pintu Padang","Raub","PHG"
"27600","Kampung Rela","Raub","PHG"
"27600","Kampung SC","Raub","PHG"
"27600","Kampung Sempalit","Raub","PHG"
"27600","Kampung Simpan Baru","Raub","PHG"
"27600","Kampung Simpan Kalang","Raub","PHG"
"27600","Kampung Simpang Badang","Raub","PHG"
"27600","Kampung Siri Jaya","Raub","PHG"
"27600","Kampung Sungai Chetang","Raub","PHG"
"27600","Kampung Sungai Kelau","Raub","PHG"
"27600","Kampung Sungai Kening","Raub","PHG"
"27600","Kampung Sungai Lui","Raub","PHG"
"27600","Kampung Sungai Miang","Raub","PHG"
"27600","Kampung Todi","Raub","PHG"
"27600","Kampung Tok Machang","Raub","PHG"
"27600","Kampung Ulu Sempalit","Raub","PHG"
"27600","Ladang Hue Om","Raub","PHG"
"27600","Pam Air Sungai Bilut","Raub","PHG"
"27600","Paya Baru","Raub","PHG"
"27600","Perumahan Jeram Busu","Raub","PHG"
"27600","Pos Satak","Raub","PHG"
"27600","Raub","Raub","PHG"
"27600","Rumah Murah Bukit Koman","Raub","PHG"
"27600","Sang Lee","Raub","PHG"
"27600","Semantan Ulu","Raub","PHG"
"27600","Sempalit Hilir","Raub","PHG"
"27600","Sempalit Ulu","Raub","PHG"
"27600","Simpang Kallang India","Raub","PHG"
"27600","Sungai Bilut Estate","Raub","PHG"
"27600","Sungai Lui","Raub","PHG"
"27600","Taman Abu Bakar","Raub","PHG"
"27600","Taman Amalina","Raub","PHG"
"27600","Taman Bahagia","Raub","PHG"
"27600","Taman Bistari","Raub","PHG"
"27600","Taman Bukit Indah","Raub","PHG"
"27600","Taman Bukit Koman","Raub","PHG"
"27600","Taman Charoh Maju 1","Raub","PHG"
"27600","Taman Emas","Raub","PHG"
"27600","Taman Gunong Emas","Raub","PHG"
"27600","Taman Hutan Emas","Raub","PHG"
"27600","Taman Imigresen","Raub","PHG"
"27600","Taman Indraputra","Raub","PHG"
"27600","Taman Intan","Raub","PHG"
"27600","Taman Juntai","Raub","PHG"
"27600","Taman Kemajuan","Raub","PHG"
"27600","Taman Kenanga","Raub","PHG"
"27600","Taman Kurnia Jaya","Raub","PHG"
"27600","Taman Lee Mau","Raub","PHG"
"27600","Taman Medan Indah","Raub","PHG"
"27600","Taman Melati","Raub","PHG"
"27600","Taman Melewar","Raub","PHG"
"27600","Taman Muhibbah (1 - 4)","Raub","PHG"
"27600","Taman Muhibbah Tranum","Raub","PHG"
"27600","Taman Mutiara 2","Raub","PHG"
"27600","Taman Mutiara","Raub","PHG"
"27600","Taman Okid","Raub","PHG"
"27600","Taman Ralib Utama","Raub","PHG"
"27600","Taman Raub (1 - 5)","Raub","PHG"
"27600","Taman Raub Jaya","Raub","PHG"
"27600","Taman Raub Perdana","Raub","PHG"
"27600","Taman Raub Utama","Raub","PHG"
"27600","Taman Rotan Tunggal","Raub","PHG"
"27600","Taman Sempalit Aman","Raub","PHG"
"27600","Taman Sempalit Baru","Raub","PHG"
"27600","Taman Sentosa","Raub","PHG"
"27600","Taman Seri Aman (Sempalit)","Raub","PHG"
"27600","Taman Seri Sempalit","Raub","PHG"
"27600","Taman Seroja","Raub","PHG"
"27600","Taman Shahbandar Hussin","Raub","PHG"
"27600","Taman Yerl","Raub","PHG"
"27607","Raub - Peti surat","Raub","PHG"
"27609","Raub - Beg berkunci","Raub","PHG"
"27610","Batu Malim","Raub","PHG"
"27610","Batu Talam","Raub","PHG"
"27610","Bukit Jawa","Raub","PHG"
"27610","Kampung Badang","Raub","PHG"
"27610","Kampung Batu 18","Raub","PHG"
"27610","Kampung Bukit Jawa","Raub","PHG"
"27610","Kampung India (Batu 12)","Raub","PHG"
"27610","Kampung Jasu","Raub","PHG"
"27610","Kampung Jerus","Raub","PHG"
"27610","Kampung Kela","Raub","PHG"
"27610","Kampung Kundang","Raub","PHG"
"27610","Kampung Paya Baru","Raub","PHG"
"27610","Kampung Pulai","Raub","PHG"
"27610","Kampung Songsang","Raub","PHG"
"27610","Kampung Tersang","Raub","PHG"
"27610","Kampung Ulu Sungai","Raub","PHG"
"27610","Rumah Murah Batu Talam","Raub","PHG"
"27620","Cheroh","Raub","PHG"
"27620","Kampung Baru Cheroh","Raub","PHG"
"27620","Kampung Kuala Semantan","Raub","PHG"
"27620","Kampung Kundang Patah","Raub","PHG"
"27620","Kampung Melayu Cheroh","Raub","PHG"
"27620","Kampung Ria","Raub","PHG"
"27620","Kampung Sungai Buloh","Raub","PHG"
"27620","Kampung Sungai Panggong","Raub","PHG"
"27620","Ladang Cheroh","Raub","PHG"
"27620","Rumah LKNP Maju 3","Raub","PHG"
"27620","Rumah Murah Cheroh","Raub","PHG"
"27620","Sungai","Raub","PHG"
"27620","Taman Bintang","Raub","PHG"
"27630","Felda Lembah Klau","Raub","PHG"
"27630","Kampung Klau Kechil","Sungai Ruan","PHG"
"27630","Kampung Sri Jaya","Raub","PHG"
"27630","Kampung Sungai Klau","Raub","PHG"
"27630","Kampung Sungai Ruan","Raub","PHG"
"27630","Kampung Tok Machang","Raub","PHG"
"27630","Kampung Ulu Gali","Raub","PHG"
"27630","Kampung Ulu Gali","Sungai Ruan","PHG"
"27630","LKPP Sungai Chalit","Raub","PHG"
"27630","Ladang Sang Foo","Raub","PHG"
"27630","Ladang Sang Foo","Sungai Ruan","PHG"
"27630","Lembah Klau","Raub","PHG"
"27630","RRM Sungai Ruan","Raub","PHG"
"27630","Sungai Klau","Raub","PHG"
"27630","Sungai Ruan","Raub","PHG"
"27630","Taman Anggerik","Raub","PHG"
"27630","Taman Bunga Matahari","Raub","PHG"
"27630","Taman Bunga Raya","Raub","PHG"
"27630","Taman Cempaka","Raub","PHG"
"27630","Taman KSM Sungai Ruan","Raub","PHG"
"27630","Taman Maju","Raub","PHG"
"27630","Taman Mawar","Raub","PHG"
"27630","Taman Melewar","Raub","PHG"
"27630","Taman Sungai Ruan","Raub","PHG"
"27630","Taman Wawasan","Raub","PHG"
"27630","Ulu Cheroh","Raub","PHG"
"27650","Felcra Kuala Medang","Sungai Koyan","PHG"
"27650","Felda Sungai Koyan (1 - 3)","Sungai Koyan","PHG"
"27650","Felda Tersang (1 - 3)","Sungai Koyan","PHG"
"27650","Kampung Belida","Sungai Koyan","PHG"
"27650","Kampung Jelapang","Sungai Koyan","PHG"
"27650","Kampung Jelaping","Sungai Koyan","PHG"
"27650","Kampung Kermoi","Sungai Koyan","PHG"
"27650","Kampung Ketoyong","Sungai Koyan","PHG"
"27650","Kampung Kuala Koyan","Sungai Koyan","PHG"
"27650","Kampung Kuala Medang","Sungai Koyan","PHG"
"27650","Kampung Kuala Serau","Sungai Koyan","PHG"
"27650","Kampung Lanas","Sungai Koyan","PHG"
"27650","Kampung Lubok Kasah","Sungai Koyan","PHG"
"27650","Kampung Naga Umbang","Sungai Koyan","PHG"
"27650","Kampung Pantos","Sungai Koyan","PHG"
"27650","Kampung Pulau Badak","Sungai Koyan","PHG"
"27650","Kampung Sri Murni","Sungai Koyan","PHG"
"27650","Kampung Tanjong Gahai","Sungai Koyan","PHG"
"27650","Kampung Tanjung Rambai","Sungai Koyan","PHG"
"27650","Kampung Telom","Sungai Koyan","PHG"
"27650","Ladang Bukit Puteri","Sungai Koyan","PHG"
"27650","RPS Betau","Sungai Koyan","PHG"
"27650","RPSB Kuala Medang","Sungai Koyan","PHG"
"27650","Sungai Chalit","Sungai Koyan","PHG"
"27650","Sungai Koyan","Sungai Koyan","PHG"
"27650","Taman Sri Medang","Sungai Koyan","PHG"
"27650","Terasang 1,2,3","Sungai Koyan","PHG"
"27660","Kampung Arang","Sega","PHG"
"27660","Kampung Bahagia","Sega","PHG"
"27660","Kampung Bukit Palong","Sega","PHG"
"27660","Kampung Chenua","Sega","PHG"
"27660","Kampung Jeruas","Sega","PHG"
"27660","Kampung Pak Senam","Sega","PHG"
"27660","Kampung Paya Lalang","Sega","PHG"
"27660","Kampung Paya Terap","Sega","PHG"
"27660","Kampung Retai","Sega","PHG"
"27660","Kampung Rokan","Sega","PHG"
"27660","Kampung Sain","Sega","PHG"
"27660","Kampung Sega Tat","Sega","PHG"
"27660","Kampung Tanjong Aur","Sega","PHG"
"27660","Kampung Teridi","Sega","PHG"
"27660","Sega","Sega","PHG"
"27660","Ulu Atok","Sega","PHG"
"27670","Kampung Baharu Sungai Chetang","Raub","PHG"
"27670","Kampung Baharu Teras","Raub","PHG"
"27670","Kampung Chendarawi","Raub","PHG"
"27670","Kampung Sungai Delam","Raub","PHG"
"27670","Sungai Chetang","Raub","PHG"
"27670","Teras","Raub","PHG"
"27670","Tranum","Raub","PHG"
"27670","Ulu Teridi","Raub","PHG"
"28000","Bukit Angin","Temerloh","PHG"
"28000","Bukit Segumpal","Temerloh","PHG"
"28000","Felcra Charok Putting","Temerloh","PHG"
"28000","Gau Baharu","Temerloh","PHG"
"28000","Jala Bahagia","Temerloh","PHG"
"28000","Jalan Ahmad Shah","Temerloh","PHG"
"28000","Jalan Aman","Temerloh","PHG"
"28000","Jalan Bahagia Makmur","Temerloh","PHG"
"28000","Jalan Bahagian Indah","Temerloh","PHG"
"28000","Jalan Bahaman","Temerloh","PHG"
"28000","Jalan Bani Yaacob","Temerloh","PHG"
"28000","Jalan Bukit Angin","Temerloh","PHG"
"28000","Jalan Bukit Indah","Temerloh","PHG"
"28000","Jalan Bunga Raya","Temerloh","PHG"
"28000","Jalan Dahlia","Temerloh","PHG"
"28000","Jalan Damai","Temerloh","PHG"
"28000","Jalan Dato Ngau Ken Lock","Temerloh","PHG"
"28000","Jalan Gereja","Temerloh","PHG"
"28000","Jalan Hamzah","Temerloh","PHG"
"28000","Jalan Ibrahim","Temerloh","PHG"
"28000","Jalan Idera Segara","Temerloh","PHG"
"28000","Jalan Intan","Temerloh","PHG"
"28000","Jalan Kuantan","Temerloh","PHG"
"28000","Jalan Lurah Semantan","Temerloh","PHG"
"28000","Jalan Maran Seberang Temerloh","Temerloh","PHG"
"28000","Jalan Merbah","Temerloh","PHG"
"28000","Jalan Merbok","Temerloh","PHG"
"28000","Jalan Merpati","Temerloh","PHG"
"28000","Jalan Murai","Temerloh","PHG"
"28000","Jalan Pak Sako","Temerloh","PHG"
"28000","Jalan Paya Kemunting","Temerloh","PHG"
"28000","Jalan Selayang","Temerloh","PHG"
"28000","Jalan Semantan","Temerloh","PHG"
"28000","Jalan Serindit","Temerloh","PHG"
"28000","Jalan Setia Jasa","Temerloh","PHG"
"28000","Jalan Sinar","Temerloh","PHG"
"28000","Jalan Sudirman","Temerloh","PHG"
"28000","Jalan Tan Sri Yahya","Temerloh","PHG"
"28000","Jalan Temerloh Jaya","Temerloh","PHG"
"28000","Jalan Temerloh Makmur","Temerloh","PHG"
"28000","Jalan Tengku Bakar","Temerloh","PHG"
"28000","Jalan Tok Muda Awang Ngah","Temerloh","PHG"
"28000","Jalan Tunku Ismail","Temerloh","PHG"
"28000","Kampung Bachap","Temerloh","PHG"
"28000","Kampung Badok","Temerloh","PHG"
"28000","Kampung Bangau Parit","Temerloh","PHG"
"28000","Kampung Bangau Tanjong Keramat","Temerloh","PHG"
"28000","Kampung Bangau Tanjung","Temerloh","PHG"
"28000","Kampung Bangau","Temerloh","PHG"
"28000","Kampung Baru (Cina)","Temerloh","PHG"
"28000","Kampung Baru Belengu","Temerloh","PHG"
"28000","Kampung Baru Bintang","Temerloh","PHG"
"28000","Kampung Baru Kabut","Temerloh","PHG"
"28000","Kampung Baru Lebak","Temerloh","PHG"
"28000","Kampung Batu 1","Temerloh","PHG"
"28000","Kampung Bau Berhala Kapas","Temerloh","PHG"
"28000","Kampung Belenggu","Temerloh","PHG"
"28000","Kampung Belengka","Temerloh","PHG"
"28000","Kampung Belengu","Temerloh","PHG"
"28000","Kampung Belimbing","Temerloh","PHG"
"28000","Kampung Bergala Gantang","Temerloh","PHG"
"28000","Kampung Bintang","Temerloh","PHG"
"28000","Kampung Bohor Baharu","Temerloh","PHG"
"28000","Kampung Bukit Batu","Temerloh","PHG"
"28000","Kampung Bukit Bintang","Temerloh","PHG"
"28000","Kampung Bukit Jelutong","Temerloh","PHG"
"28000","Kampung Bukit Kelulut","Temerloh","PHG"
"28000","Kampung Bukit Kemuning","Temerloh","PHG"
"28000","Kampung Bukit Kepayang","Temerloh","PHG"
"28000","Kampung Bukit Lada","Temerloh","PHG"
"28000","Kampung Bukit Napi","Temerloh","PHG"
"28000","Kampung Bukit Pak Silap","Temerloh","PHG"
"28000","Kampung Bukit Segumpal","Temerloh","PHG"
"28000","Kampung Bukit Tinggi","Temerloh","PHG"
"28000","Kampung Bukit Tingkat","Temerloh","PHG"
"28000","Kampung Buntut Pulau","Temerloh","PHG"
"28000","Kampung Chengal","Temerloh","PHG"
"28000","Kampung Desa Murni (Songsang)","Temerloh","PHG"
"28000","Kampung Durian Daun","Temerloh","PHG"
"28000","Kampung Durian Duduk","Temerloh","PHG"
"28000","Kampung Durian Tikus","Temerloh","PHG"
"28000","Kampung Embun","Temerloh","PHG"
"28000","Kampung Gumai","Temerloh","PHG"
"28000","Kampung Haji Ali","Temerloh","PHG"
"28000","Kampung Haji Long","Temerloh","PHG"
"28000","Kampung Haji Saleh","Temerloh","PHG"
"28000","Kampung Jalan Maran","Temerloh","PHG"
"28000","Kampung Keladan","Temerloh","PHG"
"28000","Kampung Kerinau","Temerloh","PHG"
"28000","Kampung Kuala Kujan","Temerloh","PHG"
"28000","Kampung Kuala Sanggang","Temerloh","PHG"
"28000","Kampung Lebak Seberang","Temerloh","PHG"
"28000","Kampung Lompat","Temerloh","PHG"
"28000","Kampung Loyang","Temerloh","PHG"
"28000","Kampung Lubok Kawah","Temerloh","PHG"
"28000","Kampung Lubok Layang","Temerloh","PHG"
"28000","Kampung Macang Manis","Temerloh","PHG"
"28000","Kampung Megat Segama","Temerloh","PHG"
"28000","Kampung Padang Lalang","Temerloh","PHG"
"28000","Kampung Padang Tenggala","Temerloh","PHG"
"28000","Kampung Pamah Kasih","Temerloh","PHG"
"28000","Kampung Pamah","Temerloh","PHG"
"28000","Kampung Panchor","Temerloh","PHG"
"28000","Kampung Pangsanam","Temerloh","PHG"
"28000","Kampung Papan Tuai","Temerloh","PHG"
"28000","Kampung Paya Ara","Temerloh","PHG"
"28000","Kampung Paya Badak","Temerloh","PHG"
"28000","Kampung Paya Banir","Temerloh","PHG"
"28000","Kampung Paya Batu","Temerloh","PHG"
"28000","Kampung Paya Dalam","Temerloh","PHG"
"28000","Kampung Paya Jauh","Temerloh","PHG"
"28000","Kampung Paya Jejawi","Temerloh","PHG"
"28000","Kampung Paya Kechik","Temerloh","PHG"
"28000","Kampung Paya Kerbau","Temerloh","PHG"
"28000","Kampung Paya Kubu","Temerloh","PHG"
"28000","Kampung Paya Luas","Temerloh","PHG"
"28000","Kampung Paya Mengkuang","Temerloh","PHG"
"28000","Kampung Paya Pedak","Temerloh","PHG"
"28000","Kampung Paya Pulai","Temerloh","PHG"
"28000","Kampung Paya Salak","Temerloh","PHG"
"28000","Kampung Paya Senayan","Temerloh","PHG"
"28000","Kampung Paya Tambang","Temerloh","PHG"
"28000","Kampung Penak","Temerloh","PHG"
"28000","Kampung Pengkalan Jaya","Temerloh","PHG"
"28000","Kampung Pengkalan Manggis","Temerloh","PHG"
"28000","Kampung Perak","Temerloh","PHG"
"28000","Kampung Pulau Isu","Temerloh","PHG"
"28000","Kampung Pulau Terap","Temerloh","PHG"
"28000","Kampung Raja Senggang","Temerloh","PHG"
"28000","Kampung Raja","Temerloh","PHG"
"28000","Kampung Raju","Temerloh","PHG"
"28000","Kampung Sanggang Seberang","Temerloh","PHG"
"28000","Kampung Seberang Temerloh","Temerloh","PHG"
"28000","Kampung Seladang","Temerloh","PHG"
"28000","Kampung Selindang","Temerloh","PHG"
"28000","Kampung Semat","Temerloh","PHG"
"28000","Kampung Simpang Kawah","Temerloh","PHG"
"28000","Kampung Sungai Kudang","Temerloh","PHG"
"28000","Kampung Sungai Nerek","Temerloh","PHG"
"28000","Kampung Sungai Rabit","Temerloh","PHG"
"28000","Kampung Sungai Siak","Temerloh","PHG"
"28000","Kampung Talau","Temerloh","PHG"
"28000","Kampung Tanah Merah","Temerloh","PHG"
"28000","Kampung Tanjong Batu","Temerloh","PHG"
"28000","Kampung Tanjong Belenggu","Temerloh","PHG"
"28000","Kampung Tanjong Besar","Temerloh","PHG"
"28000","Kampung Tanjong Lalang","Temerloh","PHG"
"28000","Kampung Tanjung Bunga","Temerloh","PHG"
"28000","Kampung Tanjung Lalang","Temerloh","PHG"
"28000","Kampung Tanjung Riau","Temerloh","PHG"
"28000","Kampung Tanjung Teberau","Temerloh","PHG"
"28000","Kampung Tanjung","Temerloh","PHG"
"28000","Kampung Tebal","Temerloh","PHG"
"28000","Kampung Teluk Ira","Temerloh","PHG"
"28000","Kampung Teluk Mengkuang","Temerloh","PHG"
"28000","Kampung Teluk Sentang","Temerloh","PHG"
"28000","Kampung Tenabal","Temerloh","PHG"
"28000","Kampung Tengah","Temerloh","PHG"
"28000","Kampung Tenggoh Seberang","Temerloh","PHG"
"28000","Kampung Tenggoh","Temerloh","PHG"
"28000","Kampung Tualang","Temerloh","PHG"
"28000","Ladang Lebak","Temerloh","PHG"
"28000","Padang Lalang, Temerloh","Temerloh","PHG"
"28000","Simpang Jengka (Batu 2 3/4)","Temerloh","PHG"
"28000","Songsang","Temerloh","PHG"
"28000","Taman Bahagia Baru","Temerloh","PHG"
"28000","Taman Bahagia Jaya","Temerloh","PHG"
"28000","Taman Bahagia","Temerloh","PHG"
"28000","Taman Bukit Angin","Temerloh","PHG"
"28000","Taman Bukit Indah","Temerloh","PHG"
"28000","Taman Bunga Raya","Temerloh","PHG"
"28000","Taman Cahaya","Temerloh","PHG"
"28000","Taman Cempaka","Temerloh","PHG"
"28000","Taman Chengal","Temerloh","PHG"
"28000","Taman Harapan","Temerloh","PHG"
"28000","Taman Intan","Temerloh","PHG"
"28000","Taman Jaya","Temerloh","PHG"
"28000","Taman Kamariah","Temerloh","PHG"
"28000","Taman Karpagar","Temerloh","PHG"
"28000","Taman Muhibbah","Temerloh","PHG"
"28000","Taman Perindu","Temerloh","PHG"
"28000","Taman Selayang","Temerloh","PHG"
"28000","Taman Semantan Indah","Temerloh","PHG"
"28000","Taman Seri Bahgia","Temerloh","PHG"
"28000","Taman Seri Semantan","Temerloh","PHG"
"28000","Taman Setia Jasa","Temerloh","PHG"
"28000","Taman Setia","Temerloh","PHG"
"28000","Taman Sri Bahagia Baru","Temerloh","PHG"
"28000","Taman Sri Indera","Temerloh","PHG"
"28000","Taman Sri Kemuning","Temerloh","PHG"
"28000","Taman Sri Kerinau","Temerloh","PHG"
"28000","Taman Temerloh Jaya","Temerloh","PHG"
"28000","Taman Ti Wah Indah","Temerloh","PHG"
"28000","Teluk Mengkuang","Temerloh","PHG"
"28000","Temerloh","Temerloh","PHG"
"28000","Zon Perindustrian Songsang","Temerloh","PHG"
"28007","Temerloh - Peti surat","Temerloh","PHG"
"28009","Temerloh - Beg berkunci","Temerloh","PHG"
"28010","Kampung Ayer Hitam","Temerloh","PHG"
"28010","Kampung Batu Balai","Temerloh","PHG"
"28010","Kampung Batu Lada","Temerloh","PHG"
"28010","Kampung Belara","Temerloh","PHG"
"28010","Kampung Bengkek","Temerloh","PHG"
"28010","Kampung Benom","Temerloh","PHG"
"28010","Kampung Charak","Temerloh","PHG"
"28010","Kampung Ketam","Temerloh","PHG"
"28010","Kampung Kuala Kerdau","Temerloh","PHG"
"28010","Kampung Lipat Kajang","Temerloh","PHG"
"28010","Kampung Peng Rasau","Temerloh","PHG"
"28010","Kampung Peragoh","Temerloh","PHG"
"28010","Kampung Pergap","Temerloh","PHG"
"28010","Kampung Romia","Temerloh","PHG"
"28010","Kampung Sungai Gau","Temerloh","PHG"
"28010","Kampung Sungai Mas","Temerloh","PHG"
"28010","Kampung Tanjong Pasir","Temerloh","PHG"
"28010","Kampung Telok","Temerloh","PHG"
"28010","Kampung Titi","Temerloh","PHG"
"28010","Keladan","Temerloh","PHG"
"28020","Belangka","Temerloh","PHG"
"28020","Bukit Tongkat","Temerloh","PHG"
"28020","Kampung Bangau Hilir","Temerloh","PHG"
"28020","Kampung Bangau Tanjong","Temerloh","PHG"
"28020","Kampung Darat Sanggang","Temerloh","PHG"
"28020","Kampung Kenalau","Temerloh","PHG"
"28020","Kampung Loyang","Temerloh","PHG"
"28020","Kampung Orang Asli","Temerloh","PHG"
"28020","Kampung Paya Keladan","Temerloh","PHG"
"28020","Kampung Sanggang Bahagia","Temerloh","PHG"
"28020","Kampung Sanggang","Temerloh","PHG"
"28020","Kampung Simpang Sanggang","Temerloh","PHG"
"28020","Kampung Songsang","Temerloh","PHG"
"28020","Kampung Tan Sri Yahya","Temerloh","PHG"
"28020","Kampung Tanjong Keramat","Temerloh","PHG"
"28020","Kerdau","Temerloh","PHG"
"28020","Lubok Kawah","Temerloh","PHG"
"28020","Paya Banir","Temerloh","PHG"
"28020","Paya Jejawi","Temerloh","PHG"
"28020","Tebing Tinggi, Temerloh","Temerloh","PHG"
"28030","Jengka 18","Temerloh","PHG"
"28030","Jengka 19","Temerloh","PHG"
"28030","Kampung Awah","Temerloh","PHG"
"28040","Kampung Baharu Bera","Temerloh","PHG"
"28040","Kampung Batu Anchor","Temerloh","PHG"
"28040","Kampung Bera","Temerloh","PHG"
"28040","Kampung Bukit Rola","Temerloh","PHG"
"28040","Kampung Guai","Temerloh","PHG"
"28040","Kampung Karai","Temerloh","PHG"
"28040","Kampung Lubok Lian","Temerloh","PHG"
"28040","Kampung Pengkalan Terap","Temerloh","PHG"
"28040","Kampung Tebing Tinggi","Temerloh","PHG"
"28040","Kampung Tengah Bera","Temerloh","PHG"
"28040","Sungai Nerek","Temerloh","PHG"
"28050","Buntar","Kuala Krau","PHG"
"28050","Felcra Ulu Jenut","Kuala Krau","PHG"
"28050","Felda Jenderak Selatan","Kuala Krau","PHG"
"28050","Felda Jenderak Utara","Kuala Krau","PHG"
"28050","Kampung Badak","Kuala Krau","PHG"
"28050","Kampung Batu Gading","Kuala Krau","PHG"
"28050","Kampung Batu Sawar","Kuala Krau","PHG"
"28050","Kampung Bukit Ketupat","Kuala Krau","PHG"
"28050","Kampung Bukit Lada","Kuala Krau","PHG"
"28050","Kampung Dato Shariff Ahmad","Kuala Krau","PHG"
"28050","Kampung Dungai Cheh","Kuala Krau","PHG"
"28050","Kampung Dungai Hijau","Kuala Krau","PHG"
"28050","Kampung Gajah Mati","Kuala Krau","PHG"
"28050","Kampung Gempu","Kuala Krau","PHG"
"28050","Kampung Gong Halt","Kuala Krau","PHG"
"28050","Kampung Gunung Senyum","Kuala Krau","PHG"
"28050","Kampung Jenderak","Kuala Krau","PHG"
"28050","Kampung Jenggok","Kuala Krau","PHG"
"28050","Kampung Kuala Krau","Kuala Krau","PHG"
"28050","Kampung Kuala Mai","Kuala Krau","PHG"
"28050","Kampung Kuala Tekal","Kuala Krau","PHG"
"28050","Kampung Masjid","Kuala Krau","PHG"
"28050","Kampung Pandan","Kuala Krau","PHG"
"28050","Kampung Pasu","Kuala Krau","PHG"
"28050","Kampung Paya Angut","Kuala Krau","PHG"
"28050","Kampung Paya Baru","Kuala Krau","PHG"
"28050","Kampung Paya Luas","Kuala Krau","PHG"
"28050","Kampung Paya Sok","Kuala Krau","PHG"
"28050","Kampung Paya Tajau","Kuala Krau","PHG"
"28050","Kampung Penderas","Kuala Krau","PHG"
"28050","Kampung Pian","Kuala Krau","PHG"
"28050","Kampung Pulau Pasir Mandi","Kuala Krau","PHG"
"28050","Kampung Pulau Pasir Mandi, Kuala Krau","Kuala Krau","PHG"
"28050","Kampung Pulau Raya","Kuala Krau","PHG"
"28050","Kampung Seboi","Kuala Krau","PHG"
"28050","Kampung Sekoh","Kuala Krau","PHG"
"28050","Kampung Sungai Dalam","Kuala Krau","PHG"
"28050","Kampung Tanjong Buloh","Kuala Krau","PHG"
"28050","Kampung Tanjong Kubu","Kuala Krau","PHG"
"28050","Kampung Tanjong Prian","Kuala Krau","PHG"
"28050","Kampung Tanjong Timbau","Kuala Krau","PHG"
"28050","Kampung Telok Lengkuang","Kuala Krau","PHG"
"28050","Kampung Telok Sabak","Kuala Krau","PHG"
"28050","Kampung Telok","Kuala Krau","PHG"
"28050","Kampung Terengging","Kuala Krau","PHG"
"28050","Kuala Krau","Kuala Krau","PHG"
"28050","Paya Mendoi","Kuala Krau","PHG"
"28050","Pulau Chengal","Kuala Krau","PHG"
"28050","Rumpun Makmur","Kuala Krau","PHG"
"28050","Teluk Jerjak","Kuala Krau","PHG"
"28100","Chenor","Chenor","PHG"
"28100","Kampung Baru Pertanian Sungai Jempo","Chenor","PHG"
"28100","Kampung Baru Sungai Ling","Chenor","PHG"
"28100","Kampung Batu Bor","Chenor","PHG"
"28100","Kampung Batu Kunta","Chenor","PHG"
"28100","Kampung Belawan","Chenor","PHG"
"28100","Kampung Bukit Batu Tampol","Chenor","PHG"
"28100","Kampung Bukit Bota","Chenor","PHG"
"28100","Kampung Bukit Chempedak","Chenor","PHG"
"28100","Kampung Bunut Cempedak","Chenor","PHG"
"28100","Kampung Bunyian","Chenor","PHG"
"28100","Kampung Chabang Dua","Chenor","PHG"
"28100","Kampung Dalam","Chenor","PHG"
"28100","Kampung Gaong","Chenor","PHG"
"28100","Kampung Gumai","Chenor","PHG"
"28100","Kampung Huma Luas","Chenor","PHG"
"28100","Kampung Jengka (Batu 13)","Chenor","PHG"
"28100","Kampung Jengka","Chenor","PHG"
"28100","Kampung Jerneh","Chenor","PHG"
"28100","Kampung Kabut","Chenor","PHG"
"28100","Kampung Kandis","Chenor","PHG"
"28100","Kampung Kening","Chenor","PHG"
"28100","Kampung Lating","Chenor","PHG"
"28100","Kampung Londong","Chenor","PHG"
"28100","Kampung Machap Gelap","Chenor","PHG"
"28100","Kampung Musir","Chenor","PHG"
"28100","Kampung Nyak","Chenor","PHG"
"28100","Kampung Pantai","Chenor","PHG"
"28100","Kampung Paya Ladang","Chenor","PHG"
"28100","Kampung Peijing","Chenor","PHG"
"28100","Kampung Pesagi","Chenor","PHG"
"28100","Kampung Puchong","Chenor","PHG"
"28100","Kampung Raja","Chenor","PHG"
"28100","Kampung Sabelah","Chenor","PHG"
"28100","Kampung Sekara","Chenor","PHG"
"28100","Kampung Sembai","Chenor","PHG"
"28100","Kampung Sertang","Chenor","PHG"
"28100","Kampung Sungai Kundang","Chenor","PHG"
"28100","Kampung Sungai Ling","Chenor","PHG"
"28100","Kampung Tanjong Kertau","Chenor","PHG"
"28100","Kampung Tebing Tebal","Chenor","PHG"
"28100","Kampung Telok Kertam","Chenor","PHG"
"28100","Kampung Telok Melati","Chenor","PHG"
"28100","Pengkalan Balai","Chenor","PHG"
"28100","Simpang Chenor","Chenor","PHG"
"28100","Tanjung Memalau","Chenor","PHG"
"28200","Batu Papan","Triang","PHG"
"28200","Bukit Keladang","Bandar Bera","PHG"
"28200","Felcra Bohor Bharu","Triang","PHG"
"28200","Felcra Bukit Serdang","Triang","PHG"
"28200","Hoe Seng Estate","Bandar Bera","PHG"
"28200","Kampung Baru","Triang","PHG"
"28200","Kampung Batu Imam Sulong","Triang","PHG"
"28200","Kampung Batu Papan","Triang","PHG"
"28200","Kampung Bohor","Bandar Bera","PHG"
"28200","Kampung Bohor, Triang","Bandar Bera","PHG"
"28200","Kampung Bongkok, Triang","Triang","PHG"
"28200","Kampung Bukit Keledang","Bandar Bera","PHG"
"28200","Kampung Bukit Naga Mengulur","Bandar Bera","PHG"
"28200","Kampung Bukit Rok","Triang","PHG"
"28200","Kampung Durian Tawar","Bandar Bera","PHG"
"28200","Kampung Ibam","Triang","PHG"
"28200","Kampung Jelam","Bandar Bera","PHG"
"28200","Kampung Kuala Bera","Triang","PHG"
"28200","Kampung Kuala Triang","Triang","PHG"
"28200","Kampung Kubong Panjang","Bandar Bera","PHG"
"28200","Kampung Lubok Lian","Triang","PHG"
"28200","Kampung Mengkarak","Bandar Bera","PHG"
"28200","Kampung Padang Luas","Bandar Bera","PHG"
"28200","Kampung Paya Bedak","Bandar Bera","PHG"
"28200","Kampung Paya Buloh","Bandar Bera","PHG"
"28200","Kampung Paya Embit","Bandar Bera","PHG"
"28200","Kampung Paya Pagar","Triang","PHG"
"28200","Kampung Paya Panjang","Triang","PHG"
"28200","Kampung Paya Serai","Triang","PHG"
"28200","Kampung Seberang Guai","Bandar Bera","PHG"
"28200","Kampung Seberang Lanjut","Bandar Bera","PHG"
"28200","Kampung Seberang Tok Penor","Bandar Bera","PHG"
"28200","Kampung Tanjong Enam","Bandar Bera","PHG"
"28200","Kampung Telok Jelam","Bandar Bera","PHG"
"28200","Kampung Tok Biah","Bandar Bera","PHG"
"28200","Kampung Tok Langit","Bandar Bera","PHG"
"28200","Kampung Tok Taggoh","Bandar Bera","PHG"
"28200","Kuala Bera","Triang","PHG"
"28200","Kuala Triang","Triang","PHG"
"28200","Ladang Hoe Seng","Bandar Bera","PHG"
"28200","Ladang Karmen","Bandar Bera","PHG"
"28200","Ladang Kemansur","Bandar Bera","PHG"
"28200","Ladang Mengkarak","Bandar Bera","PHG"
"28200","Mengkarak","Bandar Bera","PHG"
"28200","Padang Luas","Bandar Bera","PHG"
"28200","Rancangan Rumah Murah","Bandar Bera","PHG"
"28200","Seberang Guai","Bandar Bera","PHG"
"28200","Taman Mengkarak","Bandar Bera","PHG"
"28200","Taman Ong Fu Moy","Bandar Bera","PHG"
"28200","Taman Tong Ah","Bandar Bera","PHG"
"28300","Bandar 32 (Gugusan Bera)","Triang","PHG"
"28300","Felda Bukit Puchong","Triang","PHG"
"28300","Felda Kumai","Triang","PHG"
"28300","Felda Mayam","Triang","PHG"
"28300","Felda Rentam","Triang","PHG"
"28300","Felda Sebertak","Triang","PHG"
"28300","Felda Termenti","Triang","PHG"
"28300","Felda Triang 3","Triang","PHG"
"28300","Jalan Daro 1 & 2","Triang","PHG"
"28300","Jalan Kubor Cina","Triang","PHG"
"28300","Jalan Sentosa","Triang","PHG"
"28300","Kampung Anak Bukit","Triang","PHG"
"28300","Kampung Baru, Triang","Triang","PHG"
"28300","Kampung Mentri","Triang","PHG"
"28300","Kampung Paya Lang","Triang","PHG"
"28300","Kampung Sri Buntar","Triang","PHG"
"28300","Kampung Timur","Triang","PHG"
"28300","Kampung Zaiwang","Triang","PHG"
"28300","Mayam","Triang","PHG"
"28300","Taman Amluk","Triang","PHG"
"28300","Taman Ann Lek","Triang","PHG"
"28300","Taman Cheng Siew","Triang","PHG"
"28300","Taman Daro","Triang","PHG"
"28300","Taman Desa Aman","Triang","PHG"
"28300","Taman Indah","Triang","PHG"
"28300","Taman Jaya","Triang","PHG"
"28300","Taman Lim Chitt","Triang","PHG"
"28300","Taman Okid","Triang","PHG"
"28300","Taman Permai Sri Buntar","Triang","PHG"
"28300","Taman Raya","Triang","PHG"
"28300","Taman Selayang","Triang","PHG"
"28300","Taman Seraya","Triang","PHG"
"28300","Taman Sri Buntar","Triang","PHG"
"28300","Taman Sri Triang","Triang","PHG"
"28300","Taman Teo Jo","Triang","PHG"
"28300","Taman Teo Joo","Triang","PHG"
"28300","Taman Triang Jaya","Triang","PHG"
"28300","Taman Triang Maju","Triang","PHG"
"28300","Taman Triang Makmur","Triang","PHG"
"28310","Chemoimoi","Triang","PHG"
"28310","Triang","Triang","PHG"
"28320","Bukit Mendi","Triang","PHG"
"28320","Bukit Puchong","Triang","PHG"
"28320","Felda Bukit Mendi","Triang","PHG"
"28320","Felda Sungai Kemahal","Triang","PHG"
"28320","Sungai Kemahal","Triang","PHG"
"28330","Bukit Kepayang","Triang","PHG"
"28330","Felda Bukit Kepayang","Triang","PHG"
"28330","Felda Purun","Triang","PHG"
"28340","Felda Mengkuang","Kemayan","PHG"
"28340","Kampung Baru Mengkuang","Kemayan","PHG"
"28340","Kampung Mengkuang","Kemayan","PHG"
"28340","Kampung Tering","Kemayan","PHG"
"28340","Ladang Mengkuang","Kemayan","PHG"
"28340","Mengkuang, Triang","Kemayan","PHG"
"28340","Purun","Kemayan","PHG"
"28380","Felda Tembangau","Kemayan","PHG"
"28380","Jalan Besar Kemayan","Kemayan","PHG"
"28380","Jalan Besar Mengkuang","Kemayan","PHG"
"28380","Jalan Sungai Bera","Kemayan","PHG"
"28380","Kampung Baru Cina","Kemayan","PHG"
"28380","Kampung Dato Sri Hamzah","Kemayan","PHG"
"28380","Kampung Kebun Limau","Kemayan","PHG"
"28380","Kampung Sentosa","Kemayan","PHG"
"28380","Kemayan","Kemayan","PHG"
"28380","Ladang Baru Choow","Kemayan","PHG"
"28380","Ladang Bukit Keramat","Kemayan","PHG"
"28380","Ladang Bukit Senorang","Kemayan","PHG"
"28380","Ladang Espek Bena","Kemayan","PHG"
"28380","Ladang Juntai","Kemayan","PHG"
"28380","Ladang Kemayan Oil Palm","Kemayan","PHG"
"28380","Ladang Kemayan","Kemayan","PHG"
"28380","Ladang LKPP Nuklias V","Kemayan","PHG"
"28380","Ladang Malaysia N Agric","Kemayan","PHG"
"28380","Ladang TDM Mengkuang","Kemayan","PHG"
"28380","Ladang Teok Lee","Kemayan","PHG"
"28380","Log Ban Chon Estate","Kemayan","PHG"
"28380","Taman Damai","Kemayan","PHG"
"28380","Taman Indah","Kemayan","PHG"
"28380","Taman Jaya","Kemayan","PHG"
"28380","Taman Kemayan Jaya","Kemayan","PHG"
"28380","Taman Kin Yu","Kemayan","PHG"
"28380","Taman Maju Jaya","Kemayan","PHG"
"28380","Taman Sri Mewah","Kemayan","PHG"
"28400","Bukit Malaysia","Mentakab","PHG"
"28400","Damai Taha","Mentakab","PHG"
"28400","Jalan Ara","Mentakab","PHG"
"28400","Jalan Asoka","Mentakab","PHG"
"28400","Jalan Berangan","Mentakab","PHG"
"28400","Jalan Cemara","Mentakab","PHG"
"28400","Jalan Damar Hitam","Mentakab","PHG"
"28400","Jalan Durian","Mentakab","PHG"
"28400","Jalan Inai","Mentakab","PHG"
"28400","Jalan Jati","Mentakab","PHG"
"28400","Jalan Jelutong","Mentakab","PHG"
"28400","Jalan Kapor","Mentakab","PHG"
"28400","Jalan Kayu Manis","Mentakab","PHG"
"28400","Jalan Kempas","Mentakab","PHG"
"28400","Jalan Ketapang","Mentakab","PHG"
"28400","Jalan Mengkudu","Mentakab","PHG"
"28400","Jalan Mengkulang","Mentakab","PHG"
"28400","Jalan Meranti","Mentakab","PHG"
"28400","Jalan Nibong","Mentakab","PHG"
"28400","Jalan Nipah","Mentakab","PHG"
"28400","Jalan Pinang Raja","Mentakab","PHG"
"28400","Jalan Rhu","Mentakab","PHG"
"28400","Jalan Saga","Mentakab","PHG"
"28400","Jalan Selasih","Mentakab","PHG"
"28400","Jalan Semarak Api","Mentakab","PHG"
"28400","Jalan Sri Layang","Mentakab","PHG"
"28400","Jalan Teja","Mentakab","PHG"
"28400","Jenderak Selatan","Mentakab","PHG"
"28400","Jenderak Utara","Mentakab","PHG"
"28400","Kampung Baru (Cina)","Mentakab","PHG"
"28400","Kampung Baru Batu 8","Mentakab","PHG"
"28400","Kampung Baru Chin","Mentakab","PHG"
"28400","Kampung Batu Cina","Mentakab","PHG"
"28400","Kampung Batu Hampar","Mentakab","PHG"
"28400","Kampung Batu Kapor","Mentakab","PHG"
"28400","Kampung Bukit Malaysia","Mentakab","PHG"
"28400","Kampung Bukit Permata","Mentakab","PHG"
"28400","Kampung Chantik Baru","Mentakab","PHG"
"28400","Kampung Chatin Atas","Mentakab","PHG"
"28400","Kampung Chatin Bawah","Mentakab","PHG"
"28400","Kampung Chatin","Mentakab","PHG"
"28400","Kampung Desa Bakti","Mentakab","PHG"
"28400","Kampung Gajah Mati","Mentakab","PHG"
"28400","Kampung Gantok Ulu","Mentakab","PHG"
"28400","Kampung Gantok","Mentakab","PHG"
"28400","Kampung Kelubi","Mentakab","PHG"
"28400","Kampung Lubok Kechemas","Mentakab","PHG"
"28400","Kampung Lubok Serdang","Mentakab","PHG"
"28400","Kampung Mambang Berulang","Mentakab","PHG"
"28400","Kampung Padang Lalang","Mentakab","PHG"
"28400","Kampung Penak","Mentakab","PHG"
"28400","Kampung Rakit","Mentakab","PHG"
"28400","Kampung Seri Kemuning","Mentakab","PHG"
"28400","Kampung Sungai Ara","Mentakab","PHG"
"28400","Kampung Sungai Buloh","Mentakab","PHG"
"28400","Kampung Sungai Buluh","Mentakab","PHG"
"28400","Kampung Sungai Dingin","Mentakab","PHG"
"28400","Kampung Sungai Ketapa","Mentakab","PHG"
"28400","Kampung Tanjong Kerayong","Mentakab","PHG"
"28400","Kampung Tok Embun","Mentakab","PHG"
"28400","Kem Batu Lima","Mentakab","PHG"
"28400","Kompleks Pularis","Mentakab","PHG"
"28400","Ladang Kemasul","Mentakab","PHG"
"28400","Ladang Mentakab","Mentakab","PHG"
"28400","Lorong Merah","Mentakab","PHG"
"28400","Mentakab","Mentakab","PHG"
"28400","Simpang Penak","Mentakab","PHG"
"28400","Taman Bendera Mahkota","Mentakab","PHG"
"28400","Taman Bukit Bendera","Mentakab","PHG"
"28400","Taman Bukit Cermin","Mentakab","PHG"
"28400","Taman Bukit Cina","Mentakab","PHG"
"28400","Taman Bukit Mentakab","Mentakab","PHG"
"28400","Taman Damai Taha","Mentakab","PHG"
"28400","Taman De Villa","Mentakab","PHG"
"28400","Taman Desa Jaya","Mentakab","PHG"
"28400","Taman Desa Saujana","Mentakab","PHG"
"28400","Taman Gembira","Mentakab","PHG"
"28400","Taman Gopeng","Mentakab","PHG"
"28400","Taman Indah","Mentakab","PHG"
"28400","Taman KSM Indah","Mentakab","PHG"
"28400","Taman KSM","Mentakab","PHG"
"28400","Taman Keramat","Mentakab","PHG"
"28400","Taman Lee Chan","Mentakab","PHG"
"28400","Taman Mahkota","Mentakab","PHG"
"28400","Taman Mentakab Bahagia","Mentakab","PHG"
"28400","Taman Mentakab Indah","Mentakab","PHG"
"28400","Taman Mentakab Jaya","Mentakab","PHG"
"28400","Taman Mentakab","Mentakab","PHG"
"28400","Taman Merbau","Mentakab","PHG"
"28400","Taman Pasir Rawa","Mentakab","PHG"
"28400","Taman Perindustrian Temerloh","Mentakab","PHG"
"28400","Taman Rimba","Mentakab","PHG"
"28400","Taman Saga","Mentakab","PHG"
"28400","Taman Segumpas","Mentakab","PHG"
"28400","Taman Sempalit","Mentakab","PHG"
"28400","Taman Sentosa","Mentakab","PHG"
"28400","Taman Seri Bendera","Mentakab","PHG"
"28400","Taman Seri Layang","Mentakab","PHG"
"28400","Taman Setia","Mentakab","PHG"
"28400","Taman Siva","Mentakab","PHG"
"28400","Taman Sungai Ara","Mentakab","PHG"
"28400","Taman Suppiah","Mentakab","PHG"
"28400","Taman Tan Chew Tong","Mentakab","PHG"
"28400","Taman Tanjong Kerayong","Mentakab","PHG"
"28400","Taman Tunas","Mentakab","PHG"
"28400","Taman Zabidin","Mentakab","PHG"
"28407","Mentakab - Peti surat","Mentakab","PHG"
"28409","Mentakab - Beg berkunci","Mentakab","PHG"
"28500","Bandar Baru Lanchang","Lanchang","PHG"
"28500","Bukit Rengit","Lanchang","PHG"
"28500","Felda Bukit Damar","Lanchang","PHG"
"28500","Felda Lakom","Lanchang","PHG"
"28500","IKBM Paya Siput","Lanchang","PHG"
"28500","Kampung Bolok","Lanchang","PHG"
"28500","Kampung Bongsu","Lanchang","PHG"
"28500","Kampung Bukit Gabang","Lanchang","PHG"
"28500","Kampung Chempaka","Lanchang","PHG"
"28500","Kampung Dala","Lanchang","PHG"
"28500","Kampung Jerangan","Lanchang","PHG"
"28500","Kampung Jergoh","Lanchang","PHG"
"28500","Kampung Kenangan","Lanchang","PHG"
"28500","Kampung Kuala Kaung","Lanchang","PHG"
"28500","Kampung Lanar","Lanchang","PHG"
"28500","Kampung Lubok Kawah","Lanchang","PHG"
"28500","Kampung Mempateh","Lanchang","PHG"
"28500","Kampung Pandan","Lanchang","PHG"
"28500","Kampung Paya Laman","Lanchang","PHG"
"28500","Kampung Paya Siput","Lanchang","PHG"
"28500","Kampung Punjong","Lanchang","PHG"
"28500","Kampung Rantau Panjang","Lanchang","PHG"
"28500","Kampung Sementeh","Lanchang","PHG"
"28500","Kampung Sempadan","Lanchang","PHG"
"28500","Kampung Sungai Chermang","Lanchang","PHG"
"28500","Kampung Sungai Kepong","Lanchang","PHG"
"28500","Kampung Sungai Lanar","Lanchang","PHG"
"28500","Kampung Sungai Leleh","Lanchang","PHG"
"28500","Kampung Tedong","Lanchang","PHG"
"28500","Kampung Teris","Lanchang","PHG"
"28500","Kampung Wau","Lanchang","PHG"
"28500","Kuala Gandah","Lanchang","PHG"
"28500","Ladang Sungai Kawang","Lanchang","PHG"
"28500","Lakum","Lanchang","PHG"
"28500","Lanchang","Lanchang","PHG"
"28500","MRSM Lanchang","Lanchang","PHG"
"28500","Taman Desa Bongsu","Lanchang","PHG"
"28500","Taman Lanchang Indah","Lanchang","PHG"
"28500","Taman Setia","Lanchang","PHG"
"28500","Taman Tengku Ampuan Afzan","Lanchang","PHG"
"28600","Felda Mempaga (1 - 3)","Karak","PHG"
"28600","Kampung Baru","Karak","PHG"
"28600","Kampung Batu 3","Karak","PHG"
"28600","Kampung Chinta Manis","Karak","PHG"
"28600","Kampung Jambu Rias","Karak","PHG"
"28600","Kampung Karak Setia","Karak","PHG"
"28600","Kampung Keroh","Karak","PHG"
"28600","Kampung Kuala Pertang","Karak","PHG"
"28600","Kampung Lengkong","Karak","PHG"
"28600","Kampung Paya Pelantar","Karak","PHG"
"28600","Kampung Pong Soi","Karak","PHG"
"28600","Kampung Tanjong","Karak","PHG"
"28600","Karak","Karak","PHG"
"28600","Ladang Bukit Dinding","Karak","PHG"
"28600","Ladang Serai","Karak","PHG"
"28600","Ladang Sungai Pertang","Karak","PHG"
"28600","Mempaga Satu","Karak","PHG"
"28600","Sungai Dua","Karak","PHG"
"28600","Taman Berlian","Karak","PHG"
"28600","Taman Bunga Raya II","Karak","PHG"
"28600","Taman Bunga Raya","Karak","PHG"
"28600","Taman Hijau Fasa II","Karak","PHG"
"28600","Taman Hijau Murni","Karak","PHG"
"28600","Taman Hijau","Karak","PHG"
"28600","Taman Karak Indah","Karak","PHG"
"28600","Taman Karak Jaya","Karak","PHG"
"28600","Taman Karak","Karak","PHG"
"28600","Taman Kenanga","Karak","PHG"
"28600","Taman Makmur Jaya","Karak","PHG"
"28600","Taman Makmur","Karak","PHG"
"28600","Taman Perdana Raya","Karak","PHG"
"28600","Taman Sentosa","Karak","PHG"
"28600","Taman Seri Bayu II","Karak","PHG"
"28600","Taman Sri Bayu","Karak","PHG"
"28600","Taman Sri Makmur","Karak","PHG"
"28600","Taman Wijaya","Karak","PHG"
"28600","Tualang","Karak","PHG"
"28610","Felda Kampung Sertik","Karak","PHG"
"28610","Kampung Haji Kubor","Karak","PHG"
"28610","Kampung Sertik","Karak","PHG"
"28610","Kampung Ulu Pareh","Karak","PHG"
"28610","Sertik","Karak","PHG"
"28620","Kampung Batu 19 (Telemong)","Karak","PHG"
"28620","Kampung Gapoi","Karak","PHG"
"28620","Kampung Manggin","Karak","PHG"
"28620","Kampung Sungai Gapo","Karak","PHG"
"28620","Karak (Batu 1 - 20)","Karak","PHG"
"28620","Karak (Batu 36)","Karak","PHG"
"28620","Ladang Bukit Melita","Karak","PHG"
"28620","Ladang Hoh Yong","Karak","PHG"
"28620","Ladang Kuala Pedah","Karak","PHG"
"28620","Ladang Liew Weng Chee","Karak","PHG"
"28620","Ladang Peng Ann","Karak","PHG"
"28620","Ladang Renjok","Karak","PHG"
"28620","Ladang Sabai","Karak","PHG"
"28620","Ladang Sang Lee","Karak","PHG"
"28620","Ladang Temelong","Karak","PHG"
"28620","Ladang Thong Heng","Karak","PHG"
"28620","Ladang Timah","Karak","PHG"
"28620","Ladang Tuan","Karak","PHG"
"28620","Orchad Height","Karak","PHG"
"28620","Sungai Perdak","Karak","PHG"
"28620","Taman Telemong Indah","Karak","PHG"
"28620","Telemong","Karak","PHG"
"28700","Bandar Hussin","Bentong","PHG"
"28700","Bentong","Bentong","PHG"
"28700","Benus","Bentong","PHG"
"28700","Cegar Mendung","Bentong","PHG"
"28700","Jalan Karak (Batu 2)","Bentong","PHG"
"28700","Jalan Kuala Lumpur (Batu 11)","Bentong","PHG"
"28700","Jalan Kuala Lumpur (Batu 4)","Bentong","PHG"
"28700","Jalan Tras (Batu 1 - 3)","Bentong","PHG"
"28700","Kampung Baharu Penjuring","Bentong","PHG"
"28700","Kampung Baru Bentong","Bentong","PHG"
"28700","Kampung Baru Kemansur","Bentong","PHG"
"28700","Kampung Baru Ketari","Bentong","PHG"
"28700","Kampung Baru","Bentong","PHG"
"28700","Kampung Batu 3 (Jalan Kuala Lumpur)","Bentong","PHG"
"28700","Kampung Benggali","Bentong","PHG"
"28700","Kampung Benus","Bentong","PHG"
"28700","Kampung Bukit Piatu","Bentong","PHG"
"28700","Kampung Chamang Baru","Bentong","PHG"
"28700","Kampung Chamang Lama","Bentong","PHG"
"28700","Kampung Chamang","Bentong","PHG"
"28700","Kampung Chegar Medang","Bentong","PHG"
"28700","Kampung Gementi","Bentong","PHG"
"28700","Kampung Kemansor","Bentong","PHG"
"28700","Kampung Ketari","Bentong","PHG"
"28700","Kampung Kuala Repas","Bentong","PHG"
"28700","Kampung Perting","Bentong","PHG"
"28700","Kampung Repas","Bentong","PHG"
"28700","Kampung Sungai Gabong","Bentong","PHG"
"28700","Kampung Sungai Miak","Bentong","PHG"
"28700","Kampung Ulu Perting","Bentong","PHG"
"28700","Kem Bentong","Bentong","PHG"
"28700","Kemansur","Bentong","PHG"
"28700","Kemasul","Bentong","PHG"
"28700","Ketari","Bentong","PHG"
"28700","Ladang Pak Wai","Bentong","PHG"
"28700","MRSM Bentong","Bentong","PHG"
"28700","Mindef","Bentong","PHG"
"28700","Pekan Ketari","Bentong","PHG"
"28700","Perting","Bentong","PHG"
"28700","Perumahan Melayu Kampung Baru","Bentong","PHG"
"28700","Sungai Marong","Bentong","PHG"
"28700","Sungai Penjuring","Bentong","PHG"
"28700","Taman Aman","Bentong","PHG"
"28700","Taman Anggerik","Bentong","PHG"
"28700","Taman Bentung Ketari","Bentong","PHG"
"28700","Taman Benus Jaya","Bentong","PHG"
"28700","Taman Benus Permai","Bentong","PHG"
"28700","Taman Bukit Bayong","Bentong","PHG"
"28700","Taman Bukit Bentong","Bentong","PHG"
"28700","Taman Bukit Chamang","Bentong","PHG"
"28700","Taman Bukit Indah","Bentong","PHG"
"28700","Taman Bukit Kuda","Bentong","PHG"
"28700","Taman Bumi Cemerlang","Bentong","PHG"
"28700","Taman Cempaka 2","Bentong","PHG"
"28700","Taman Cempaka","Bentong","PHG"
"28700","Taman Chegar Medang","Bentong","PHG"
"28700","Taman Dahlia","Bentong","PHG"
"28700","Taman Dato Hussin","Bentong","PHG"
"28700","Taman Dato Shah Bandar","Bentong","PHG"
"28700","Taman Desa Damai","Bentong","PHG"
"28700","Taman Desa Ria","Bentong","PHG"
"28700","Taman Gemilang","Bentong","PHG"
"28700","Taman Harmoni","Bentong","PHG"
"28700","Taman KSM","Bentong","PHG"
"28700","Taman Ketari","Bentong","PHG"
"28700","Taman Kolej Baru","Bentong","PHG"
"28700","Taman Kolej","Bentong","PHG"
"28700","Taman Mawar Indah","Bentong","PHG"
"28700","Taman Mawar Sari","Bentong","PHG"
"28700","Taman Mawar","Bentong","PHG"
"28700","Taman Melati","Bentong","PHG"
"28700","Taman Meranti","Bentong","PHG"
"28700","Taman Mindef","Bentong","PHG"
"28700","Taman Muhibbah","Bentong","PHG"
"28700","Taman Okid 2","Bentong","PHG"
"28700","Taman Okid","Bentong","PHG"
"28700","Taman Pelangi","Bentong","PHG"
"28700","Taman Saga","Bentong","PHG"
"28700","Taman Seri Bentong","Bentong","PHG"
"28700","Taman Seri Marong","Bentong","PHG"
"28700","Taman Seri Wangi","Bentong","PHG"
"28700","Taman Seroja","Bentong","PHG"
"28700","Taman Shahbandar Husin","Bentong","PHG"
"28700","Taman Sri Siantan","Bentong","PHG"
"28700","Taman Sri Tanjong","Bentong","PHG"
"28700","Taman Sungai Marong","Bentong","PHG"
"28700","Taman Wangi","Bentong","PHG"
"28700","Zon Perindustrian 2","Bentong","PHG"
"28700","Zon Perindustrian Bentong","Bentong","PHG"
"28707","Bentong - Peti surat","Bentong","PHG"
"28709","Bentong - Beg berkunci","Bentong","PHG"
"28730","Kampung Baru Manchis","Bentong","PHG"
"28730","Kampung Ponson","Bentong","PHG"
"28730","Kampung Semei","Bentong","PHG"
"28730","Kampung Shefei","Bentong","PHG"
"28730","Kampung Ulu Shafei","Bentong","PHG"
"28730","Ladang Bentong","Bentong","PHG"
"28730","Manchis","Bentong","PHG"
"28740","Kampung Baharu Pelangai","Bentong","PHG"
"28740","Kampung Baris","Bentong","PHG"
"28740","Kampung Batu Gajah","Bentong","PHG"
"28740","Kampung Hayat","Bentong","PHG"
"28740","Kampung Jawi-Jawi","Bentong","PHG"
"28740","Kampung Pelangai","Bentong","PHG"
"28740","Lembaga Jaya","Bentong","PHG"
"28750","Bukit Tinggi","Bentong","PHG"
"28750","Genting Sepah","Bentong","PHG"
"28750","Kampung Chemperoh","Bentong","PHG"
"28750","Kampung Cheringing Tengah","Bentong","PHG"
"28750","Kampung Cheringing Ulu","Bentong","PHG"
"28750","Kampung Janda Baik","Bentong","PHG"
"28750","Kampung Sum-Sum Hilir","Bentong","PHG"
"28750","Kampung Sum-Sum","Bentong","PHG"
"28750","Lentang","Bentong","PHG"
"28750","Pelangai","Bentong","PHG"
"28750","Selesa Hillhomes","Bentong","PHG"
"28800","Kampung Lebu","Lurah Bilut","PHG"
"28800","Lurah Bilut","Lurah Bilut","PHG"
"28800","Simpai","Lurah Bilut","PHG"
"39000","Carnation Park (Block A - E)","Tanah Rata","PHG"
"39000","Gunung Berinchang","Tanah Rata","PHG"
"39000","Kampung Orang Asli Sungai Ruil","Tanah Rata","PHG"
"39000","Kampung Raja","Tanah Rata","PHG"
"39000","Kampung Teringkap","Tanah Rata","PHG"
"39000","Kuala Terala","Tanah Rata","PHG"
"39000","Ladang Blue Valley","Tanah Rata","PHG"
"39000","Ladang Shum Yip Leong","Tanah Rata","PHG"
"39000","Ladang Sungai Palas","Tanah Rata","PHG"
"39000","Ladang Teh Bharat","Tanah Rata","PHG"
"39000","Persiaran Camelia (1- 4 Bandar Baru)","Tanah Rata","PHG"
"39000","Taman Sedia","Tanah Rata","PHG"
"39000","Tanah Rata (Batu 49)","Tanah Rata","PHG"
"39000","Tanah Rata","Tanah Rata","PHG"
"39000","Tanah Tinggi Cameron","Tanah Rata","PHG"
"39007","Ladang Sungai Palas","Tanah Rata","PHG"
"39007","Tanah Rata - Peti Surat","Tanah Rata","PHG"
"39009","Ladang The Bharat","Tanah Rata","PHG"
"39009","Tanah Rata - Beg BerKunci","Tanah Rata","PHG"
"39010","Kampung Raja","Tanah Rata","PHG"
"39010","Kuala Terla","Tanah Rata","PHG"
"39010","Ladang Blue Valley","Tanah Rata","PHG"
"39010","Tanah Rata Batu 49","Tanah Rata","PHG"
"39100","Arked Peladang","Brinchang","PHG"
"39100","Bandar Baru Brinchang","Brinchang","PHG"
"39100","Brinchang","Brinchang","PHG"
"39100","Equatorial Hotel","Brinchang","PHG"
"39100","Flat JKR","Brinchang","PHG"
"39100","Gerai MDCH Kea Farm","Brinchang","PHG"
"39100","Gerai Terminal Inn","Brinchang","PHG"
"39100","Green Cow","Brinchang","PHG"
"39100","Ibu Pejabat Polis Brinchang","Brinchang","PHG"
"39100","Jalan Kolam Air","Brinchang","PHG"
"39100","Jalan Kuari 2","Brinchang","PHG"
"39100","Jalan Kuari","Brinchang","PHG"
"39100","Jalan Pekan Lama","Brinchang","PHG"
"39100","Jalan Sungai Palas","Brinchang","PHG"
"39100","Jalan Ulu Tringkap","Brinchang","PHG"
"39100","Kampung Baru Brinchang","Brinchang","PHG"
"39100","Kampung Baru Teringkap","Brinchang","PHG"
"39100","Kampung Melayu Teringkap","Brinchang","PHG"
"39100","Kampung Tringkap","Brinchang","PHG"
"39100","Kea Farm","Brinchang","PHG"
"39100","Pasar Brinchang","Brinchang","PHG"
"39100","Pasar Tringkap","Brinchang","PHG"
"39100","Rumah-Rumah Tentera","Brinchang","PHG"
"39100","S.K Brinchang","Brinchang","PHG"
"39100","Sungai Burung","Brinchang","PHG"
"39100","Taman Bukit Indah","Brinchang","PHG"
"39100","Taman MCA Tringkap","Brinchang","PHG"
"39100","Taman Teringkap Puncak","Brinchang","PHG"
"39100","Teringkap","Brinchang","PHG"
"39200","Bertam Valley","Ringlet","PHG"
"39200","Gerai Makan Ringlet","Ringlet","PHG"
"39200","Hotel Lake House","Ringlet","PHG"
"39200","Jalan Bertam Valley","Ringlet","PHG"
"39200","Jalan Ladang Boh","Ringlet","PHG"
"39200","Jalan MDCH","Ringlet","PHG"
"39200","Jalan Ulu Bertam","Ringlet","PHG"
"39200","Jalan Ulu Merah","Ringlet","PHG"
"39200","Jalan Ulu Ringlet","Ringlet","PHG"
"39200","Kampung Baru B","Ringlet","PHG"
"39200","Kampung Baru","Ringlet","PHG"
"39200","Kampung Lama A","Ringlet","PHG"
"39200","Kampung Lubok Tamang","Ringlet","PHG"
"39200","Kampung Melayu","Ringlet","PHG"
"39200","Kampung Sungai Kabuk","Ringlet","PHG"
"39200","Ladang Boh","Ringlet","PHG"
"39200","Ladang Ng Teong Kiat","Ringlet","PHG"
"39200","Ladang Shum Yip Leong","Ringlet","PHG"
"39200","Pangsapuri Aster","Ringlet","PHG"
"39200","Pekan Bertam Valley SA","Ringlet","PHG"
"39200","Pekan Bertam Valley SB","Ringlet","PHG"
"39200","Pekan Rengit","Ringlet","PHG"
"39200","Pusat Bengkel Ulu Ringlet","Ringlet","PHG"
"39200","Quarters Hospital","Ringlet","PHG"
"39200","Quarters JKR","Ringlet","PHG"
"39200","Quarters Loji Stir Habu","Ringlet","PHG"
"39200","Quarters TNB","Ringlet","PHG"
"39200","Ringlet","Ringlet","PHG"
"39200","Rumah Murah","Ringlet","PHG"
"39200","Sungai Parang","Ringlet","PHG"
"39200","Taman Bertam Mewah","Ringlet","PHG"
"39200","Taman Evergreen Villa","Ringlet","PHG"
"39200","Taman Ipoh Land Aquiti","Ringlet","PHG"
"39200","Taman Lake View","Ringlet","PHG"
"39200","Taman MCA Lembah Bertam","Ringlet","PHG"
"39200","Taman MCA","Ringlet","PHG"
"39200","Taman Malar Hijau","Ringlet","PHG"
"39200","Taman Mewah","Ringlet","PHG"
"39200","Taman Orchid Deluxe Park","Ringlet","PHG"
"39200","Taman Pelangi","Ringlet","PHG"
"39200","Taman Ringlet","Ringlet","PHG"
"39200","Taman Sri Bertam","Ringlet","PHG"
"49000","Bukit Fraser","Bukit Fraser","PHG"
"49000","Jalan Widuri","Bukit Fraser","PHG"
"69000","Genting Highlands","Genting Highlands","PHG"